{
"type": "FeatureCollection",
"name": "geo_25_短期入所生活介護",
"crs": { "type": "name", "properties": { "name": "urn:ogc:def:crs:OGC:1.3:CRS84" } },
"features": [
{ "type": "Feature", "properties": { "内容": "ショートステイ　南天【短期入所生活介護】滋賀県大津市松が丘七丁目８番１０号", "url": "https://www.kaigokensaku.mhlw.go.jp/25/index.php?action_kouhyou_detail_004_kani=true&JigyosyoCd=2570104808-00&ServiceCd=210&Type=search", "url2": "http://oumi-syouseikai.jp/ashitaba/" }, "geometry": { "type": "Point", "coordinates": [ 135.9629751, 34.969259 ] } },
{ "type": "Feature", "properties": { "内容": "ショートステイ南郷【短期入所生活介護】滋賀県大津市南郷1-6-10", "url": "https://www.kaigokensaku.mhlw.go.jp/25/index.php?action_kouhyou_detail_004_kani=true&JigyosyoCd=2570105334-00&ServiceCd=210&Type=search", "url2": null }, "geometry": { "type": "Point", "coordinates": [ 135.9071442, 34.9451657 ] } },
{ "type": "Feature", "properties": { "内容": "近江舞子しょうぶ苑　ユニット型個室・空床型　短期入所生活介護事業所【短期入所生活介護】滋賀県大津市南小松90番地", "url": "https://www.kaigokensaku.mhlw.go.jp/25/index.php?action_kouhyou_detail_004_kani=true&JigyosyoCd=2570103917-00&ServiceCd=210&Type=search", "url2": "http://www.shiga-f.com" }, "geometry": { "type": "Point", "coordinates": [ 135.9588354, 35.2386833 ] } },
{ "type": "Feature", "properties": { "内容": "特別養護老人ホーム　ひかりの里【短期入所生活介護】滋賀県大津市錦織3丁目10番27号", "url": "https://www.kaigokensaku.mhlw.go.jp/25/index.php?action_kouhyou_detail_004_kani=true&JigyosyoCd=2570106209-00&ServiceCd=210&Type=search", "url2": "https://hikarinosato.org/" }, "geometry": { "type": "Point", "coordinates": [ 135.8585723, 35.0303038 ] } },
{ "type": "Feature", "properties": { "内容": "短期入所生活介護　リバプール【短期入所生活介護】大津市大石中1-5-14", "url": "https://www.kaigokensaku.mhlw.go.jp/25/index.php?action_kouhyou_detail_004_kani=true&JigyosyoCd=2570101630-00&ServiceCd=210&Type=search", "url2": "http://www.liverpool.or.jp" }, "geometry": { "type": "Point", "coordinates": [ 135.911716500000011, 34.9099853 ] } },
{ "type": "Feature", "properties": { "内容": "ショートステイ　千寿の郷【短期入所生活介護】滋賀県大津市石山千町276-1", "url": "https://www.kaigokensaku.mhlw.go.jp/25/index.php?action_kouhyou_detail_004_kani=true&JigyosyoCd=2570100640-00&ServiceCd=210&Type=search", "url2": "http://senjyunosato.or.jp/" }, "geometry": { "type": "Point", "coordinates": [ 135.885366100000027, 34.9494088 ] } },
{ "type": "Feature", "properties": { "内容": "社会福祉法人　琵琶湖愛輪会【短期入所生活介護】滋賀県大津市大物668", "url": "https://www.kaigokensaku.mhlw.go.jp/25/index.php?action_kouhyou_detail_004_kani=true&JigyosyoCd=2570104014-00&ServiceCd=210&Type=search", "url2": "https://biwakoaiwakai.com" }, "geometry": { "type": "Point", "coordinates": [ 135.933854102028818, 35.209435503347997 ] } },
{ "type": "Feature", "properties": { "内容": "空床利用型ショートステイ　真野しょうぶ苑【短期入所生活介護】滋賀県大津市真野四丁目2番1号", "url": "https://www.kaigokensaku.mhlw.go.jp/25/index.php?action_kouhyou_detail_004_kani=true&JigyosyoCd=2570104972-00&ServiceCd=210&Type=search", "url2": "shiga-f.com" }, "geometry": { "type": "Point", "coordinates": [ 135.915337499999964, 35.1291942 ] } },
{ "type": "Feature", "properties": { "内容": "ショートステイ真盛園【短期入所生活介護】滋賀県大津市坂本五丁目１３番１号", "url": "https://www.kaigokensaku.mhlw.go.jp/25/index.php?action_kouhyou_detail_004_kani=true&JigyosyoCd=2570100046-00&ServiceCd=210&Type=search", "url2": "htto;//www.sinseien.jp/" }, "geometry": { "type": "Point", "coordinates": [ 135.86760460000005, 35.0808103 ] } },
{ "type": "Feature", "properties": { "内容": "大津月輪ケアコミュニティそよ風【短期入所生活介護】月輪三丁目24-2", "url": "https://www.kaigokensaku.mhlw.go.jp/25/index.php?action_kouhyou_detail_004_kani=true&JigyosyoCd=2570103727-00&ServiceCd=210&Type=search", "url2": "https://www.sykz.co.jp/" }, "geometry": { "type": "Point", "coordinates": [ 135.94101569999998, 34.985029 ] } },
{ "type": "Feature", "properties": { "内容": "瀬田大江ケアホテル【短期入所生活介護】滋賀県大津市瀬田大江町32-19", "url": "https://www.kaigokensaku.mhlw.go.jp/25/index.php?action_kouhyou_detail_004_kani=true&JigyosyoCd=2570105458-00&ServiceCd=210&Type=search", "url2": "http：//sangajapan.jp/setaooe/" }, "geometry": { "type": "Point", "coordinates": [ 135.9342805, 34.967211 ] } },
{ "type": "Feature", "properties": { "内容": "夕照たまのうらショートステイ【短期入所生活介護】滋賀県大津市玉野浦15番1号", "url": "https://www.kaigokensaku.mhlw.go.jp/25/index.php?action_kouhyou_detail_004_kani=true&JigyosyoCd=2570104964-00&ServiceCd=210&Type=search", "url2": "http://www.kiryuen.jp/tamanoura/" }, "geometry": { "type": "Point", "coordinates": [ 135.910586200000012, 34.981743800000018 ] } },
{ "type": "Feature", "properties": { "内容": "短期入所生活介護　けやきの杜【短期入所生活介護】滋賀県大津市小野372-1", "url": "https://www.kaigokensaku.mhlw.go.jp/25/index.php?action_kouhyou_detail_004_kani=true&JigyosyoCd=2570105748-00&ServiceCd=210&Type=search", "url2": "https://keyaki-no-mori.com/" }, "geometry": { "type": "Point", "coordinates": [ 135.923675425148502, 35.142494697261498 ] } },
{ "type": "Feature", "properties": { "内容": "特別養護老人ホームあすは【短期入所生活介護】滋賀県大津市瀬田5丁目1-55", "url": "https://www.kaigokensaku.mhlw.go.jp/25/index.php?action_kouhyou_detail_004_kani=true&JigyosyoCd=2570105847-00&ServiceCd=210&Type=search", "url2": "https://428kai.or.jp/" }, "geometry": { "type": "Point", "coordinates": [ 135.913183953056375, 34.964481369225531 ] } },
{ "type": "Feature", "properties": { "内容": "長等の里短期入所生活介護事業所【短期入所生活介護】大津市神出開町字徴妙寺２６０番９号", "url": "https://www.kaigokensaku.mhlw.go.jp/25/index.php?action_kouhyou_detail_004_kani=true&JigyosyoCd=2570100327-00&ServiceCd=210&Type=search", "url2": "https://www.koujyukai-otsu.com/nagara/nagara-ss.php" }, "geometry": { "type": "Point", "coordinates": [ 135.853610600000025, 35.0054388 ] } },
{ "type": "Feature", "properties": { "内容": "ケアタウンからさき　短期入所生活介護【短期入所生活介護】滋賀県大津市見世一丁目17番1号", "url": "https://www.kaigokensaku.mhlw.go.jp/25/index.php?action_kouhyou_detail_004_kani=true&JigyosyoCd=2570100970-00&ServiceCd=210&Type=search", "url2": "http://www.kosei-f.jp/" }, "geometry": { "type": "Point", "coordinates": [ 135.859631300000046, 35.0406486 ] } },
{ "type": "Feature", "properties": { "内容": "ショートステイ　木楽【短期入所生活介護】大津市里５丁目2-13", "url": "https://www.kaigokensaku.mhlw.go.jp/25/index.php?action_kouhyou_detail_004_kani=true&JigyosyoCd=2570101374-00&ServiceCd=210&Type=search", "url2": "yoshitoku.or.jp" }, "geometry": { "type": "Point", "coordinates": [ 135.928605699999906, 34.9365527 ] } },
{ "type": "Feature", "properties": { "内容": "近江舞子しょうぶ苑　短期入所生活介護事業所【短期入所生活介護】滋賀県大津市南小松90番地", "url": "https://www.kaigokensaku.mhlw.go.jp/25/index.php?action_kouhyou_detail_004_kani=true&JigyosyoCd=2570101721-00&ServiceCd=210&Type=search", "url2": "shiga-f.com" }, "geometry": { "type": "Point", "coordinates": [ 135.958846499999936, 35.2386972 ] } },
{ "type": "Feature", "properties": { "内容": "特別養護老人ホーム風流里【短期入所生活介護】滋賀県大津市相模町10番1号", "url": "https://www.kaigokensaku.mhlw.go.jp/25/index.php?action_kouhyou_detail_004_kani=true&JigyosyoCd=2570104162-00&ServiceCd=210&Type=search", "url2": "https://428kai.or.jp/" }, "geometry": { "type": "Point", "coordinates": [ 135.885180100000071, 34.9954678 ] } },
{ "type": "Feature", "properties": { "内容": "ショートステイ紬【短期入所生活介護】滋賀県大津市南郷六丁目1102番地の1", "url": "https://www.kaigokensaku.mhlw.go.jp/25/index.php?action_kouhyou_detail_004_kani=true&JigyosyoCd=2570105631-00&ServiceCd=210&Type=search", "url2": "https://www.rokushogroup.jp/" }, "geometry": { "type": "Point", "coordinates": [ 135.9147211, 34.9301308 ] } },
{ "type": "Feature", "properties": { "内容": "特別養護老人ホーム榛原の里【短期入所生活介護】滋賀県大津市真野普門三丁目1120番地", "url": "https://www.kaigokensaku.mhlw.go.jp/25/index.php?action_kouhyou_detail_004_kani=true&JigyosyoCd=2570100061-00&ServiceCd=210&Type=search", "url2": "http://www.fukusi-otsu.or.jp/" }, "geometry": { "type": "Point", "coordinates": [ 135.900600299999951, 35.1472502 ] } },
{ "type": "Feature", "properties": { "内容": "医療法人輝生会ルミエス松が丘ショートステイ【短期入所生活介護】大津市松が丘６－６－１", "url": "https://www.kaigokensaku.mhlw.go.jp/25/index.php?action_kouhyou_detail_004_kani=true&JigyosyoCd=2570102109-00&ServiceCd=210&Type=search", "url2": "http://www5.ocn.ne.jp/~kiseikai/" }, "geometry": { "type": "Point", "coordinates": [ 135.961561299999971, 34.9706839 ] } },
{ "type": "Feature", "properties": { "内容": "特別養護老人ホーム　湖の花【短期入所生活介護】滋賀県大津市衣川二丁目２７番１号", "url": "https://www.kaigokensaku.mhlw.go.jp/25/index.php?action_kouhyou_detail_004_kani=true&JigyosyoCd=2570102182-00&ServiceCd=210&Type=search", "url2": "http://rakujyu-konohana.com/" }, "geometry": { "type": "Point", "coordinates": [ 135.905024799999978, 35.1143485 ] } },
{ "type": "Feature", "properties": { "内容": "琵琶湖大橋ケアホテル【短期入所生活介護】本堅田４丁目4-21", "url": "https://www.kaigokensaku.mhlw.go.jp/25/index.php?action_kouhyou_detail_004_kani=true&JigyosyoCd=2570105524-00&ServiceCd=210&Type=search", "url2": "https://sangajapan.jp/biwako2/biwako201/" }, "geometry": { "type": "Point", "coordinates": [ 135.91927160000003, 35.1166625 ] } },
{ "type": "Feature", "properties": { "内容": "ショートステイ　アシタバ【短期入所生活介護】滋賀県大津市松が丘７丁目１５番６号", "url": "https://www.kaigokensaku.mhlw.go.jp/25/index.php?action_kouhyou_detail_004_kani=true&JigyosyoCd=2570103925-00&ServiceCd=210&Type=search", "url2": "http://oumi-syouseikai.jp/ashitaba/" }, "geometry": { "type": "Point", "coordinates": [ 135.964311100000032, 34.9711311 ] } },
{ "type": "Feature", "properties": { "内容": "桐生園ショートスティ【短期入所生活介護】大津市桐生一丁目26番7号", "url": "https://www.kaigokensaku.mhlw.go.jp/25/index.php?action_kouhyou_detail_004_kani=true&JigyosyoCd=2570101127-00&ServiceCd=210&Type=search", "url2": "http://www.kiryuen.jp/" }, "geometry": { "type": "Point", "coordinates": [ 135.991728400000056, 34.9708678 ] } },
{ "type": "Feature", "properties": { "内容": "カーサ月の輪ショートステイ【短期入所生活介護】滋賀県大津市月輪１丁目１２番８号", "url": "https://www.kaigokensaku.mhlw.go.jp/25/index.php?action_kouhyou_detail_004_kani=true&JigyosyoCd=2570103008-00&ServiceCd=210&Type=search", "url2": "http://koujyukai-otsu.com/casa/" }, "geometry": { "type": "Point", "coordinates": [ 135.93500789999996, 34.9922918 ] } },
{ "type": "Feature", "properties": { "内容": "介護老人福祉施設福寿荘【短期入所生活介護】大津市大萱七丁目7番1号", "url": "https://www.kaigokensaku.mhlw.go.jp/25/index.php?action_kouhyou_detail_004_kani=true&JigyosyoCd=2570100087-00&ServiceCd=210&Type=search", "url2": "https://fukuju-sou.com/fukuju/" }, "geometry": { "type": "Point", "coordinates": [ 135.915676500000018, 34.9948826 ] } },
{ "type": "Feature", "properties": { "内容": "さざなみ苑　ショートステイ【短期入所生活介護】彦根市城町２丁目１３番３号", "url": "https://www.kaigokensaku.mhlw.go.jp/25/index.php?action_kouhyou_detail_004_kani=true&JigyosyoCd=2570200341-00&ServiceCd=210&Type=search", "url2": "http://www.sazanamien.com" }, "geometry": { "type": "Point", "coordinates": [ 136.241813099999945, 35.2771931 ] } },
{ "type": "Feature", "properties": { "内容": "ショートステイサニープレイス彦根【短期入所生活介護】滋賀県彦根市三津町４４６番地１特別養護老人ホームサニープレイス彦根", "url": "https://www.kaigokensaku.mhlw.go.jp/25/index.php?action_kouhyou_detail_004_kani=true&JigyosyoCd=2570201380-00&ServiceCd=210&Type=search", "url2": "https://sunnyplace.or.jp/" }, "geometry": { "type": "Point", "coordinates": [ 136.210730242050204, 35.202941867460723 ] } },
{ "type": "Feature", "properties": { "内容": "シンシア彦根鳥居本【短期入所生活介護】滋賀県彦根市鳥居本町1389-1", "url": "https://www.kaigokensaku.mhlw.go.jp/25/index.php?action_kouhyou_detail_004_kani=true&JigyosyoCd=2570201810-00&ServiceCd=210&Type=search", "url2": null }, "geometry": { "type": "Point", "coordinates": [ 136.2901311, 35.2826172 ] } },
{ "type": "Feature", "properties": { "内容": "近江ふるさと園短期入所生活介護事業所【短期入所生活介護】滋賀県彦根市石寺町713番地", "url": "https://www.kaigokensaku.mhlw.go.jp/25/index.php?action_kouhyou_detail_004_kani=true&JigyosyoCd=2570200119-00&ServiceCd=210&Type=search", "url2": "http://www.omi-furusato.jp" }, "geometry": { "type": "Point", "coordinates": [ 136.185470099999947, 35.244033 ] } },
{ "type": "Feature", "properties": { "内容": "彦根ケアセンターそよ風【短期入所生活介護】駅東町2番3", "url": "https://www.kaigokensaku.mhlw.go.jp/25/index.php?action_kouhyou_detail_004_kani=true&JigyosyoCd=2570201604-00&ServiceCd=210&Type=search", "url2": "https://www.sykz.co.jp/shisetsu-zaitaku/254493" }, "geometry": { "type": "Point", "coordinates": [ 136.2647952, 35.2706709 ] } },
{ "type": "Feature", "properties": { "内容": "シンシア彦根【短期入所生活介護】滋賀県彦根市高宮町2426-1", "url": "https://www.kaigokensaku.mhlw.go.jp/25/index.php?action_kouhyou_detail_004_kani=true&JigyosyoCd=2570201547-00&ServiceCd=210&Type=search", "url2": "http://www.sincere-gri.com" }, "geometry": { "type": "Point", "coordinates": [ 136.259407900000014, 35.2364899 ] } },
{ "type": "Feature", "properties": { "内容": "平田ケアホテル翔裕館【短期入所生活介護】滋賀県彦根市平田町1114-1ひらた翔裕館Ⅰ号館", "url": "https://www.kaigokensaku.mhlw.go.jp/25/index.php?action_kouhyou_detail_004_kani=true&JigyosyoCd=2570201570-00&ServiceCd=210&Type=search", "url2": "https://www.sanga-kaigo.co.jp/" }, "geometry": { "type": "Point", "coordinates": [ 136.238418759524535, 35.260651488743953 ] } },
{ "type": "Feature", "properties": { "内容": "ショートステイ　ゆふなぎ【短期入所生活介護】滋賀県長浜市下坂中町200番地1", "url": "https://www.kaigokensaku.mhlw.go.jp/25/index.php?action_kouhyou_detail_004_kani=true&JigyosyoCd=2570301297-00&ServiceCd=210&Type=search", "url2": "http://o-kourakukai.or.jp" }, "geometry": { "type": "Point", "coordinates": [ 136.2840519, 35.3650723 ] } },
{ "type": "Feature", "properties": { "内容": "特別養護老人ホームまんてん塩津【短期入所生活介護】滋賀県長浜市西浅井町塩津中１１２３番地", "url": "https://www.kaigokensaku.mhlw.go.jp/25/index.php?action_kouhyou_detail_004_kani=true&JigyosyoCd=2570301859-00&ServiceCd=210&Type=search", "url2": "www.man-ten.org" }, "geometry": { "type": "Point", "coordinates": [ 136.157144, 35.527756 ] } },
{ "type": "Feature", "properties": { "内容": "特別養護老人ホーム　けやきの杜【短期入所生活介護】滋賀県長浜市高月町柏原1055番地", "url": "https://www.kaigokensaku.mhlw.go.jp/25/index.php?action_kouhyou_detail_004_kani=true&JigyosyoCd=2570300901-00&ServiceCd=210&Type=search", "url2": "http://tashinkai.jp" }, "geometry": { "type": "Point", "coordinates": [ 136.2445318, 35.4787947 ] } },
{ "type": "Feature", "properties": { "内容": "田中ケアサービス株式会社　長浜支援センターショートステイ『あいあい』【短期入所生活介護】滋賀県長浜市祇園町148-1田中ケアサービス株式会社長浜支援センターショートスティあいあい", "url": "https://www.kaigokensaku.mhlw.go.jp/25/index.php?action_kouhyou_detail_004_kani=true&JigyosyoCd=2570300224-00&ServiceCd=210&Type=search", "url2": "http://www.tanakacare.co.jp/" }, "geometry": { "type": "Point", "coordinates": [ 136.259443534600337, 35.386032816106891 ] } },
{ "type": "Feature", "properties": { "内容": "短期入所施設　奥びわこ【短期入所生活介護】滋賀県長浜市西浅井町大浦１７８８－３", "url": "https://www.kaigokensaku.mhlw.go.jp/25/index.php?action_kouhyou_detail_004_kani=true&JigyosyoCd=2570300877-00&ServiceCd=210&Type=search", "url2": "http://sontokukai.com/" }, "geometry": { "type": "Point", "coordinates": [ 136.112601899999959, 35.4801667 ] } },
{ "type": "Feature", "properties": { "内容": "特別養護老人ホーム伊香の里【短期入所生活介護】滋賀県長浜市木本町黒田1221", "url": "https://www.kaigokensaku.mhlw.go.jp/25/index.php?action_kouhyou_detail_004_kani=true&JigyosyoCd=2570301339-00&ServiceCd=210&Type=search", "url2": "http//www.nagahama-shakyo.or.jp" }, "geometry": { "type": "Point", "coordinates": [ 136.21234249129941, 35.505033207661477 ] } },
{ "type": "Feature", "properties": { "内容": "青浄苑ショートステイ【短期入所生活介護】滋賀県長浜市加田町２９９５", "url": "https://www.kaigokensaku.mhlw.go.jp/25/index.php?action_kouhyou_detail_004_kani=true&JigyosyoCd=2570300067-00&ServiceCd=210&Type=search", "url2": "http://www.seishokai.jp/seijoen" }, "geometry": { "type": "Point", "coordinates": [ 136.305757699999958, 35.3602319 ] } },
{ "type": "Feature", "properties": { "内容": "アンタレス　ショートステイ【短期入所生活介護】滋賀県長浜市加田町3360", "url": "https://www.kaigokensaku.mhlw.go.jp/25/index.php?action_kouhyou_detail_004_kani=true&JigyosyoCd=2570300661-00&ServiceCd=210&Type=search", "url2": "https://www.seishokai.jp/antares" }, "geometry": { "type": "Point", "coordinates": [ 136.304977300000019, 35.3610679 ] } },
{ "type": "Feature", "properties": { "内容": "特別養護老人ホーム　湖北水鳥の里【短期入所生活介護】滋賀県長浜市湖北町延勝寺1844番地", "url": "https://www.kaigokensaku.mhlw.go.jp/25/index.php?action_kouhyou_detail_004_kani=true&JigyosyoCd=2570300786-00&ServiceCd=210&Type=search", "url2": "http://www18.ocn.ne.jp/~mizudori/" }, "geometry": { "type": "Point", "coordinates": [ 136.197739100000035, 35.4316088 ] } },
{ "type": "Feature", "properties": { "内容": "ショートステイ青芳【短期入所生活介護】滋賀県長浜市川道町2572", "url": "https://www.kaigokensaku.mhlw.go.jp/25/index.php?action_kouhyou_detail_004_kani=true&JigyosyoCd=2570300372-00&ServiceCd=210&Type=search", "url2": "http://www.seishokai.jp/seiho" }, "geometry": { "type": "Point", "coordinates": [ 136.2353402, 35.4030773 ] } },
{ "type": "Feature", "properties": { "内容": "ふくら短期入所生活介護事業所【短期入所生活介護】長浜市内保町４８０", "url": "https://www.kaigokensaku.mhlw.go.jp/25/index.php?action_kouhyou_detail_004_kani=true&JigyosyoCd=2570301065-00&ServiceCd=210&Type=search", "url2": "http//www.glow.or.jp" }, "geometry": { "type": "Point", "coordinates": [ 136.3014518, 35.4319508 ] } },
{ "type": "Feature", "properties": { "内容": "水茎の里ショートスティ【短期入所生活介護】滋賀県近江八幡市牧町1885特別養護老人ホーム水茎の里（本館）", "url": "https://www.kaigokensaku.mhlw.go.jp/25/index.php?action_kouhyou_detail_004_kani=true&JigyosyoCd=2570400073-00&ServiceCd=210&Type=search", "url2": "http://www.ii-kaigo.or.jp" }, "geometry": { "type": "Point", "coordinates": [ 136.048592099999951, 35.1400755 ] } },
{ "type": "Feature", "properties": { "内容": "短期入所生活介護事業所　安土やすらぎの郷【短期入所生活介護】滋賀県近江八幡市安土町下豊浦4141", "url": "https://www.kaigokensaku.mhlw.go.jp/25/index.php?action_kouhyou_detail_004_kani=true&JigyosyoCd=2570400479-00&ServiceCd=210&Type=search", "url2": "https://ichizenkai.com" }, "geometry": { "type": "Point", "coordinates": [ 136.129703699999936, 35.157033 ] } },
{ "type": "Feature", "properties": { "内容": "短期入所生活介護　赤煉瓦の郷【短期入所生活介護】滋賀県近江八幡市船木町５９番地３", "url": "https://www.kaigokensaku.mhlw.go.jp/25/index.php?action_kouhyou_detail_004_kani=true&JigyosyoCd=2570400016-00&ServiceCd=210&Type=search", "url2": "https://ichizenkai.com" }, "geometry": { "type": "Point", "coordinates": [ 136.080450199999973, 35.137826 ] } },
{ "type": "Feature", "properties": { "内容": "四季の郷短期入所生活介護事業所【短期入所生活介護】滋賀県近江八幡市十王町1061", "url": "https://www.kaigokensaku.mhlw.go.jp/25/index.php?action_kouhyou_detail_004_kani=true&JigyosyoCd=2570401030-00&ServiceCd=210&Type=search", "url2": "http://www.houjyu-kai.or.jp/" }, "geometry": { "type": "Point", "coordinates": [ 136.056218450032333, 35.109356069922406 ] } },
{ "type": "Feature", "properties": { "内容": "ショートステイふれあい【短期入所生活介護】滋賀県近江八幡市上田町1315-1", "url": "https://www.kaigokensaku.mhlw.go.jp/25/index.php?action_kouhyou_detail_004_kani=true&JigyosyoCd=2570400818-00&ServiceCd=210&Type=search", "url2": "https://www.honobonokai.com" }, "geometry": { "type": "Point", "coordinates": [ 136.111507596295155, 35.116594816307398 ] } },
{ "type": "Feature", "properties": { "内容": "特別養護老人ホームゆうすいのさと【短期入所生活介護】滋賀県草津市駒井沢町400－1", "url": "https://www.kaigokensaku.mhlw.go.jp/25/index.php?action_kouhyou_detail_004_kani=true&JigyosyoCd=2570601233-00&ServiceCd=210&Type=search", "url2": "https://428kai.or.jp/" }, "geometry": { "type": "Point", "coordinates": [ 135.95833540000001, 35.0440853 ] } },
{ "type": "Feature", "properties": { "内容": "特別養護老人ホーム　やまでら【短期入所生活介護】滋賀県草津市山寺町１１１８", "url": "https://www.kaigokensaku.mhlw.go.jp/25/index.php?action_kouhyou_detail_004_kani=true&JigyosyoCd=2570600946-00&ServiceCd=210&Type=search", "url2": "http://428kai.or.jp/facility/yamadera/" }, "geometry": { "type": "Point", "coordinates": [ 135.980956500000048, 35.006299 ] } },
{ "type": "Feature", "properties": { "内容": "特別養護老人ホーム　風和里　併設短期入所生活介護【短期入所生活介護】岡本町217番地", "url": "https://www.kaigokensaku.mhlw.go.jp/25/index.php?action_kouhyou_detail_004_kani=true&JigyosyoCd=2570600995-00&ServiceCd=210&Type=search", "url2": "http://www.yotsuba-lcn.or.jp/" }, "geometry": { "type": "Point", "coordinates": [ 135.9826342, 35.0016913 ] } },
{ "type": "Feature", "properties": { "内容": "特別養護老人ホームやわらぎ苑【短期入所生活介護】滋賀県草津市南笠町891番地", "url": "https://www.kaigokensaku.mhlw.go.jp/25/index.php?action_kouhyou_detail_004_kani=true&JigyosyoCd=2570600086-00&ServiceCd=210&Type=search", "url2": "https://428kai.or.jp/facility/yawaragi/" }, "geometry": { "type": "Point", "coordinates": [ 135.934633638333167, 35.001789058382151 ] } },
{ "type": "Feature", "properties": { "内容": "特別養護老人ホームしあわせ【短期入所生活介護】滋賀県草津市南笠町905番地", "url": "https://www.kaigokensaku.mhlw.go.jp/25/index.php?action_kouhyou_detail_004_kani=true&JigyosyoCd=2570601738-00&ServiceCd=210&Type=search", "url2": "https://428kai.or.jp/facility/shiawase/" }, "geometry": { "type": "Point", "coordinates": [ 135.934720307738303, 35.001706084524066 ] } },
{ "type": "Feature", "properties": { "内容": "茜の郷ショートステイ【短期入所生活介護】下笠町733-1", "url": "https://www.kaigokensaku.mhlw.go.jp/25/index.php?action_kouhyou_detail_004_kani=true&JigyosyoCd=2570601779-00&ServiceCd=210&Type=search", "url2": "http:shoubunosato.jp" }, "geometry": { "type": "Point", "coordinates": [ 136.5886869, 35.286733 ] } },
{ "type": "Feature", "properties": { "内容": "特別養護老人ホーム　萩の里【短期入所生活介護】滋賀県草津市野路東２丁目４番１０号", "url": "https://www.kaigokensaku.mhlw.go.jp/25/index.php?action_kouhyou_detail_004_kani=true&JigyosyoCd=2570601415-00&ServiceCd=210&Type=search", "url2": "http://yotsuba-lcn.or.jp" }, "geometry": { "type": "Point", "coordinates": [ 135.954403400000047, 34.9936339 ] } },
{ "type": "Feature", "properties": { "内容": "特別養護老人ホームぽぷら【短期入所生活介護】滋賀県草津市上笠1丁目1-22", "url": "https://www.kaigokensaku.mhlw.go.jp/25/index.php?action_kouhyou_detail_004_kani=true&JigyosyoCd=2570600474-00&ServiceCd=210&Type=search", "url2": "http://www.popura.or.jp" }, "geometry": { "type": "Point", "coordinates": [ 135.951108400000066, 35.033306 ] } },
{ "type": "Feature", "properties": { "内容": "特別養護老人ホーム　帆の里【短期入所生活介護】矢橋町500-1", "url": "https://www.kaigokensaku.mhlw.go.jp/25/index.php?action_kouhyou_detail_004_kani=true&JigyosyoCd=2570601134-00&ServiceCd=210&Type=search", "url2": "https://428kai.or.jp/" }, "geometry": { "type": "Point", "coordinates": [ 135.927753882078605, 35.005410797240458 ] } },
{ "type": "Feature", "properties": { "内容": "ショートステイ　えんゆうの郷【短期入所生活介護】滋賀県草津市南山田町761", "url": "https://www.kaigokensaku.mhlw.go.jp/25/index.php?action_kouhyou_detail_004_kani=true&JigyosyoCd=2570601464-00&ServiceCd=210&Type=search", "url2": "http://kaigo-nagisa.com/" }, "geometry": { "type": "Point", "coordinates": [ 135.92635, 35.0176357 ] } },
{ "type": "Feature", "properties": { "内容": "菖蒲の郷ショートステイ【短期入所生活介護】滋賀県草津市山寺町837番地", "url": "https://www.kaigokensaku.mhlw.go.jp/25/index.php?action_kouhyou_detail_004_kani=true&JigyosyoCd=2570600029-00&ServiceCd=210&Type=search", "url2": "http://shoubunosato.jp" }, "geometry": { "type": "Point", "coordinates": [ 135.9922391, 34.9919287 ] } },
{ "type": "Feature", "properties": { "内容": "特別養護老人ホーム第二菖蒲の郷【短期入所生活介護】滋賀県草津市追分南5丁目18番8号", "url": "https://www.kaigokensaku.mhlw.go.jp/25/index.php?action_kouhyou_detail_004_kani=true&JigyosyoCd=2570600748-00&ServiceCd=210&Type=search", "url2": "http://shoubunosato.jp" }, "geometry": { "type": "Point", "coordinates": [ 135.967649599999959, 34.9925091 ] } },
{ "type": "Feature", "properties": { "内容": "特別養護老人ホームゆいの里　別館【短期入所生活介護】滋賀県守山市笠原町1313－3", "url": "https://www.kaigokensaku.mhlw.go.jp/25/index.php?action_kouhyou_detail_004_kani=true&JigyosyoCd=2570700829-00&ServiceCd=210&Type=search", "url2": "http://www.yuinosato.or.jp" }, "geometry": { "type": "Point", "coordinates": [ 135.988356899999985, 35.094644 ] } },
{ "type": "Feature", "properties": { "内容": "ショートステイサービスセンターサクラベル守山【短期入所生活介護】石田町424-1", "url": "https://www.kaigokensaku.mhlw.go.jp/25/index.php?action_kouhyou_detail_004_kani=true&JigyosyoCd=2570701207-00&ServiceCd=210&Type=search", "url2": "http://www.edeltutiyama.net" }, "geometry": { "type": "Point", "coordinates": [ 135.978421, 35.072061 ] } },
{ "type": "Feature", "properties": { "内容": "ショートステイゆいの里【短期入所生活介護】守山市笠原町1313-3", "url": "https://www.kaigokensaku.mhlw.go.jp/25/index.php?action_kouhyou_detail_004_kani=true&JigyosyoCd=2570700043-00&ServiceCd=210&Type=search", "url2": "http://www.yuinosato.or.jp" }, "geometry": { "type": "Point", "coordinates": [ 135.986857099999952, 35.0951856 ] } },
{ "type": "Feature", "properties": { "内容": "ショートステイひいらぎ【短期入所生活介護】滋賀県守山市荒見町85番地", "url": "https://www.kaigokensaku.mhlw.go.jp/25/index.php?action_kouhyou_detail_004_kani=true&JigyosyoCd=2570701108-00&ServiceCd=210&Type=search", "url2": "http://oumi-syousikai.jp" }, "geometry": { "type": "Point", "coordinates": [ 135.9812751, 35.0827316 ] } },
{ "type": "Feature", "properties": { "内容": "カナリヤショートステイ【短期入所生活介護】守山市三宅町833", "url": "https://www.kaigokensaku.mhlw.go.jp/25/index.php?action_kouhyou_detail_004_kani=true&JigyosyoCd=2570700076-00&ServiceCd=210&Type=search", "url2": "http://www.kanariya.or.jp" }, "geometry": { "type": "Point", "coordinates": [ 135.9686206, 35.0594338 ] } },
{ "type": "Feature", "properties": { "内容": "ショートステイ　しがそせい苑【短期入所生活介護】守山市水保町２６５０－１", "url": "https://www.kaigokensaku.mhlw.go.jp/25/index.php?action_kouhyou_detail_004_kani=true&JigyosyoCd=2570700282-00&ServiceCd=210&Type=search", "url2": "http://soseien.jp/shiga/index.html" }, "geometry": { "type": "Point", "coordinates": [ 135.961909200000036, 35.0979095 ] } },
{ "type": "Feature", "properties": { "内容": "特別養護老人ホームはなえみ【短期入所生活介護】滋賀県栗東市上鈎265-1", "url": "https://www.kaigokensaku.mhlw.go.jp/25/index.php?action_kouhyou_detail_004_kani=true&JigyosyoCd=2571200894-00&ServiceCd=210&Type=search", "url2": "https://428kai.or.jp/" }, "geometry": { "type": "Point", "coordinates": [ 135.9907983, 35.0247164 ] } },
{ "type": "Feature", "properties": { "内容": "特別養護老人ホーム淡海荘【短期入所生活介護】滋賀県栗東市出庭697-1", "url": "https://www.kaigokensaku.mhlw.go.jp/25/index.php?action_kouhyou_detail_004_kani=true&JigyosyoCd=2571200027-00&ServiceCd=210&Type=search", "url2": "https://tankaisou.jp/" }, "geometry": { "type": "Point", "coordinates": [ 136.003525299999978, 35.0362149 ] } },
{ "type": "Feature", "properties": { "内容": "ショートステイるりあんはうす【短期入所生活介護】滋賀県栗東市小野８１４番地", "url": "https://www.kaigokensaku.mhlw.go.jp/25/index.php?action_kouhyou_detail_004_kani=true&JigyosyoCd=2571201017-00&ServiceCd=210&Type=search", "url2": "https://rurianhouse.or.jp/" }, "geometry": { "type": "Point", "coordinates": [ 136.012232399999988, 35.0188506 ] } },
{ "type": "Feature", "properties": { "内容": "特別養護老人ホーム　治田の里【短期入所生活介護】滋賀県栗東市川辺627番地", "url": "https://www.kaigokensaku.mhlw.go.jp/25/index.php?action_kouhyou_detail_004_kani=true&JigyosyoCd=2571200829-00&ServiceCd=210&Type=search", "url2": "http://yotsuba-lcn.or.jp" }, "geometry": { "type": "Point", "coordinates": [ 135.986716244427498, 35.019059165387496 ] } },
{ "type": "Feature", "properties": { "内容": "ショートステイ　栗東すみれ園【短期入所生活介護】滋賀県栗東市小野３６３番地", "url": "https://www.kaigokensaku.mhlw.go.jp/25/index.php?action_kouhyou_detail_004_kani=true&JigyosyoCd=2571200175-00&ServiceCd=210&Type=search", "url2": "http://www.ritto-sumire-en.jp/" }, "geometry": { "type": "Point", "coordinates": [ 136.010931849073813, 35.020166543046763 ] } },
{ "type": "Feature", "properties": { "内容": "兆生園ショートステイ【短期入所生活介護】滋賀県甲賀市水口町今郷１０３２番地の２５", "url": "https://www.kaigokensaku.mhlw.go.jp/25/index.php?action_kouhyou_detail_004_kani=true&JigyosyoCd=2571400049-00&ServiceCd=210&Type=search", "url2": "https://chooseien.com" }, "geometry": { "type": "Point", "coordinates": [ 136.2024391, 34.9623372 ] } },
{ "type": "Feature", "properties": { "内容": "ショートステイサービスセンターエーデル土山【短期入所生活介護】甲賀市土山町北土山2062", "url": "https://www.kaigokensaku.mhlw.go.jp/25/index.php?action_kouhyou_detail_004_kani=true&JigyosyoCd=2571400148-00&ServiceCd=210&Type=search", "url2": "http://www.edeltutiyama.com" }, "geometry": { "type": "Point", "coordinates": [ 136.28116030000001, 34.9388304 ] } },
{ "type": "Feature", "properties": { "内容": "せせらぎ苑ショートステイ【短期入所生活介護】滋賀県甲賀市甲南町葛木855番地", "url": "https://www.kaigokensaku.mhlw.go.jp/25/index.php?action_kouhyou_detail_004_kani=true&JigyosyoCd=2571400015-00&ServiceCd=210&Type=search", "url2": "http://kohnankai.jp" }, "geometry": { "type": "Point", "coordinates": [ 136.179133399999955, 34.9321544 ] } },
{ "type": "Feature", "properties": { "内容": "甲賀荘短期入所生活介護事業所【短期入所生活介護】滋賀県甲賀市甲賀町大原中９０４", "url": "https://www.kaigokensaku.mhlw.go.jp/25/index.php?action_kouhyou_detail_004_kani=true&JigyosyoCd=2571400155-00&ServiceCd=210&Type=search", "url2": "https://kougakai.org/" }, "geometry": { "type": "Point", "coordinates": [ 136.227393900000038, 34.9009445 ] } },
{ "type": "Feature", "properties": { "内容": "ショートステイサービスセンターエーデル土山【短期入所生活介護】滋賀県甲賀市土山町北土山2062", "url": "https://www.kaigokensaku.mhlw.go.jp/25/index.php?action_kouhyou_detail_004_kani=true&JigyosyoCd=2571400908-00&ServiceCd=210&Type=search", "url2": "http://www.edeltutiyama.com" }, "geometry": { "type": "Point", "coordinates": [ 136.28116030000001, 34.9388304 ] } },
{ "type": "Feature", "properties": { "内容": "はとがひらショートステイ【短期入所生活介護】滋賀県甲賀市水口町水口6837-5", "url": "https://www.kaigokensaku.mhlw.go.jp/25/index.php?action_kouhyou_detail_004_kani=true&JigyosyoCd=2571401013-00&ServiceCd=210&Type=search", "url2": "http://www.ohmiwajunkai.or.jp/" }, "geometry": { "type": "Point", "coordinates": [ 136.183545120797362, 34.961962097723365 ] } },
{ "type": "Feature", "properties": { "内容": "短期入所生活介護センター甲賀シルバーケア豊壽園【短期入所生活介護】滋賀県甲賀市土山町北土山479番地", "url": "https://www.kaigokensaku.mhlw.go.jp/25/index.php?action_kouhyou_detail_004_kani=true&JigyosyoCd=2571401138-00&ServiceCd=210&Type=search", "url2": "http://www.sensin.or.jp" }, "geometry": { "type": "Point", "coordinates": [ 136.289623200000051, 34.9363587 ] } },
{ "type": "Feature", "properties": { "内容": "樹の郷ショートステイサービス【短期入所生活介護】滋賀県甲賀市水口町山3309", "url": "https://www.kaigokensaku.mhlw.go.jp/25/index.php?action_kouhyou_detail_004_kani=true&JigyosyoCd=2571400833-00&ServiceCd=210&Type=search", "url2": "http://shigaraki-itsuki.com/index.html" }, "geometry": { "type": "Point", "coordinates": [ 136.1752371, 35.0041208 ] } },
{ "type": "Feature", "properties": { "内容": "信楽荘ショートステイサービス【短期入所生活介護】滋賀県甲賀市信楽町牧１１５９", "url": "https://www.kaigokensaku.mhlw.go.jp/25/index.php?action_kouhyou_detail_004_kani=true&JigyosyoCd=2571400031-00&ServiceCd=210&Type=search", "url2": "http://www.shigaraki-itsuki.com" }, "geometry": { "type": "Point", "coordinates": [ 136.075395500000013, 34.9151572 ] } },
{ "type": "Feature", "properties": { "内容": "ショートステイサービスセンター　リトルブック【短期入所生活介護】滋賀県甲賀市土山町北土山2062", "url": "https://www.kaigokensaku.mhlw.go.jp/25/index.php?action_kouhyou_detail_004_kani=true&JigyosyoCd=2571401203-00&ServiceCd=210&Type=search", "url2": null }, "geometry": { "type": "Point", "coordinates": [ 136.2812109, 34.9386074 ] } },
{ "type": "Feature", "properties": { "内容": "ショートステイサービスぎおうの里【短期入所生活介護】滋賀県野洲市冨波甲1340番地1", "url": "https://www.kaigokensaku.mhlw.go.jp/25/index.php?action_kouhyou_detail_004_kani=true&JigyosyoCd=2571300199-00&ServiceCd=210&Type=search", "url2": "https://yasujikeikai.jp/" }, "geometry": { "type": "Point", "coordinates": [ 136.027775199999951, 35.0896762 ] } },
{ "type": "Feature", "properties": { "内容": "悠紀の里ショートステイサービス【短期入所生活介護】野洲市南桜2131番地1", "url": "https://www.kaigokensaku.mhlw.go.jp/25/index.php?action_kouhyou_detail_004_kani=true&JigyosyoCd=2571300033-00&ServiceCd=210&Type=search", "url2": "https://yasujikeikai.jp/" }, "geometry": { "type": "Point", "coordinates": [ 136.041747699999974, 35.0336355 ] } },
{ "type": "Feature", "properties": { "内容": "ショートステイ野洲篠原すみれ園【短期入所生活介護】滋賀県野洲市大篠原951番地", "url": "https://www.kaigokensaku.mhlw.go.jp/25/index.php?action_kouhyou_detail_004_kani=true&JigyosyoCd=2571300751-00&ServiceCd=210&Type=search", "url2": "https://shinohara-sumire-en.com/" }, "geometry": { "type": "Point", "coordinates": [ 136.0590871, 35.090127 ] } },
{ "type": "Feature", "properties": { "内容": "ショートステイサービスあやめの里【短期入所生活介護】滋賀県野洲市吉川3854番地1", "url": "https://www.kaigokensaku.mhlw.go.jp/25/index.php?action_kouhyou_detail_004_kani=true&JigyosyoCd=2571300090-00&ServiceCd=210&Type=search", "url2": "http://yasujikeikai.jp/" }, "geometry": { "type": "Point", "coordinates": [ 135.9929452, 35.1282789 ] } },
{ "type": "Feature", "properties": { "内容": "特別養護老人ホームみやのもり【短期入所生活介護】宮の森1丁目2番1号", "url": "https://www.kaigokensaku.mhlw.go.jp/25/index.php?action_kouhyou_detail_004_kani=true&JigyosyoCd=2572300313-00&ServiceCd=210&Type=search", "url2": "http://www.hacikikai.com" }, "geometry": { "type": "Point", "coordinates": [ 136.061492600000065, 35.0036809 ] } },
{ "type": "Feature", "properties": { "内容": "あぼしショートステイ【短期入所生活介護】滋賀県湖南市丸山四丁目５番１号", "url": "https://www.kaigokensaku.mhlw.go.jp/25/index.php?action_kouhyou_detail_004_kani=true&JigyosyoCd=2572300149-00&ServiceCd=210&Type=search", "url2": "http://www.hachikikai.com" }, "geometry": { "type": "Point", "coordinates": [ 136.04611639999996, 34.9987899 ] } },
{ "type": "Feature", "properties": { "内容": "特別養護老人ホーム美松苑　短期入所生活介護　介護予防短期入所生活介護【短期入所生活介護】滋賀県湖南市針１３２５番地", "url": "https://www.kaigokensaku.mhlw.go.jp/25/index.php?action_kouhyou_detail_004_kani=true&JigyosyoCd=2572300016-00&ServiceCd=210&Type=search", "url2": "http://www.ohmiwajunkai.or.jp/" }, "geometry": { "type": "Point", "coordinates": [ 136.077591, 34.9883772 ] } },
{ "type": "Feature", "properties": { "内容": "十二坊ショートステイ【短期入所生活介護】滋賀県湖南市岩根690-4", "url": "https://www.kaigokensaku.mhlw.go.jp/25/index.php?action_kouhyou_detail_004_kani=true&JigyosyoCd=2572300180-00&ServiceCd=210&Type=search", "url2": "http://www.ohmiwajunkai.or.jp" }, "geometry": { "type": "Point", "coordinates": [ 136.116399961376942, 35.009859388004635 ] } },
{ "type": "Feature", "properties": { "内容": "短期入所施設　ニューサンライズ【短期入所生活介護】滋賀県高島市新旭町藁園2603番地", "url": "https://www.kaigokensaku.mhlw.go.jp/25/index.php?action_kouhyou_detail_004_kani=true&JigyosyoCd=2572200166-00&ServiceCd=210&Type=search", "url2": "http://shinasahi-minorikai.or.jp" }, "geometry": { "type": "Point", "coordinates": [ 136.046242799999959, 35.3497412 ] } },
{ "type": "Feature", "properties": { "内容": "桜美林シューレ高島【短期入所生活介護】滋賀県高島市新旭町北畑525-2", "url": "https://www.kaigokensaku.mhlw.go.jp/25/index.php?action_kouhyou_detail_004_kani=true&JigyosyoCd=2572200711-00&ServiceCd=210&Type=search", "url2": "https://os-takashima.org" }, "geometry": { "type": "Point", "coordinates": [ 136.036059200000011, 35.3499676 ] } },
{ "type": "Feature", "properties": { "内容": "短期入所施設あっとほーむ萩【短期入所生活介護】滋賀県高島市勝野1－2", "url": "https://www.kaigokensaku.mhlw.go.jp/25/index.php?action_kouhyou_detail_004_kani=true&JigyosyoCd=2572200422-00&ServiceCd=210&Type=search", "url2": "http://shinasahi-minorikai.or.jp/" }, "geometry": { "type": "Point", "coordinates": [ 136.02164259999995, 35.3003231 ] } },
{ "type": "Feature", "properties": { "内容": "朽木小規模特別養護老人ホームやまゆりの里ショートステイ【短期入所生活介護】滋賀県高島市朽木市場656", "url": "https://www.kaigokensaku.mhlw.go.jp/25/index.php?action_kouhyou_detail_004_kani=true&JigyosyoCd=2572200786-00&ServiceCd=210&Type=search", "url2": "http://hatsuho-yamayuri.com" }, "geometry": { "type": "Point", "coordinates": [ 135.9187018, 35.3540509 ] } },
{ "type": "Feature", "properties": { "内容": "地域密着型小規模特別養護老人ホームやまゆりの里ショートステイ【短期入所生活介護】滋賀県高島市朽木市場656番地", "url": "https://www.kaigokensaku.mhlw.go.jp/25/index.php?action_kouhyou_detail_004_kani=true&JigyosyoCd=2572200810-00&ServiceCd=210&Type=search", "url2": "https://hatsuho-yamayuri.com" }, "geometry": { "type": "Point", "coordinates": [ 135.9187018, 35.3540509 ] } },
{ "type": "Feature", "properties": { "内容": "ショートステイせいふうそう【短期入所生活介護】滋賀県高島市今津町南新保87番地１５", "url": "https://www.kaigokensaku.mhlw.go.jp/25/index.php?action_kouhyou_detail_004_kani=true&JigyosyoCd=2572200059-00&ServiceCd=210&Type=search", "url2": "http://yutakakai.jp/" }, "geometry": { "type": "Point", "coordinates": [ 136.043352300000038, 35.4070013 ] } },
{ "type": "Feature", "properties": { "内容": "特別養護老人ホームふじの里ショートステイ【短期入所生活介護】滋賀県高島市安曇川町下小川3220-1", "url": "https://www.kaigokensaku.mhlw.go.jp/25/index.php?action_kouhyou_detail_004_kani=true&JigyosyoCd=2572200042-00&ServiceCd=210&Type=search", "url2": "www.kouyoukai-fujinosato.jp" }, "geometry": { "type": "Point", "coordinates": [ 136.033122300000059, 35.3200494 ] } },
{ "type": "Feature", "properties": { "内容": "ニューサンライズ【短期入所生活介護】滋賀県高島市藁園2603番地", "url": "https://www.kaigokensaku.mhlw.go.jp/25/index.php?action_kouhyou_detail_004_kani=true&JigyosyoCd=2572200505-00&ServiceCd=210&Type=search", "url2": "http://shinasahi-minorikai.or.jp" }, "geometry": { "type": "Point", "coordinates": [ 136.046242799999959, 35.3497412 ] } },
{ "type": "Feature", "properties": { "内容": "社会福祉法人ゆたか会　ショートステイ　さわのかぜ【短期入所生活介護】滋賀県高島市マキノ町沢1791-1", "url": "https://www.kaigokensaku.mhlw.go.jp/25/index.php?action_kouhyou_detail_004_kani=true&JigyosyoCd=2572200489-00&ServiceCd=210&Type=search", "url2": "yutakakai.jp" }, "geometry": { "type": "Point", "coordinates": [ 136.0346408, 35.4622513 ] } },
{ "type": "Feature", "properties": { "内容": "特別養護老人ホーム　清水苑【短期入所生活介護】滋賀県東近江市五個荘川並町268番地", "url": "https://www.kaigokensaku.mhlw.go.jp/25/index.php?action_kouhyou_detail_004_kani=true&JigyosyoCd=2570500211-00&ServiceCd=210&Type=search", "url2": "http://rokushinkai.com" }, "geometry": { "type": "Point", "coordinates": [ 136.175720899999988, 35.1468626 ] } },
{ "type": "Feature", "properties": { "内容": "ショートステイセンター玉園ハイム【短期入所生活介護】滋賀県東近江市尻無町字山ノ間１１７０番地の３", "url": "https://www.kaigokensaku.mhlw.go.jp/25/index.php?action_kouhyou_detail_004_kani=true&JigyosyoCd=2570500013-00&ServiceCd=210&Type=search", "url2": "http://tama-zono.com/" }, "geometry": { "type": "Point", "coordinates": [ 136.221144900000013, 35.081784 ] } },
{ "type": "Feature", "properties": { "内容": "もみじ短期入所生活介護【短期入所生活介護】滋賀県東近江市永源寺高野町431-2", "url": "https://www.kaigokensaku.mhlw.go.jp/25/index.php?action_kouhyou_detail_004_kani=true&JigyosyoCd=2570500237-00&ServiceCd=210&Type=search", "url2": "http//www.hachikikai.com" }, "geometry": { "type": "Point", "coordinates": [ 136.309898500000031, 35.0777865 ] } },
{ "type": "Feature", "properties": { "内容": "小規模特別養護老人ホームのとがわ短期入所生活介護【短期入所生活介護】滋賀県東近江市新宮町３１６番１", "url": "https://www.kaigokensaku.mhlw.go.jp/25/index.php?action_kouhyou_detail_004_kani=true&JigyosyoCd=2570500922-00&ServiceCd=210&Type=search", "url2": "http://shiga-shinjyukai.or.jp" }, "geometry": { "type": "Point", "coordinates": [ 136.150173236840004, 35.200748317977336 ] } },
{ "type": "Feature", "properties": { "内容": "きいとショートステイ【短期入所生活介護】滋賀県東近江市五個荘山本町447番地34", "url": "https://www.kaigokensaku.mhlw.go.jp/25/index.php?action_kouhyou_detail_004_kani=true&JigyosyoCd=2570501102-00&ServiceCd=210&Type=search", "url2": "http://www.rokushinkai.com/service/kiito/" }, "geometry": { "type": "Point", "coordinates": [ 136.180581699861136, 35.139734827545006 ] } },
{ "type": "Feature", "properties": { "内容": "ショートステイこぼしの家【短期入所生活介護】東近江市市辺町3477", "url": "https://www.kaigokensaku.mhlw.go.jp/25/index.php?action_kouhyou_detail_004_kani=true&JigyosyoCd=2570500179-00&ServiceCd=210&Type=search", "url2": "https://koboshi.p-kit.com/" }, "geometry": { "type": "Point", "coordinates": [ 136.172781699999973, 35.0991871 ] } },
{ "type": "Feature", "properties": { "内容": "沖野原ショートステイ【短期入所生活介護】滋賀県東近江市沖野三丁目10番18号", "url": "https://www.kaigokensaku.mhlw.go.jp/25/index.php?action_kouhyou_detail_004_kani=true&JigyosyoCd=2570500500-00&ServiceCd=210&Type=search", "url2": "http://www.ex.biwa.ne.jp/~okinohara/" }, "geometry": { "type": "Point", "coordinates": [ 136.21014839999998, 35.0946937 ] } },
{ "type": "Feature", "properties": { "内容": "菊水園ショートステイセンター【短期入所生活介護】東近江市下里町789", "url": "https://www.kaigokensaku.mhlw.go.jp/25/index.php?action_kouhyou_detail_004_kani=true&JigyosyoCd=2570500260-00&ServiceCd=210&Type=search", "url2": "http://care-care.jp/kaigo/ty_facilities.php?tyid=33" }, "geometry": { "type": "Point", "coordinates": [ 136.255666799999972, 35.1347192 ] } },
{ "type": "Feature", "properties": { "内容": "特別養護老人ホーム　能登川園【短期入所生活介護】東近江市新宮町５４７", "url": "https://www.kaigokensaku.mhlw.go.jp/25/index.php?action_kouhyou_detail_004_kani=true&JigyosyoCd=2570500401-00&ServiceCd=210&Type=search", "url2": "http://shiga-shinjyukai.or.jp/" }, "geometry": { "type": "Point", "coordinates": [ 136.15023, 35.2017026 ] } },
{ "type": "Feature", "properties": { "内容": "特別養護老人ホームカルナハウス【短期入所生活介護】東近江市建部下野町７９７番地", "url": "https://www.kaigokensaku.mhlw.go.jp/25/index.php?action_kouhyou_detail_004_kani=true&JigyosyoCd=2570500054-00&ServiceCd=210&Type=search", "url2": "htttp://www.jishoukai.or.jp" }, "geometry": { "type": "Point", "coordinates": [ 136.197176600000034, 35.1391892 ] } },
{ "type": "Feature", "properties": { "内容": "地域密着型特別養護老人ホームわが家ひだまり　短期入所生活介護【短期入所生活介護】滋賀県米原市本郷603番1", "url": "https://www.kaigokensaku.mhlw.go.jp/25/index.php?action_kouhyou_detail_004_kani=true&JigyosyoCd=2572400568-00&ServiceCd=210&Type=search", "url2": "http://www.hidamari-shiga.jp" }, "geometry": { "type": "Point", "coordinates": [ 136.352043500000036, 35.3360372 ] } },
{ "type": "Feature", "properties": { "内容": "スマイルショートステイ【短期入所生活介護】滋賀県米原市寺倉603-1", "url": "https://www.kaigokensaku.mhlw.go.jp/25/index.php?action_kouhyou_detail_004_kani=true&JigyosyoCd=2572400535-00&ServiceCd=210&Type=search", "url2": "https://www.oumikunpuukai.com" }, "geometry": { "type": "Point", "coordinates": [ 136.311226900000065, 35.3251115 ] } },
{ "type": "Feature", "properties": { "内容": "社会福祉法人青祥会坂田青成苑ショートステイ【短期入所生活介護】滋賀県米原市野一色１１３６", "url": "https://www.kaigokensaku.mhlw.go.jp/25/index.php?action_kouhyou_detail_004_kani=true&JigyosyoCd=2572400014-00&ServiceCd=210&Type=search", "url2": "http://www.seishokai.jp/sakata" }, "geometry": { "type": "Point", "coordinates": [ 136.353926499999943, 35.3860764 ] } },
{ "type": "Feature", "properties": { "内容": "特別養護老人ホーム誉の松【短期入所生活介護】滋賀県蒲生郡日野町大字深山口524番地", "url": "https://www.kaigokensaku.mhlw.go.jp/25/index.php?action_kouhyou_detail_004_kani=true&JigyosyoCd=2571500012-00&ServiceCd=210&Type=search", "url2": "http://www.homare.or.jp" }, "geometry": { "type": "Point", "coordinates": [ 136.22947929999998, 34.9891759 ] } },
{ "type": "Feature", "properties": { "内容": "特別養護老人ホーム白寿荘【短期入所生活介護】滋賀県蒲生郡日野町松尾３５９番地", "url": "https://www.kaigokensaku.mhlw.go.jp/25/index.php?action_kouhyou_detail_004_kani=true&JigyosyoCd=2571500038-00&ServiceCd=210&Type=search", "url2": "http://kotoukai.or.jp" }, "geometry": { "type": "Point", "coordinates": [ 136.24561, 35.0157751 ] } },
{ "type": "Feature", "properties": { "内容": "ショートステイ　万葉の里【短期入所生活介護】滋賀県蒲生郡竜王町大字山之上632番地", "url": "https://www.kaigokensaku.mhlw.go.jp/25/index.php?action_kouhyou_detail_004_kani=true&JigyosyoCd=2571500020-00&ServiceCd=210&Type=search", "url2": "https://yukinokai.com/" }, "geometry": { "type": "Point", "coordinates": [ 136.146107799999982, 35.0546342 ] } },
{ "type": "Feature", "properties": { "内容": "社会福祉法人青祥会　やまびこショートステイ【短期入所生活介護】滋賀県愛知郡愛荘町安孫子1235番地", "url": "https://www.kaigokensaku.mhlw.go.jp/25/index.php?action_kouhyou_detail_004_kani=true&JigyosyoCd=2571700083-00&ServiceCd=210&Type=search", "url2": "http://www.seishokai.jp/" }, "geometry": { "type": "Point", "coordinates": [ 136.250286499999987, 35.1722192 ] } },
{ "type": "Feature", "properties": { "内容": "ハッピーライフゆりの郷　ショートステイ【短期入所生活介護】滋賀県愛知郡愛荘町市１５０９番地", "url": "https://www.kaigokensaku.mhlw.go.jp/25/index.php?action_kouhyou_detail_004_kani=true&JigyosyoCd=2571700240-00&ServiceCd=210&Type=search", "url2": "http://www.yurinosato.or.jp/" }, "geometry": { "type": "Point", "coordinates": [ 136.22133, 35.1724369 ] } },
{ "type": "Feature", "properties": { "内容": "特別養護老人ホームいやしのさと【短期入所生活介護】犬上郡豊郷町沢517-4", "url": "https://www.kaigokensaku.mhlw.go.jp/25/index.php?action_kouhyou_detail_004_kani=true&JigyosyoCd=2571800149-00&ServiceCd=210&Type=search", "url2": "http://asunaroiyashinosat.wixsite.com/asunaro/blank-3" }, "geometry": { "type": "Point", "coordinates": [ 136.216999900000019, 35.1920182 ] } },
{ "type": "Feature", "properties": { "内容": "特別養護老人ホームいぬかみ【短期入所生活介護】滋賀県犬上郡多賀町中川原605-2", "url": "https://www.kaigokensaku.mhlw.go.jp/25/index.php?action_kouhyou_detail_004_kani=true&JigyosyoCd=2571800024-00&ServiceCd=210&Type=search", "url2": "http://kotoukai.or.jp/" }, "geometry": { "type": "Point", "coordinates": [ 136.279183399999965, 35.2356775 ] } },
{ "type": "Feature", "properties": { "内容": "短期入所生活介護施設　多賀清流の里【短期入所生活介護】滋賀県犬上郡多賀町佐目６７５", "url": "https://www.kaigokensaku.mhlw.go.jp/25/index.php?action_kouhyou_detail_004_kani=true&JigyosyoCd=2571800107-00&ServiceCd=210&Type=search", "url2": "https://tashinkai.jp" }, "geometry": { "type": "Point", "coordinates": [ 136.3357552, 35.20792 ] } }
]
}
