{
"type": "FeatureCollection",
"name": "geo_25_通所リハビリテーション",
"crs": { "type": "name", "properties": { "name": "urn:ogc:def:crs:OGC:1.3:CRS84" } },
"features": [
{ "type": "Feature", "properties": { "内容": "東医院【通所リハビリテーション】大津市南小松1594-170", "url": "https://www.kaigokensaku.mhlw.go.jp/25/index.php?action_kouhyou_detail_004_kani=true&JigyosyoCd=2510105972-00&ServiceCd=160&Type=search", "url2": null }, "geometry": { "type": "Point", "coordinates": [ 135.94402, 35.2319226 ] } },
{ "type": "Feature", "properties": { "内容": "医療法人滋賀勤労者保健会　膳所診療所通所リハビリテーションげんき【通所リハビリテーション】滋賀県大津市昭和町2-17膳所診療所", "url": "https://www.kaigokensaku.mhlw.go.jp/25/index.php?action_kouhyou_detail_004_kani=true&JigyosyoCd=2510107630-00&ServiceCd=160&Type=search", "url2": null }, "geometry": { "type": "Point", "coordinates": [ 135.8854413, 34.9975706 ] } },
{ "type": "Feature", "properties": { "内容": "さいき整形外科【通所リハビリテーション】滋賀県大津市一里山3-19-4", "url": "https://www.kaigokensaku.mhlw.go.jp/25/index.php?action_kouhyou_detail_004_kani=true&JigyosyoCd=2510104108-00&ServiceCd=160&Type=search", "url2": "https://saikiseikei.com/" }, "geometry": { "type": "Point", "coordinates": [ 135.93240579999997, 34.9848923 ] } },
{ "type": "Feature", "properties": { "内容": "介護老人保健施設日和の里【通所リハビリテーション】大津市坂本6丁目25番3号", "url": "https://www.kaigokensaku.mhlw.go.jp/25/index.php?action_kouhyou_detail_004_kani=true&JigyosyoCd=2550180059-00&ServiceCd=160&Type=search", "url2": "http://shigamin.jp/hiyori/" }, "geometry": { "type": "Point", "coordinates": [ 135.87325409999994, 35.0745916 ] } },
{ "type": "Feature", "properties": { "内容": "介護老人保健施設ケアセンター志賀【通所リハビリテーション】大津市和邇高城260番地の1", "url": "https://www.kaigokensaku.mhlw.go.jp/25/index.php?action_kouhyou_detail_004_kani=true&JigyosyoCd=2550180067-00&ServiceCd=160&Type=search", "url2": "http://www.koseikai.care" }, "geometry": { "type": "Point", "coordinates": [ 135.919525900000053, 35.1623293 ] } },
{ "type": "Feature", "properties": { "内容": "遠藤クリニックリハビリセンター【通所リハビリテーション】滋賀県大津市千町二丁目15-22", "url": "https://www.kaigokensaku.mhlw.go.jp/25/index.php?action_kouhyou_detail_004_kani=true&JigyosyoCd=2510105089-00&ServiceCd=160&Type=search", "url2": "http://www.endo-clinic.or.jp" }, "geometry": { "type": "Point", "coordinates": [ 135.905280599999969, 34.945943 ] } },
{ "type": "Feature", "properties": { "内容": "吉徳医院デイケアセンター【通所リハビリテーション】大津市里５丁目２－１４", "url": "https://www.kaigokensaku.mhlw.go.jp/25/index.php?action_kouhyou_detail_004_kani=true&JigyosyoCd=2510105360-00&ServiceCd=160&Type=search", "url2": "http://yoshitoku.or.jp" }, "geometry": { "type": "Point", "coordinates": [ 135.928130799999963, 34.9369582 ] } },
{ "type": "Feature", "properties": { "内容": "医療法人　くろづ外科医院【通所リハビリテーション】滋賀県大津市黒津2丁目15-25", "url": "https://www.kaigokensaku.mhlw.go.jp/25/index.php?action_kouhyou_detail_004_kani=true&JigyosyoCd=2510107671-00&ServiceCd=160&Type=search", "url2": "http://kurodu-clinic.jp/" }, "geometry": { "type": "Point", "coordinates": [ 135.914702499999947, 34.9422869 ] } },
{ "type": "Feature", "properties": { "内容": "医療法人幸生会琵琶湖中央リハビリテーション病院デイケアセンター【通所リハビリテーション】滋賀県大津市御殿浜22番33号", "url": "https://www.kaigokensaku.mhlw.go.jp/25/index.php?action_kouhyou_detail_004_kani=true&JigyosyoCd=2510104546-00&ServiceCd=160&Type=search", "url2": "http://www.kou-sei-kai.or.jp" }, "geometry": { "type": "Point", "coordinates": [ 135.896065, 34.989310400000022 ] } },
{ "type": "Feature", "properties": { "内容": "医療法人弘英会　介護老人保健施設Ｂ・Ｏ・Hケア・サービスセンター【通所リハビリテーション】滋賀県大津市伊香立途中町７０４番地", "url": "https://www.kaigokensaku.mhlw.go.jp/25/index.php?action_kouhyou_detail_004_kani=true&JigyosyoCd=2550180026-00&ServiceCd=160&Type=search", "url2": "http://www.boh-care.jp" }, "geometry": { "type": "Point", "coordinates": [ 135.875503387818839, 35.155552990031964 ] } },
{ "type": "Feature", "properties": { "内容": "介護老人保健施設レーク・ホロニー通所リハビリテーション【通所リハビリテーション】大津市大萱七丁目7番3号介護老人保健施設レーク・ホロニー", "url": "https://www.kaigokensaku.mhlw.go.jp/25/index.php?action_kouhyou_detail_004_kani=true&JigyosyoCd=2550180000-00&ServiceCd=160&Type=search", "url2": "http://www18.ocn.jp/~katyou/index.htm" }, "geometry": { "type": "Point", "coordinates": [ 135.915623800000049, 34.9953159 ] } },
{ "type": "Feature", "properties": { "内容": "通所リハビリセンター楽々【通所リハビリテーション】大津市雄琴北2丁目２－５Ｔ’ｓ　ビル　２Ｆ", "url": "https://www.kaigokensaku.mhlw.go.jp/25/index.php?action_kouhyou_detail_004_kani=true&JigyosyoCd=2510105618-00&ServiceCd=160&Type=search", "url2": "http://rakujyu-konohana.com/jigyousho.html" }, "geometry": { "type": "Point", "coordinates": [ 135.893228423278742, 35.097529712248509 ] } },
{ "type": "Feature", "properties": { "内容": "医療法人華頂会　琵琶湖養育院病院　短時間デイケアセンター【通所リハビリテーション】滋賀県大津市大萱七丁目7番2号", "url": "https://www.kaigokensaku.mhlw.go.jp/25/index.php?action_kouhyou_detail_004_kani=true&JigyosyoCd=2510102599-00&ServiceCd=160&Type=search", "url2": "http:www.kachokai.or.jp/" }, "geometry": { "type": "Point", "coordinates": [ 135.915566, 34.994324 ] } },
{ "type": "Feature", "properties": { "内容": "医療法人　良善会　ひかり病院通所リハビリテーション【通所リハビリテーション】滋賀県大津市際川3丁目35-1", "url": "https://www.kaigokensaku.mhlw.go.jp/25/index.php?action_kouhyou_detail_004_kani=true&JigyosyoCd=2510106152-00&ServiceCd=160&Type=search", "url2": "http://hikaribyouin.com/" }, "geometry": { "type": "Point", "coordinates": [ 135.8664556, 35.0439511 ] } },
{ "type": "Feature", "properties": { "内容": "独立行政法人地域医療機能推進機構　滋賀病院附属介護老人保健施設【通所リハビリテーション】大津市富士見台16-1", "url": "https://www.kaigokensaku.mhlw.go.jp/25/index.php?action_kouhyou_detail_004_kani=true&JigyosyoCd=2550180034-00&ServiceCd=160&Type=search", "url2": "http://shiga.jcho.go.jp/rouken/" }, "geometry": { "type": "Point", "coordinates": [ 135.885733551728919, 34.985728761733881 ] } },
{ "type": "Feature", "properties": { "内容": "医療法人社団　五心会　ひらたクリニック【通所リハビリテーション】平田町448-1", "url": "https://www.kaigokensaku.mhlw.go.jp/25/index.php?action_kouhyou_detail_004_kani=true&JigyosyoCd=2510202712-00&ServiceCd=160&Type=search", "url2": null }, "geometry": { "type": "Point", "coordinates": [ 132.749596099999962, 33.8895654 ] } },
{ "type": "Feature", "properties": { "内容": "アロフェンテ彦根通所リハビリテーション【通所リハビリテーション】滋賀県彦根市竹ヶ鼻町80番地", "url": "https://www.kaigokensaku.mhlw.go.jp/25/index.php?action_kouhyou_detail_004_kani=true&JigyosyoCd=2550280016-00&ServiceCd=160&Type=search", "url2": "http://www.yujin-yamazaki.co.jp" }, "geometry": { "type": "Point", "coordinates": [ 136.248794699999962, 35.241159 ] } },
{ "type": "Feature", "properties": { "内容": "医療法人　さざなみ整形外科【通所リハビリテーション】宮部町3029-1", "url": "https://www.kaigokensaku.mhlw.go.jp/25/index.php?action_kouhyou_detail_004_kani=true&JigyosyoCd=2510301571-00&ServiceCd=160&Type=search", "url2": null }, "geometry": { "type": "Point", "coordinates": [ 136.2811008, 35.421593 ] } },
{ "type": "Feature", "properties": { "内容": "リハビリサポート琵琶【通所リハビリテーション】滋賀県長浜市川道町２６９４", "url": "https://www.kaigokensaku.mhlw.go.jp/25/index.php?action_kouhyou_detail_004_kani=true&JigyosyoCd=2550380022-00&ServiceCd=160&Type=search", "url2": "http://www.simosaka.jp/indexhtml" }, "geometry": { "type": "Point", "coordinates": [ 136.236295599999949, 35.4029218 ] } },
{ "type": "Feature", "properties": { "内容": "介護老人保健施設　長浜メディケアセンター【通所リハビリテーション】滋賀県長浜市加田町２９８４－１", "url": "https://www.kaigokensaku.mhlw.go.jp/25/index.php?action_kouhyou_detail_004_kani=true&JigyosyoCd=2550380014-00&ServiceCd=160&Type=search", "url2": "http://seishokai.jp/nmc" }, "geometry": { "type": "Point", "coordinates": [ 136.304918899999961, 35.3602097 ] } },
{ "type": "Feature", "properties": { "内容": "医療法人　堤整形外科【通所リハビリテーション】八幡中山町393－1番地", "url": "https://www.kaigokensaku.mhlw.go.jp/25/index.php?action_kouhyou_detail_004_kani=true&JigyosyoCd=2510301910-00&ServiceCd=160&Type=search", "url2": "tsutsumi-seikei.jp" }, "geometry": { "type": "Point", "coordinates": [ 136.279385600000069, 35.388972 ] } },
{ "type": "Feature", "properties": { "内容": "デイケアくさの川【通所リハビリテーション】滋賀県長浜市野瀬町８２８番地", "url": "https://www.kaigokensaku.mhlw.go.jp/25/index.php?action_kouhyou_detail_004_kani=true&JigyosyoCd=2510301902-00&ServiceCd=160&Type=search", "url2": "https://azaihigashi.hcfm.jp/service/daycare.html" }, "geometry": { "type": "Point", "coordinates": [ 136.31871, 35.463647500000015 ] } },
{ "type": "Feature", "properties": { "内容": "介護老人保健施設　湖北やすらぎの里【通所リハビリテーション】滋賀県長浜市木之本町黒田1221番地", "url": "https://www.kaigokensaku.mhlw.go.jp/25/index.php?action_kouhyou_detail_004_kani=true&JigyosyoCd=2550380030-00&ServiceCd=160&Type=search", "url2": "http://www.ikbk.jp/kohokuyasuraginosato/" }, "geometry": { "type": "Point", "coordinates": [ 136.212851746696515, 35.504128956926458 ] } },
{ "type": "Feature", "properties": { "内容": "デイケアセンタージーバ【通所リハビリテーション】長浜市内保町1033番地", "url": "https://www.kaigokensaku.mhlw.go.jp/25/index.php?action_kouhyou_detail_004_kani=true&JigyosyoCd=2510301316-00&ServiceCd=160&Type=search", "url2": null }, "geometry": { "type": "Point", "coordinates": [ 136.293972199999985, 35.4294731 ] } },
{ "type": "Feature", "properties": { "内容": "ちとせ長命診療所デイケアセンター【通所リハビリテーション】滋賀県近江八幡市長命寺町37-1", "url": "https://www.kaigokensaku.mhlw.go.jp/25/index.php?action_kouhyou_detail_004_kani=true&JigyosyoCd=2510401397-00&ServiceCd=160&Type=search", "url2": null }, "geometry": { "type": "Point", "coordinates": [ 136.063319399999955, 35.1581034 ] } },
{ "type": "Feature", "properties": { "内容": "介護老人保健施設　ヴォーリズ老健センター【通所リハビリテーション】滋賀県近江八幡市北之庄町４９２番地", "url": "https://www.kaigokensaku.mhlw.go.jp/25/index.php?action_kouhyou_detail_004_kani=true&JigyosyoCd=2550480012-00&ServiceCd=160&Type=search", "url2": "http://vo-roken.com/" }, "geometry": { "type": "Point", "coordinates": [ 136.089671599999974, 35.1524025 ] } },
{ "type": "Feature", "properties": { "内容": "医療法人医誠会　介護老人保健施設　エスペラル近江八幡【通所リハビリテーション】滋賀県近江八幡市大房町1002番地1", "url": "https://www.kaigokensaku.mhlw.go.jp/25/index.php?action_kouhyou_detail_004_kani=true&JigyosyoCd=2550480020-00&ServiceCd=160&Type=search", "url2": "http://www.esp-omihachiman.com/" }, "geometry": { "type": "Point", "coordinates": [ 136.07804520000002, 35.1272427 ] } },
{ "type": "Feature", "properties": { "内容": "おさだファミリークリニック　メディカルリハらん【通所リハビリテーション】滋賀県近江八幡市長田町1268-1", "url": "https://www.kaigokensaku.mhlw.go.jp/25/index.php?action_kouhyou_detail_004_kani=true&JigyosyoCd=2510401470-00&ServiceCd=160&Type=search", "url2": "https://keihankai.com/" }, "geometry": { "type": "Point", "coordinates": [ 136.118568099999948, 35.1367797 ] } },
{ "type": "Feature", "properties": { "内容": "医療法人社団顕仁会　たに整形外科　リハビリステーション【通所リハビリテーション】滋賀県近江八幡市中村町654番地", "url": "https://www.kaigokensaku.mhlw.go.jp/25/index.php?action_kouhyou_detail_004_kani=true&JigyosyoCd=2510400779-00&ServiceCd=160&Type=search", "url2": "http://www.tani-seikei.com/" }, "geometry": { "type": "Point", "coordinates": [ 136.097573399999987, 35.1248391 ] } },
{ "type": "Feature", "properties": { "内容": "ケアタウン南草津通所リハビリテーション【通所リハビリテーション】草津市矢橋町６２１番地", "url": "https://www.kaigokensaku.mhlw.go.jp/25/index.php?action_kouhyou_detail_004_kani=true&JigyosyoCd=2550680025-00&ServiceCd=160&Type=search", "url2": "http://www.yotsuba-lcn.or.jp" }, "geometry": { "type": "Point", "coordinates": [ 135.927025299999968, 35.0031347 ] } },
{ "type": "Feature", "properties": { "内容": "若草診療所【通所リハビリテーション】滋賀県草津市若草5丁目13-1", "url": "https://www.kaigokensaku.mhlw.go.jp/25/index.php?action_kouhyou_detail_004_kani=true&JigyosyoCd=2510601731-00&ServiceCd=160&Type=search", "url2": "http://wakakusacl.com/" }, "geometry": { "type": "Point", "coordinates": [ 135.970516099999941, 34.9852099 ] } },
{ "type": "Feature", "properties": { "内容": "近江草津徳洲会介護センター【通所リハビリテーション】草津市東矢倉3丁目34番52号", "url": "https://www.kaigokensaku.mhlw.go.jp/25/index.php?action_kouhyou_detail_004_kani=true&JigyosyoCd=2510601962-00&ServiceCd=160&Type=search", "url2": "http://www.oumi-kusatsu-hp.jp" }, "geometry": { "type": "Point", "coordinates": [ 135.957147599999985, 35.0013358 ] } },
{ "type": "Feature", "properties": { "内容": "社会医療法人誠光会介護老人保健施設草津ケアセンター通所リハビリテーション【通所リハビリテーション】草津市野村２丁目13-13", "url": "https://www.kaigokensaku.mhlw.go.jp/25/index.php?action_kouhyou_detail_004_kani=true&JigyosyoCd=2550680017-00&ServiceCd=160&Type=search", "url2": "https://www.seikoukai-sc.or.jp/care_center/try/detail09" }, "geometry": { "type": "Point", "coordinates": [ 135.953325100000029, 35.0253266 ] } },
{ "type": "Feature", "properties": { "内容": "医療法人小西醫院　小西醫院デイケアセンター【通所リハビリテーション】滋賀県守山市洲本町1256-6", "url": "https://www.kaigokensaku.mhlw.go.jp/25/index.php?action_kouhyou_detail_004_kani=true&JigyosyoCd=2510701010-00&ServiceCd=160&Type=search", "url2": "http://www.konishiclinic.jp/" }, "geometry": { "type": "Point", "coordinates": [ 135.971542, 35.0885303 ] } },
{ "type": "Feature", "properties": { "内容": "介護老人保健施設　守山すみれ苑　通所リハビリテーション【通所リハビリテーション】荒見町300番地１", "url": "https://www.kaigokensaku.mhlw.go.jp/25/index.php?action_kouhyou_detail_004_kani=true&JigyosyoCd=2550780015-00&ServiceCd=160&Type=search", "url2": "http://moriyama-sumire.jp" }, "geometry": { "type": "Point", "coordinates": [ 135.981785599999967, 35.085050499999966 ] } },
{ "type": "Feature", "properties": { "内容": "医療法人　かさはら医院【通所リハビリテーション】滋賀県守山市播磨田町1456-1", "url": "https://www.kaigokensaku.mhlw.go.jp/25/index.php?action_kouhyou_detail_004_kani=true&JigyosyoCd=2510700962-00&ServiceCd=160&Type=search", "url2": "kasaharaiin.com" }, "geometry": { "type": "Point", "coordinates": [ 135.9857403, 35.075292 ] } },
{ "type": "Feature", "properties": { "内容": "金沢整形外科クリニック　デイ・ケア　しおん【通所リハビリテーション】栗東市小野881", "url": "https://www.kaigokensaku.mhlw.go.jp/25/index.php?action_kouhyou_detail_004_kani=true&JigyosyoCd=2511200756-00&ServiceCd=160&Type=search", "url2": "https://www.kanazawaseikei.or.jp/day_care" }, "geometry": { "type": "Point", "coordinates": [ 136.009144399999968, 35.0256358 ] } },
{ "type": "Feature", "properties": { "内容": "こびらい生協診療所通所リハビリテーションひまわり【通所リハビリテーション】滋賀県栗東市小平井３丁目２番２５号", "url": "https://www.kaigokensaku.mhlw.go.jp/25/index.php?action_kouhyou_detail_004_kani=true&JigyosyoCd=2511200558-00&ServiceCd=160&Type=search", "url2": "http://kobirai-seikyou.com" }, "geometry": { "type": "Point", "coordinates": [ 135.9650292, 35.0362309 ] } },
{ "type": "Feature", "properties": { "内容": "介護老人保健施設ケアポート栗東【通所リハビリテーション】栗東市大橋二丁目8番2号", "url": "https://www.kaigokensaku.mhlw.go.jp/25/index.php?action_kouhyou_detail_004_kani=true&JigyosyoCd=2551280015-00&ServiceCd=160&Type=search", "url2": "http://www.careport-rittou.jp/" }, "geometry": { "type": "Point", "coordinates": [ 136.001184100000046, 35.031846 ] } },
{ "type": "Feature", "properties": { "内容": "介護老人保健施設　スキナヴィラ水口【通所リハビリテーション】滋賀県甲賀市水口町本町2丁目2番43号", "url": "https://www.kaigokensaku.mhlw.go.jp/25/index.php?action_kouhyou_detail_004_kani=true&JigyosyoCd=2551480003-00&ServiceCd=160&Type=search", "url2": "http://www.minakuchi-hp.or.jp/" }, "geometry": { "type": "Point", "coordinates": [ 136.175316400000042, 34.9711803 ] } },
{ "type": "Feature", "properties": { "内容": "デイケアセンター心地【通所リハビリテーション】甲南町野尻７７－１", "url": "https://www.kaigokensaku.mhlw.go.jp/25/index.php?action_kouhyou_detail_004_kani=true&JigyosyoCd=2511401776-00&ServiceCd=160&Type=search", "url2": "t-seikei.jp" }, "geometry": { "type": "Point", "coordinates": [ 136.182589600000028, 34.915048 ] } },
{ "type": "Feature", "properties": { "内容": "医療法人社団村上整形外科クリニック【通所リハビリテーション】滋賀県甲賀市水口町虫生野1095-4", "url": "https://www.kaigokensaku.mhlw.go.jp/25/index.php?action_kouhyou_detail_004_kani=true&JigyosyoCd=2511401727-00&ServiceCd=160&Type=search", "url2": null }, "geometry": { "type": "Point", "coordinates": [ 136.1584679, 34.949037 ] } },
{ "type": "Feature", "properties": { "内容": "介護老人保健施設　野洲すみれ苑【通所リハビリテーション】滋賀県野洲市小篠原490-1", "url": "https://www.kaigokensaku.mhlw.go.jp/25/index.php?action_kouhyou_detail_004_kani=true&JigyosyoCd=2551380021-00&ServiceCd=160&Type=search", "url2": "http://yasu-sumire.jp/" }, "geometry": { "type": "Point", "coordinates": [ 136.024408900000026, 35.0676426 ] } },
{ "type": "Feature", "properties": { "内容": "介護老人保健施設　寿々はうす【通所リハビリテーション】滋賀県野洲市八夫2077", "url": "https://www.kaigokensaku.mhlw.go.jp/25/index.php?action_kouhyou_detail_004_kani=true&JigyosyoCd=2551380013-00&ServiceCd=160&Type=search", "url2": "http://www.konan-pay.or.jp/" }, "geometry": { "type": "Point", "coordinates": [ 136.021453699999938, 35.0887735 ] } },
{ "type": "Feature", "properties": { "内容": "石部デイケア【通所リハビリテーション】湖南市丸山四丁目5番1号", "url": "https://www.kaigokensaku.mhlw.go.jp/25/index.php?action_kouhyou_detail_004_kani=true&JigyosyoCd=2552380012-00&ServiceCd=160&Type=search", "url2": "http://www.hachikikai.com" }, "geometry": { "type": "Point", "coordinates": [ 136.04611639999996, 34.9987899 ] } },
{ "type": "Feature", "properties": { "内容": "介護老人保健施設　ケアセンターこうせい【通所リハビリテーション】滋賀県湖南市菩提寺104-14", "url": "https://www.kaigokensaku.mhlw.go.jp/25/index.php?action_kouhyou_detail_004_kani=true&JigyosyoCd=2552380020-00&ServiceCd=160&Type=search", "url2": "http://carecenter-kosei.com" }, "geometry": { "type": "Point", "coordinates": [ 136.072988200000026, 35.0221787 ] } },
{ "type": "Feature", "properties": { "内容": "甲西リハビリ病院通所リハビリセンター【通所リハビリテーション】湖南市夏見１１６８番地", "url": "https://www.kaigokensaku.mhlw.go.jp/25/index.php?action_kouhyou_detail_004_kani=true&JigyosyoCd=2512300118-00&ServiceCd=160&Type=search", "url2": "https://kousei-rh-hp.or.jp" }, "geometry": { "type": "Point", "coordinates": [ 136.089773151634972, 34.998763030318855 ] } },
{ "type": "Feature", "properties": { "内容": "今津病院　通所リハビリテ－ション【通所リハビリテーション】滋賀県高島市今津町南新保８７番地１", "url": "https://www.kaigokensaku.mhlw.go.jp/25/index.php?action_kouhyou_detail_004_kani=true&JigyosyoCd=2512201100-00&ServiceCd=160&Type=search", "url2": "http://www.oumiairinen.org/hospital/rihabiri/homon.htm" }, "geometry": { "type": "Point", "coordinates": [ 136.042941199999973, 35.4072957 ] } },
{ "type": "Feature", "properties": { "内容": "デイケアマキノ【通所リハビリテーション】滋賀県高島市マキノ町新保1097番地", "url": "https://www.kaigokensaku.mhlw.go.jp/25/index.php?action_kouhyou_detail_004_kani=true&JigyosyoCd=2512201043-00&ServiceCd=160&Type=search", "url2": "http://www.makino-hosp.or.jp" }, "geometry": { "type": "Point", "coordinates": [ 136.032829699999979, 35.4457531 ] } },
{ "type": "Feature", "properties": { "内容": "デイケアさくら【通所リハビリテーション】高島市新旭町太田888-1", "url": "https://www.kaigokensaku.mhlw.go.jp/25/index.php?action_kouhyou_detail_004_kani=true&JigyosyoCd=2512201126-00&ServiceCd=160&Type=search", "url2": "http://www.honda-clinic.com" }, "geometry": { "type": "Point", "coordinates": [ 136.050600900000063, 35.343281 ] } },
{ "type": "Feature", "properties": { "内容": "介護老人保健施設陽光の里【通所リハビリテーション】滋賀県高島市勝野1667番地14", "url": "https://www.kaigokensaku.mhlw.go.jp/25/index.php?action_kouhyou_detail_004_kani=true&JigyosyoCd=2552280014-00&ServiceCd=160&Type=search", "url2": "http://www.city.takashima.lg.jp" }, "geometry": { "type": "Point", "coordinates": [ 136.0122407, 35.2928518 ] } },
{ "type": "Feature", "properties": { "内容": "医療法人社団幸信会　青葉メディカル通所リハビリセンター【通所リハビリテーション】滋賀県東近江市青葉町1-46", "url": "https://www.kaigokensaku.mhlw.go.jp/25/index.php?action_kouhyou_detail_004_kani=true&JigyosyoCd=2510500693-00&ServiceCd=160&Type=search", "url2": "https://aoba-med.com" }, "geometry": { "type": "Point", "coordinates": [ 136.197207400000025, 35.1061172 ] } },
{ "type": "Feature", "properties": { "内容": "ケアセンター蒲生野通所リハビリテーション【通所リハビリテーション】東近江市桜川西町３４０", "url": "https://www.kaigokensaku.mhlw.go.jp/25/index.php?action_kouhyou_detail_004_kani=true&JigyosyoCd=2550580027-00&ServiceCd=160&Type=search", "url2": "https://yukinokai.com/" }, "geometry": { "type": "Point", "coordinates": [ 136.188193299999966, 35.0593614 ] } },
{ "type": "Feature", "properties": { "内容": "医療法人社団幸信会　ウェル青葉通所リハビリセンター【通所リハビリテーション】滋賀県東近江市青葉町1-46", "url": "https://www.kaigokensaku.mhlw.go.jp/25/index.php?action_kouhyou_detail_004_kani=true&JigyosyoCd=2550580043-00&ServiceCd=160&Type=search", "url2": "https://aoba-med.com" }, "geometry": { "type": "Point", "coordinates": [ 136.197524, 35.1060311 ] } },
{ "type": "Feature", "properties": { "内容": "医療法人敬愛会　デイケアセンターけいあい【通所リハビリテーション】滋賀県東近江市八日市東本町8番16号", "url": "https://www.kaigokensaku.mhlw.go.jp/25/index.php?action_kouhyou_detail_004_kani=true&JigyosyoCd=2510500503-00&ServiceCd=160&Type=search", "url2": "http://www.keiaikai.or.jp/" }, "geometry": { "type": "Point", "coordinates": [ 136.204360107409713, 35.10879104739373 ] } },
{ "type": "Feature", "properties": { "内容": "近江デイリハセンター【通所リハビリテーション】東近江市北坂町９６６", "url": "https://www.kaigokensaku.mhlw.go.jp/25/index.php?action_kouhyou_detail_004_kani=true&JigyosyoCd=2510500859-00&ServiceCd=160&Type=search", "url2": "http:www.oumi-hp.or.jp" }, "geometry": { "type": "Point", "coordinates": [ 136.275343900000053, 35.1321416 ] } },
{ "type": "Feature", "properties": { "内容": "東近江市蒲生医療センター通所リハビリテーション事業所【通所リハビリテーション】滋賀県東近江市桜川西町３４０番地", "url": "https://www.kaigokensaku.mhlw.go.jp/25/index.php?action_kouhyou_detail_004_kani=true&JigyosyoCd=2510501303-00&ServiceCd=160&Type=search", "url2": "http://members.e-omi.ne.jp/gamoubyouin/chiikiiryou/tuusyoriha.html" }, "geometry": { "type": "Point", "coordinates": [ 136.188059189549193, 35.060037624105874 ] } },
{ "type": "Feature", "properties": { "内容": "リハビリセンターあゆみ【通所リハビリテーション】東近江市新宮町５５８", "url": "https://www.kaigokensaku.mhlw.go.jp/25/index.php?action_kouhyou_detail_004_kani=true&JigyosyoCd=2550580035-00&ServiceCd=160&Type=search", "url2": "http://shiga-shinjyukai.or.jp/" }, "geometry": { "type": "Point", "coordinates": [ 136.149446799999964, 35.2009388 ] } },
{ "type": "Feature", "properties": { "内容": "ニコニコリハビリステーション【通所リハビリテーション】垣見町1597", "url": "https://www.kaigokensaku.mhlw.go.jp/25/index.php?action_kouhyou_detail_004_kani=true&JigyosyoCd=2510501311-00&ServiceCd=160&Type=search", "url2": "https://nikoriha.com" }, "geometry": { "type": "Point", "coordinates": [ 136.164317114749906, 35.182063781400466 ] } },
{ "type": "Feature", "properties": { "内容": "介護老人保健施設　ここちの郷【通所リハビリテーション】滋賀県東近江市五個荘山本町４６６番地", "url": "https://www.kaigokensaku.mhlw.go.jp/25/index.php?action_kouhyou_detail_004_kani=true&JigyosyoCd=2550580019-00&ServiceCd=160&Type=search", "url2": "https://www.rokushinkai.com/kokochi/" }, "geometry": { "type": "Point", "coordinates": [ 136.1805756, 35.140083 ] } },
{ "type": "Feature", "properties": { "内容": "医療法人緑泉会水野医院デイケア緑泉館【通所リハビリテーション】滋賀県米原市長岡600番地", "url": "https://www.kaigokensaku.mhlw.go.jp/25/index.php?action_kouhyou_detail_004_kani=true&JigyosyoCd=2512400298-00&ServiceCd=160&Type=search", "url2": "http://www.ryokusenkai.com/daycare.html" }, "geometry": { "type": "Point", "coordinates": [ 136.3719168, 35.3627042 ] } },
{ "type": "Feature", "properties": { "内容": "近江診療所【通所リハビリテーション】滋賀県米原市新庄77-1", "url": "https://www.kaigokensaku.mhlw.go.jp/25/index.php?action_kouhyou_detail_004_kani=true&JigyosyoCd=2512400371-00&ServiceCd=160&Type=search", "url2": "http://fukushia.jadecom.or.jp" }, "geometry": { "type": "Point", "coordinates": [ 136.313387400000011, 35.3351269 ] } },
{ "type": "Feature", "properties": { "内容": "通所リハビリテーションいそ【通所リハビリテーション】滋賀県米原市磯1729－1いそクリニック内", "url": "https://www.kaigokensaku.mhlw.go.jp/25/index.php?action_kouhyou_detail_004_kani=true&JigyosyoCd=2512400322-00&ServiceCd=160&Type=search", "url2": "http://www.iso-clinc.jp/" }, "geometry": { "type": "Point", "coordinates": [ 136.262007400000016, 35.3108144 ] } },
{ "type": "Feature", "properties": { "内容": "ケアセンターいぶき介護老人保健施設【通所リハビリテーション】滋賀県米原市春照58-1", "url": "https://www.kaigokensaku.mhlw.go.jp/25/index.php?action_kouhyou_detail_004_kani=true&JigyosyoCd=2572400246-00&ServiceCd=160&Type=search", "url2": "https://ibuki.jadecom.or.jp/" }, "geometry": { "type": "Point", "coordinates": [ 136.382650900000044, 35.3835069 ] } },
{ "type": "Feature", "properties": { "内容": "介護老人保健施設　坂田メディケアセンター【通所リハビリテーション】滋賀県米原市野一色1136", "url": "https://www.kaigokensaku.mhlw.go.jp/25/index.php?action_kouhyou_detail_004_kani=true&JigyosyoCd=2552480010-00&ServiceCd=160&Type=search", "url2": "http://www.s.seishokai.jp/sakatamc" }, "geometry": { "type": "Point", "coordinates": [ 136.353926499999943, 35.3860764 ] } },
{ "type": "Feature", "properties": { "内容": "医療法人社団　介護老人保健施設リスタあすなろ【通所リハビリテーション】上野田２４６番地", "url": "https://www.kaigokensaku.mhlw.go.jp/25/index.php?action_kouhyou_detail_004_kani=true&JigyosyoCd=2551580059-00&ServiceCd=160&Type=search", "url2": "http://www.subarukai.jp/cms_asunaro/" }, "geometry": { "type": "Point", "coordinates": [ 136.2362693, 35.0181052 ] } },
{ "type": "Feature", "properties": { "内容": "リハビリはうす　雨やどり【通所リハビリテーション】蒲生郡竜王町弓削1825－1", "url": "https://www.kaigokensaku.mhlw.go.jp/25/index.php?action_kouhyou_detail_004_kani=true&JigyosyoCd=2511500650-00&ServiceCd=160&Type=search", "url2": "http://yugemed.com" }, "geometry": { "type": "Point", "coordinates": [ 136.11966, 35.0882634 ] } },
{ "type": "Feature", "properties": { "内容": "介護老人保健施設　パストラールとよさと【通所リハビリテーション】滋賀県犬上郡豊郷町石畑２１２", "url": "https://www.kaigokensaku.mhlw.go.jp/25/index.php?action_kouhyou_detail_004_kani=true&JigyosyoCd=2551880012-00&ServiceCd=160&Type=search", "url2": "http://www.toyosato.or.jp/" }, "geometry": { "type": "Point", "coordinates": [ 136.230062699999962, 35.1996542 ] } },
{ "type": "Feature", "properties": { "内容": "医療法人　おした整形外科医院【通所リハビリテーション】滋賀県犬上郡豊郷町下枝23番-1", "url": "https://www.kaigokensaku.mhlw.go.jp/25/index.php?action_kouhyou_detail_004_kani=true&JigyosyoCd=2511800340-00&ServiceCd=160&Type=search", "url2": "http://oshita-seikei.com/" }, "geometry": { "type": "Point", "coordinates": [ 136.221524400000021, 35.1936711 ] } }
]
}
