{
"type": "FeatureCollection",
"name": "geo_25_定期巡回・随時対応型訪問介護看護",
"crs": { "type": "name", "properties": { "name": "urn:ogc:def:crs:OGC:1.3:CRS84" } },
"features": [
{ "type": "Feature", "properties": { "内容": "そよ風定期巡回おおつ月輪【定期巡回・随時対応型訪問介護看護】月輪三丁目２４－２", "url": "https://www.kaigokensaku.mhlw.go.jp/25/index.php?action_kouhyou_detail_004_kani=true&JigyosyoCd=2590101164-00&ServiceCd=760&Type=search", "url2": "https://www.sykz.co.jp/shisetsu-zaitaku/253335" }, "geometry": { "type": "Point", "coordinates": [ 135.941, 34.9850472 ] } },
{ "type": "Feature", "properties": { "内容": "トゥインクル定期巡回サービス瀬田【定期巡回・随時対応型訪問介護看護】滋賀県大津市大萱4丁目6番地1号有料老人ホーム　トゥインクル瀬田", "url": "https://www.kaigokensaku.mhlw.go.jp/25/index.php?action_kouhyou_detail_004_kani=true&JigyosyoCd=2590101008-00&ServiceCd=760&Type=search", "url2": null }, "geometry": { "type": "Point", "coordinates": [ 135.9174885, 34.9862486 ] } },
{ "type": "Feature", "properties": { "内容": "定期巡回・随時対応型訪問介護看護事業所あったかステーション２４Sひこね【定期巡回・随時対応型訪問介護看護】滋賀県彦根市甘呂町491", "url": "https://www.kaigokensaku.mhlw.go.jp/25/index.php?action_kouhyou_detail_004_kani=true&JigyosyoCd=2590200180-00&ServiceCd=760&Type=search", "url2": null }, "geometry": { "type": "Point", "coordinates": [ 136.224619489030403, 35.246641785044879 ] } },
{ "type": "Feature", "properties": { "内容": "定期巡回・随時対応型訪問介護看護事業所あったかステーション24Nひこね【定期巡回・随時対応型訪問介護看護】滋賀県彦根市地蔵町73-2", "url": "https://www.kaigokensaku.mhlw.go.jp/25/index.php?action_kouhyou_detail_004_kani=true&JigyosyoCd=2590200339-00&ServiceCd=760&Type=search", "url2": "wttps://www.iscare.co.jp" }, "geometry": { "type": "Point", "coordinates": [ 136.2693413, 35.256272 ] } },
{ "type": "Feature", "properties": { "内容": "定期巡回ゆうゆうケアサービス【定期巡回・随時対応型訪問介護看護】滋賀県長浜市朝日町26-7", "url": "https://www.kaigokensaku.mhlw.go.jp/25/index.php?action_kouhyou_detail_004_kani=true&JigyosyoCd=2590300337-00&ServiceCd=760&Type=search", "url2": "https://nagahama.yuyu-life.jp/" }, "geometry": { "type": "Point", "coordinates": [ 136.269892750926232, 35.376515172457921 ] } },
{ "type": "Feature", "properties": { "内容": "訪問介護センターなでしこ草津【定期巡回・随時対応型訪問介護看護】草津市西渋川2丁目９－４８－１１", "url": "https://www.kaigokensaku.mhlw.go.jp/25/index.php?action_kouhyou_detail_004_kani=true&JigyosyoCd=2590600256-00&ServiceCd=760&Type=search", "url2": "http://www.saiseikai-shiga.jp/tankaiso/" }, "geometry": { "type": "Point", "coordinates": [ 135.963896200000022, 35.0295262 ] } },
{ "type": "Feature", "properties": { "内容": "ゆうらいふケアステーション【定期巡回・随時対応型訪問介護看護】守山市石田町735-3", "url": "https://www.kaigokensaku.mhlw.go.jp/25/index.php?action_kouhyou_detail_004_kani=true&JigyosyoCd=2590700056-00&ServiceCd=760&Type=search", "url2": "http://www.youlife.ne.jp" }, "geometry": { "type": "Point", "coordinates": [ 135.972560765576191, 35.074910583563749 ] } },
{ "type": "Feature", "properties": { "内容": "訪問介護センターなでしこ【定期巡回・随時対応型訪問介護看護】滋賀県栗東市小柿4丁目1-1", "url": "https://www.kaigokensaku.mhlw.go.jp/25/index.php?action_kouhyou_detail_004_kani=true&JigyosyoCd=2591200056-00&ServiceCd=760&Type=search", "url2": "http://www.saiseikai-shiga.jp/tankaiso/" }, "geometry": { "type": "Point", "coordinates": [ 135.976414699999964, 35.0242828 ] } },
{ "type": "Feature", "properties": { "内容": "あいむ野洲定期巡回・随時対応訪問介護看護【定期巡回・随時対応型訪問介護看護】富波乙190番地", "url": "https://www.kaigokensaku.mhlw.go.jp/25/index.php?action_kouhyou_detail_004_kani=true&JigyosyoCd=2591300070-00&ServiceCd=760&Type=search", "url2": "http://k-aimu.co.jp" }, "geometry": { "type": "Point", "coordinates": [ 136.032383, 35.0760584 ] } }
]
}
