{
"type": "FeatureCollection",
"name": "geo_25_地域密着型介護老人福祉施設入所者生活介護",
"crs": { "type": "name", "properties": { "name": "urn:ogc:def:crs:OGC:1.3:CRS84" } },
"features": [
{ "type": "Feature", "properties": { "内容": "特別養護老人ホーム　けやきの杜【地域密着型介護老人福祉施設入所者生活介護】滋賀県大津市小野372-1", "url": "https://www.kaigokensaku.mhlw.go.jp/25/index.php?action_kouhyou_detail_004_kani=true&JigyosyoCd=2590100943-00&ServiceCd=540&Type=search", "url2": "https://keyaki-no-mori.com/" }, "geometry": { "type": "Point", "coordinates": [ 135.9159173, 35.1494186 ] } },
{ "type": "Feature", "properties": { "内容": "地域密着型特別養護老人ホーム紬【地域密着型介護老人福祉施設入所者生活介護】滋賀県大津市南郷六丁目1102番地の1", "url": "https://www.kaigokensaku.mhlw.go.jp/25/index.php?action_kouhyou_detail_004_kani=true&JigyosyoCd=2590100927-00&ServiceCd=540&Type=search", "url2": "https://rokushokai.or.jp/" }, "geometry": { "type": "Point", "coordinates": [ 135.9147211, 34.9301308 ] } },
{ "type": "Feature", "properties": { "内容": "特別養護老人ホーム　アシタバ【地域密着型介護老人福祉施設入所者生活介護】滋賀県大津市松が丘7丁目15番6号", "url": "https://www.kaigokensaku.mhlw.go.jp/25/index.php?action_kouhyou_detail_004_kani=true&JigyosyoCd=2590100356-00&ServiceCd=540&Type=search", "url2": "https://oumi-syouseikai.jp/ashitaba/" }, "geometry": { "type": "Point", "coordinates": [ 135.964311100000032, 34.9711311 ] } },
{ "type": "Feature", "properties": { "内容": "特別養護老人ホーム　南天【地域密着型介護老人福祉施設入所者生活介護】滋賀県大津市松が丘7丁目8番10号", "url": "https://www.kaigokensaku.mhlw.go.jp/25/index.php?action_kouhyou_detail_004_kani=true&JigyosyoCd=2590100521-00&ServiceCd=540&Type=search", "url2": "http://oumi-syouseikai.jp" }, "geometry": { "type": "Point", "coordinates": [ 135.9629751, 34.969259 ] } },
{ "type": "Feature", "properties": { "内容": "地域密着型特別養護老人ホーム　千松の郷Ⅱ番館【地域密着型介護老人福祉施設入所者生活介護】滋賀県彦根市松原町524", "url": "https://www.kaigokensaku.mhlw.go.jp/25/index.php?action_kouhyou_detail_004_kani=true&JigyosyoCd=2590200214-00&ServiceCd=540&Type=search", "url2": null }, "geometry": { "type": "Point", "coordinates": [ 136.251416291340632, 35.286999317159726 ] } },
{ "type": "Feature", "properties": { "内容": "第2邂逅の郷特別養護老人ホーム【地域密着型介護老人福祉施設入所者生活介護】彦根市日夏町151番地", "url": "https://www.kaigokensaku.mhlw.go.jp/25/index.php?action_kouhyou_detail_004_kani=true&JigyosyoCd=2590200321-00&ServiceCd=540&Type=search", "url2": "http://www.taijyukai.net" }, "geometry": { "type": "Point", "coordinates": [ 136.220277200000055, 35.2419045 ] } },
{ "type": "Feature", "properties": { "内容": "特別養護老人ホーム　風蝶木【地域密着型介護老人福祉施設入所者生活介護】滋賀県彦根市極楽寺町596番地", "url": "https://www.kaigokensaku.mhlw.go.jp/25/index.php?action_kouhyou_detail_004_kani=true&JigyosyoCd=2590200057-00&ServiceCd=540&Type=search", "url2": "http://www.kisoukai.com" }, "geometry": { "type": "Point", "coordinates": [ 136.235095734393298, 35.230488496749324 ] } },
{ "type": "Feature", "properties": { "内容": "邂逅の郷特別養護老人ホーム【地域密着型介護老人福祉施設入所者生活介護】滋賀県彦根市日夏町151番地", "url": "https://www.kaigokensaku.mhlw.go.jp/25/index.php?action_kouhyou_detail_004_kani=true&JigyosyoCd=2590200073-00&ServiceCd=540&Type=search", "url2": "http://www.taijyukai.net/" }, "geometry": { "type": "Point", "coordinates": [ 136.220277200000027, 35.2419045 ] } },
{ "type": "Feature", "properties": { "内容": "特別養護老人ホーム　ナースログ【地域密着型介護老人福祉施設入所者生活介護】滋賀県彦根市極楽寺町605番地", "url": "https://www.kaigokensaku.mhlw.go.jp/25/index.php?action_kouhyou_detail_004_kani=true&JigyosyoCd=2590200172-00&ServiceCd=540&Type=search", "url2": "http://www.kisoukai.com" }, "geometry": { "type": "Point", "coordinates": [ 136.234577842219551, 35.231159190307316 ] } },
{ "type": "Feature", "properties": { "内容": "特別養護老人ホームまんてん塩津【地域密着型介護老人福祉施設入所者生活介護】滋賀県長浜市西浅井町塩津中１１２３番地", "url": "https://www.kaigokensaku.mhlw.go.jp/25/index.php?action_kouhyou_detail_004_kani=true&JigyosyoCd=2590300188-00&ServiceCd=540&Type=search", "url2": "www.man-ten.org" }, "geometry": { "type": "Point", "coordinates": [ 136.156830200000059, 35.5298312 ] } },
{ "type": "Feature", "properties": { "内容": "地域密着型特別養護老人ホーム　あじさいの郷【地域密着型介護老人福祉施設入所者生活介護】滋賀県長浜市余呉町池原85番地特別養護老人ホームあじさいの郷", "url": "https://www.kaigokensaku.mhlw.go.jp/25/index.php?action_kouhyou_detail_004_kani=true&JigyosyoCd=2590300238-00&ServiceCd=540&Type=search", "url2": "sontokukai.com/" }, "geometry": { "type": "Point", "coordinates": [ 136.184902800000032, 35.5577621 ] } },
{ "type": "Feature", "properties": { "内容": "地域密着型介護老人福祉施設　赤煉瓦の郷【地域密着型介護老人福祉施設入所者生活介護】滋賀県近江八幡市船木町５９番地３", "url": "https://www.kaigokensaku.mhlw.go.jp/25/index.php?action_kouhyou_detail_004_kani=true&JigyosyoCd=2590400160-00&ServiceCd=540&Type=search", "url2": "https://ichizenkai.com" }, "geometry": { "type": "Point", "coordinates": [ 136.080450199999973, 35.137826 ] } },
{ "type": "Feature", "properties": { "内容": "地域密着型特別養護老人ホーム　漫遊の郷【地域密着型介護老人福祉施設入所者生活介護】滋賀県近江八幡市十王町1061", "url": "https://www.kaigokensaku.mhlw.go.jp/25/index.php?action_kouhyou_detail_004_kani=true&JigyosyoCd=2590400327-00&ServiceCd=540&Type=search", "url2": "http://www.houjyu-kai.or.jp/" }, "geometry": { "type": "Point", "coordinates": [ 136.056226407301352, 35.109423958684765 ] } },
{ "type": "Feature", "properties": { "内容": "特別養護老人ホーム　やまでら【地域密着型介護老人福祉施設入所者生活介護】滋賀県草津市山寺町１１１８", "url": "https://www.kaigokensaku.mhlw.go.jp/25/index.php?action_kouhyou_detail_004_kani=true&JigyosyoCd=2590600124-00&ServiceCd=540&Type=search", "url2": "https://428kai.or.jp/facility/yamadera/" }, "geometry": { "type": "Point", "coordinates": [ 135.980956500000048, 35.006299 ] } },
{ "type": "Feature", "properties": { "内容": "特別養護老人ホームしあわせ【地域密着型介護老人福祉施設入所者生活介護】滋賀県草津市南笠町905番地", "url": "https://www.kaigokensaku.mhlw.go.jp/25/index.php?action_kouhyou_detail_004_kani=true&JigyosyoCd=2590600140-00&ServiceCd=540&Type=search", "url2": "https://428kai.or.jp/facility/shiawase/" }, "geometry": { "type": "Point", "coordinates": [ 135.934577748359601, 35.001811230622778 ] } },
{ "type": "Feature", "properties": { "内容": "特別養護老人ホーム　帆の里【地域密着型介護老人福祉施設入所者生活介護】矢橋町500-1", "url": "https://www.kaigokensaku.mhlw.go.jp/25/index.php?action_kouhyou_detail_004_kani=true&JigyosyoCd=2590600173-00&ServiceCd=540&Type=search", "url2": "https://428kai.or.jp/" }, "geometry": { "type": "Point", "coordinates": [ 135.927661299999954, 35.00524 ] } },
{ "type": "Feature", "properties": { "内容": "介護老人福祉施設なみき【地域密着型介護老人福祉施設入所者生活介護】草津市上笠一丁目1-16", "url": "https://www.kaigokensaku.mhlw.go.jp/25/index.php?action_kouhyou_detail_004_kani=true&JigyosyoCd=2590600108-00&ServiceCd=540&Type=search", "url2": "http://www.popura.or.jp" }, "geometry": { "type": "Point", "coordinates": [ 135.95018349999998, 35.0328755 ] } },
{ "type": "Feature", "properties": { "内容": "特別養護老人ホームゆうすいのさと【地域密着型介護老人福祉施設入所者生活介護】滋賀県草津市駒井沢町400－1", "url": "https://www.kaigokensaku.mhlw.go.jp/25/index.php?action_kouhyou_detail_004_kani=true&JigyosyoCd=2590600181-00&ServiceCd=540&Type=search", "url2": "https://428kai.or.jp/" }, "geometry": { "type": "Point", "coordinates": [ 135.95833540000001, 35.0440853 ] } },
{ "type": "Feature", "properties": { "内容": "南平の郷【地域密着型介護老人福祉施設入所者生活介護】横江町155", "url": "https://www.kaigokensaku.mhlw.go.jp/25/index.php?action_kouhyou_detail_004_kani=true&JigyosyoCd=2590700213-00&ServiceCd=540&Type=search", "url2": "www.nampei.jp" }, "geometry": { "type": "Point", "coordinates": [ 136.587086199999987, 36.5448099 ] } },
{ "type": "Feature", "properties": { "内容": "カナリヤの家大門【地域密着型介護老人福祉施設入所者生活介護】滋賀県守山市大門町284", "url": "https://www.kaigokensaku.mhlw.go.jp/25/index.php?action_kouhyou_detail_004_kani=true&JigyosyoCd=2590700270-00&ServiceCd=540&Type=search", "url2": "https://kaigo-nagisa.com" }, "geometry": { "type": "Point", "coordinates": [ 135.972181299999988, 35.0536593 ] } },
{ "type": "Feature", "properties": { "内容": "特別養護老人ホームひいらぎ【地域密着型介護老人福祉施設入所者生活介護】滋賀県守山市荒見町85番地", "url": "https://www.kaigokensaku.mhlw.go.jp/25/index.php?action_kouhyou_detail_004_kani=true&JigyosyoCd=2590700197-00&ServiceCd=540&Type=search", "url2": "http://oumi-syouseikai.jp" }, "geometry": { "type": "Point", "coordinates": [ 135.9812751, 35.0827316 ] } },
{ "type": "Feature", "properties": { "内容": "カナリヤの家【地域密着型介護老人福祉施設入所者生活介護】守山市三宅町833", "url": "https://www.kaigokensaku.mhlw.go.jp/25/index.php?action_kouhyou_detail_004_kani=true&JigyosyoCd=2570700076-00&ServiceCd=540&Type=search", "url2": "http://www.kanariya.or.jp/" }, "geometry": { "type": "Point", "coordinates": [ 135.9686206, 35.0594338 ] } },
{ "type": "Feature", "properties": { "内容": "地域密着型特別養護老人ホームるりあんはうす【地域密着型介護老人福祉施設入所者生活介護】滋賀県栗東市小野８１４番地", "url": "https://www.kaigokensaku.mhlw.go.jp/25/index.php?action_kouhyou_detail_004_kani=true&JigyosyoCd=2591200163-00&ServiceCd=540&Type=search", "url2": "https://rurianhouse.or.jp/" }, "geometry": { "type": "Point", "coordinates": [ 136.004476559529763, 35.024946249299205 ] } },
{ "type": "Feature", "properties": { "内容": "特別養護老人ホーム　治田の里【地域密着型介護老人福祉施設入所者生活介護】滋賀県栗東市川辺627番地", "url": "https://www.kaigokensaku.mhlw.go.jp/25/index.php?action_kouhyou_detail_004_kani=true&JigyosyoCd=2591200098-00&ServiceCd=540&Type=search", "url2": "http://www.yotsuba-lcn.or.jp" }, "geometry": { "type": "Point", "coordinates": [ 135.986753795353707, 35.019116277620675 ] } },
{ "type": "Feature", "properties": { "内容": "地域密着型特別養護老人ホーム　リトルブック【地域密着型介護老人福祉施設入所者生活介護】滋賀県甲賀市土山町北土山2061－1", "url": "https://www.kaigokensaku.mhlw.go.jp/25/index.php?action_kouhyou_detail_004_kani=true&JigyosyoCd=2591400185-00&ServiceCd=540&Type=search", "url2": "https://www.edeltutiyama.net/" }, "geometry": { "type": "Point", "coordinates": [ 136.2929387, 34.9390297 ] } },
{ "type": "Feature", "properties": { "内容": "特別養護老人ホームぎおうの里【地域密着型介護老人福祉施設入所者生活介護】滋賀県野洲市冨波甲1340番地1", "url": "https://www.kaigokensaku.mhlw.go.jp/25/index.php?action_kouhyou_detail_004_kani=true&JigyosyoCd=2571300199-00&ServiceCd=540&Type=search", "url2": "https://yasujikeikai.jp/" }, "geometry": { "type": "Point", "coordinates": [ 136.027775199999951, 35.0896762 ] } },
{ "type": "Feature", "properties": { "内容": "特別養護老人ホーム悠紀の里びわ【地域密着型介護老人福祉施設入所者生活介護】滋賀県野洲市南桜2131番地1", "url": "https://www.kaigokensaku.mhlw.go.jp/25/index.php?action_kouhyou_detail_004_kani=true&JigyosyoCd=2591300047-00&ServiceCd=540&Type=search", "url2": "https://yasujikeikai.jp/" }, "geometry": { "type": "Point", "coordinates": [ 136.048147450709507, 35.039341115371109 ] } },
{ "type": "Feature", "properties": { "内容": "地域密着型特別養護老人ホームみやのもり【地域密着型介護老人福祉施設入所者生活介護】宮の森1丁目2番1号", "url": "https://www.kaigokensaku.mhlw.go.jp/25/index.php?action_kouhyou_detail_004_kani=true&JigyosyoCd=2592300095-00&ServiceCd=540&Type=search", "url2": "http://www.hachikikai.com" }, "geometry": { "type": "Point", "coordinates": [ 136.061492600000065, 35.0036809 ] } },
{ "type": "Feature", "properties": { "内容": "小規模特別養護老人ホーム　百伝の杜【地域密着型介護老人福祉施設入所者生活介護】湖南市岩根690番地4", "url": "https://www.kaigokensaku.mhlw.go.jp/25/index.php?action_kouhyou_detail_004_kani=true&JigyosyoCd=2592300079-00&ServiceCd=540&Type=search", "url2": "vira12@arrow.ocn.ne.jp" }, "geometry": { "type": "Point", "coordinates": [ 136.116228299999989, 35.0100615 ] } },
{ "type": "Feature", "properties": { "内容": "小規模特別養護老人ホーム　針っ子【地域密着型介護老人福祉施設入所者生活介護】滋賀県湖南市針１３２５番地", "url": "https://www.kaigokensaku.mhlw.go.jp/25/index.php?action_kouhyou_detail_004_kani=true&JigyosyoCd=2592300061-00&ServiceCd=540&Type=search", "url2": "http://ikuta-hospital.com/shisetsu_satsuki_hariko/" }, "geometry": { "type": "Point", "coordinates": [ 136.077591, 34.9883772 ] } },
{ "type": "Feature", "properties": { "内容": "地域密着型介護老人福祉施設あっとほーむ萩【地域密着型介護老人福祉施設入所者生活介護】滋賀県高島市勝野1－2", "url": "https://www.kaigokensaku.mhlw.go.jp/25/index.php?action_kouhyou_detail_004_kani=true&JigyosyoCd=2592200063-00&ServiceCd=540&Type=search", "url2": "http://shinasahi-minorikai.or.jp/" }, "geometry": { "type": "Point", "coordinates": [ 136.02164259999995, 35.3003231 ] } },
{ "type": "Feature", "properties": { "内容": "桜美林シューレ高島【地域密着型介護老人福祉施設入所者生活介護】滋賀県高島市新旭町北畑525-2", "url": "https://www.kaigokensaku.mhlw.go.jp/25/index.php?action_kouhyou_detail_004_kani=true&JigyosyoCd=2592200261-00&ServiceCd=540&Type=search", "url2": "https://os-takashima.org" }, "geometry": { "type": "Point", "coordinates": [ 136.036059200000011, 35.3499676 ] } },
{ "type": "Feature", "properties": { "内容": "地域密着型小規模特別養護老人ホームやまゆりの里【地域密着型介護老人福祉施設入所者生活介護】滋賀県高島市朽木市場656", "url": "https://www.kaigokensaku.mhlw.go.jp/25/index.php?action_kouhyou_detail_004_kani=true&JigyosyoCd=2592200329-00&ServiceCd=540&Type=search", "url2": "http://hatsuho-yamayuri.com" }, "geometry": { "type": "Point", "coordinates": [ 135.9187018, 35.3540509 ] } },
{ "type": "Feature", "properties": { "内容": "社会福祉法人ゆたか会　地域密着型小規模特別養護老人ホーム　さわの風【地域密着型介護老人福祉施設入所者生活介護】滋賀県高島市マキノ町沢1791-1", "url": "https://www.kaigokensaku.mhlw.go.jp/25/index.php?action_kouhyou_detail_004_kani=true&JigyosyoCd=2592200113-00&ServiceCd=540&Type=search", "url2": "yutakakai.jp" }, "geometry": { "type": "Point", "coordinates": [ 136.034640800000034, 35.4622513 ] } },
{ "type": "Feature", "properties": { "内容": "小規模特別養護老人ホームのとがわ【地域密着型介護老人福祉施設入所者生活介護】滋賀県東近江市新宮町３１６番１", "url": "https://www.kaigokensaku.mhlw.go.jp/25/index.php?action_kouhyou_detail_004_kani=true&JigyosyoCd=2590500167-00&ServiceCd=540&Type=search", "url2": "http://shiga-shinjyukai.or.jp/" }, "geometry": { "type": "Point", "coordinates": [ 136.150216152184242, 35.200741742777446 ] } },
{ "type": "Feature", "properties": { "内容": "地域密着型特別養護老人ホームきいと【地域密着型介護老人福祉施設入所者生活介護】滋賀県東近江市五個荘山本町447番地34", "url": "https://www.kaigokensaku.mhlw.go.jp/25/index.php?action_kouhyou_detail_004_kani=true&JigyosyoCd=2590500175-00&ServiceCd=540&Type=search", "url2": "http://www.rokushinkai.com/service/kiito/" }, "geometry": { "type": "Point", "coordinates": [ 136.180624615205346, 35.139664639404891 ] } },
{ "type": "Feature", "properties": { "内容": "地域密着型特別養護老人ホーム　菊水ビラ【地域密着型介護老人福祉施設入所者生活介護】東近江市下里町789", "url": "https://www.kaigokensaku.mhlw.go.jp/25/index.php?action_kouhyou_detail_004_kani=true&JigyosyoCd=2590500233-00&ServiceCd=540&Type=search", "url2": "http://www.keisenkaikikusuien.com/" }, "geometry": { "type": "Point", "coordinates": [ 136.2555922, 35.1347827 ] } },
{ "type": "Feature", "properties": { "内容": "地域密着型特別養護老人ホーム　わが家ひだまり【地域密着型介護老人福祉施設入所者生活介護】滋賀県米原市本郷603番1", "url": "https://www.kaigokensaku.mhlw.go.jp/25/index.php?action_kouhyou_detail_004_kani=true&JigyosyoCd=2592400127-00&ServiceCd=540&Type=search", "url2": "http://www.hidamari-shiga.jp" }, "geometry": { "type": "Point", "coordinates": [ 136.353691600000047, 35.3428954 ] } },
{ "type": "Feature", "properties": { "内容": "特別養護老人ホーム長野の里【地域密着型介護老人福祉施設入所者生活介護】長野1499番地", "url": "https://www.kaigokensaku.mhlw.go.jp/25/index.php?action_kouhyou_detail_004_kani=true&JigyosyoCd=2591700063-00&ServiceCd=540&Type=search", "url2": "http://www.nagano-sato.com/" }, "geometry": { "type": "Point", "coordinates": [ 136.209352156758086, 35.192335364360197 ] } }
]
}
