{
"type": "FeatureCollection",
"name": "geo_25_1",
"crs": { "type": "name", "properties": { "name": "urn:ogc:def:crs:OGC:1.3:CRS84" } },
"features": [
{ "type": "Feature", "properties": { "ID": 2511250000010, "正式名称": "医療法人　弘英会　琵琶湖大橋病院", "機関区分": 1, "都道府県コード": 25, "市区町村コード": 201, "所在地": "滋賀県大津市真野５－１－２９", "緯度": 35.128322, "経度": 135.922953, "url": "https://www.iryou.teikyouseido.mhlw.go.jp/znk-web/juminkanja/S2430/initialize?prefCd=25&kikanCd=1250000010&kikanKbn=1", "url2": "http://www.boh.or.jp", "内容": "医療法人　弘英会　琵琶湖大橋病院【1:病院】【診療科目:内科_糖尿病内科_脳神経内科_呼吸器内科_循環器内科_消化器内科_腎臓内科_人工透析内科_老年内科_外科_脳神経外科_呼吸器外科_心臓血管外科_肛門外科_整形外科_眼科_皮膚科_泌尿器科_歯科_歯科口腔外科_小児歯科_リハビリテーション科_放射線科_麻酔科】【一般病床数:147療養病床数:52精神病床数:0感染症病床数:0合計病床数:199】滋賀県大津市真野５－１－２９" }, "geometry": { "type": "Point", "coordinates": [ 135.922953, 35.128322 ] } },
{ "type": "Feature", "properties": { "ID": 2511250000020, "正式名称": "独立行政法人地域医療機能推進機構　滋賀病院", "機関区分": 1, "都道府県コード": 25, "市区町村コード": 201, "所在地": "滋賀県大津市富士見台１６－１", "緯度": 34.985461, "経度": 135.884953, "url": "https://www.iryou.teikyouseido.mhlw.go.jp/znk-web/juminkanja/S2430/initialize?prefCd=25&kikanCd=1250000020&kikanKbn=1", "url2": "http://shiga.jcho.go.jp/", "内容": "独立行政法人地域医療機能推進機構　滋賀病院【1:病院】【診療科目:内科_血液内科_糖尿病内科_呼吸器内科_循環器内科_消化器内科_腎臓内科_神経内科_外科_脳神経外科_呼吸器外科_心臓血管外科_乳腺外科_整形外科_形成外科_小児科_産婦人科_眼科_耳鼻いんこう科_皮膚科_泌尿器科_精神科_歯科_歯科口腔外科_リハビリテーション科_放射線科_救急科】【一般病床数:273療養病床数:0精神病床数:0感染症病床数:0合計病床数:310】滋賀県大津市富士見台１６－１" }, "geometry": { "type": "Point", "coordinates": [ 135.884953, 34.985461 ] } },
{ "type": "Feature", "properties": { "ID": 2511250000030, "正式名称": "滋賀医科大学医学部附属病院", "機関区分": 1, "都道府県コード": 25, "市区町村コード": 201, "所在地": "滋賀県大津市瀬田月輪町", "緯度": 34.973461, "経度": 135.951731, "url": "https://www.iryou.teikyouseido.mhlw.go.jp/znk-web/juminkanja/S2430/initialize?prefCd=25&kikanCd=1250000030&kikanKbn=1", "url2": "https://www.shiga-med.ac.jp/hospital/", "内容": "滋賀医科大学医学部附属病院【1:病院】【診療科目:血液内科_糖尿病・内分泌内科_脳神経内科_呼吸器内科_循環器内科_消化器内科_腎臓内科_腫瘍内科_外科_脳神経外科_呼吸器外科_心臓血管外科_消化器外科_頭頸部外科_整形外科_形成外科_小児科_産婦人科_眼科_耳鼻いんこう科_皮膚科_泌尿器科_精神科_歯科口腔外科_リハビリテーション科_放射線科_病理診断科_救急科_麻酔科】【一般病床数:569療養病床数:0精神病床数:34感染症病床数:0合計病床数:603】滋賀県大津市瀬田月輪町" }, "geometry": { "type": "Point", "coordinates": [ 135.951731, 34.973461 ] } },
{ "type": "Feature", "properties": { "ID": 2511250000040, "正式名称": "社会医療法人　誠光会　淡海医療センター", "機関区分": 1, "都道府県コード": 25, "市区町村コード": 206, "所在地": "滋賀県草津市矢橋町１６６０", "緯度": 35.011144, "経度": 135.927226, "url": "https://www.iryou.teikyouseido.mhlw.go.jp/znk-web/juminkanja/S2430/initialize?prefCd=25&kikanCd=1250000040&kikanKbn=1", "url2": "https://www.seikoukai-sc.or.jp/omi-mc/", "内容": "社会医療法人　誠光会　淡海医療センター【1:病院】【診療科目:内科_血液内科_糖尿病内科_内分泌内科_脳神経内科_呼吸器内科_循環器内科_消化器内科_腎臓内科_内視鏡内科_緩和ケア内科_膠原病内科_外科_脳神経外科_呼吸器外科_心臓血管外科_消化器外科_乳腺外科_頭頸部外科_整形外科_形成外科_甲状腺外科_小児科_小児外科_産婦人科_眼科_耳鼻いんこう科_皮膚科_泌尿器科_精神科_心療内科_歯科_歯科口腔外科_リハビリテーション科_放射線科_放射線診断科_放射線治療科_病理診断科_臨床検査科_救急科_麻酔科】【一般病床数:420療養病床数:0精神病床数:0感染症病床数:0合計病床数:420】滋賀県草津市矢橋町１６６０" }, "geometry": { "type": "Point", "coordinates": [ 135.927226, 35.011144 ] } },
{ "type": "Feature", "properties": { "ID": 2511250000060, "正式名称": "滋賀県立総合病院", "機関区分": 1, "都道府県コード": 25, "市区町村コード": 207, "所在地": "滋賀県守山市守山５－４－３０", "緯度": 35.061739, "経度": 135.988231, "url": "https://www.iryou.teikyouseido.mhlw.go.jp/znk-web/juminkanja/S2430/initialize?prefCd=25&kikanCd=1250000060&kikanKbn=1", "url2": "https://www.pref.shiga.lg.jp/kensou/", "内容": "滋賀県立総合病院【1:病院】【診療科目:血液内科_糖尿病・内分泌内科_脳神経内科_呼吸器内科_循環器内科_消化器内科_腎臓内科_腫瘍内科_老年内科_免疫内科_外科_脳神経外科_呼吸器外科_心臓血管外科_乳腺外科_整形外科_形成外科_小児科_産婦人科_眼科_耳鼻いんこう科_皮膚科_泌尿器科_精神科_歯科口腔外科_リハビリテーション科_放射線診断科_放射線治療科_病理診断科_救急科_麻酔科】【一般病床数:635療養病床数:0精神病床数:0感染症病床数:0合計病床数:635】滋賀県守山市守山５－４－３０" }, "geometry": { "type": "Point", "coordinates": [ 135.988231, 35.061739 ] } },
{ "type": "Feature", "properties": { "ID": 2511250000070, "正式名称": "社会福祉法人恩賜財団済生会守山市民病院", "機関区分": 1, "都道府県コード": 25, "市区町村コード": 207, "所在地": "滋賀県守山市守山４－１４－１", "緯度": 35.060878, "経度": 135.991619, "url": "https://www.iryou.teikyouseido.mhlw.go.jp/znk-web/juminkanja/S2430/initialize?prefCd=25&kikanCd=1250000070&kikanKbn=1", "url2": "http://www.saiseikai-moriyama.jp", "内容": "社会福祉法人恩賜財団済生会守山市民病院【1:病院】【診療科目:内科_糖尿病内科_呼吸器内科_循環器内科_消化器内科_腎臓内科_神経内科_外科_脳神経外科_整形外科_小児科_眼科_皮膚科_泌尿器科_リハビリテーション科_放射線科_麻酔科】【一般病床数:151療養病床数:48精神病床数:0感染症病床数:0合計病床数:199】滋賀県守山市守山４－１４－１" }, "geometry": { "type": "Point", "coordinates": [ 135.991619, 35.060878 ] } },
{ "type": "Feature", "properties": { "ID": 2511250000090, "正式名称": "医療法人社団美松会　生田病院", "機関区分": 1, "都道府県コード": 25, "市区町村コード": 211, "所在地": "滋賀県湖南市菩提寺１０４－１３", "緯度": 35.022683, "経度": 136.073147, "url": "https://www.iryou.teikyouseido.mhlw.go.jp/znk-web/juminkanja/S2430/initialize?prefCd=25&kikanCd=1250000090&kikanKbn=1", "url2": "http://www.ex.biwa.ne.jp/~bishokai/", "内容": "医療法人社団美松会　生田病院【1:病院】【診療科目:内科_内分泌内科_呼吸器内科_循環器内科_消化器内科_腎臓内科_外科_脳神経外科_呼吸器外科_消化器外科_乳腺外科_整形外科_眼科_耳鼻いんこう科_泌尿器科】【一般病床数:99療養病床数:50精神病床数:0感染症病床数:0合計病床数:149】滋賀県湖南市菩提寺１０４－１３" }, "geometry": { "type": "Point", "coordinates": [ 136.073147, 35.022683 ] } },
{ "type": "Feature", "properties": { "ID": 2511250000110, "正式名称": "公立甲賀病院", "機関区分": 1, "都道府県コード": 25, "市区町村コード": 209, "所在地": "滋賀県甲賀市水口町松尾１２５６", "緯度": 34.982521, "経度": 136.177947, "url": "https://www.iryou.teikyouseido.mhlw.go.jp/znk-web/juminkanja/S2430/initialize?prefCd=25&kikanCd=1250000110&kikanKbn=1", "url2": "https://www.kohka-hp.or.jp/", "内容": "公立甲賀病院【1:病院】【診療科目:内科_血液内科_糖尿病・内分泌内科_脳神経内科_呼吸器内科_循環器内科_消化器内科_腎臓内科_緩和ケア内科_外科_脳神経外科_呼吸器外科_心臓血管外科_消化器外科_乳腺外科_肛門外科_整形外科_形成外科_小児科_産婦人科_眼科_耳鼻いんこう科_皮膚科_泌尿器科_精神科_心療内科_歯科_矯正歯科_歯科口腔外科_リウマチ科_リハビリテーション科_放射線科_放射線診断科_放射線治療科_病理診断科_救急科_麻酔科】【一般病床数:409療養病床数:0精神病床数:0感染症病床数:4合計病床数:413】滋賀県甲賀市水口町松尾１２５６" }, "geometry": { "type": "Point", "coordinates": [ 136.177947, 34.982521 ] } },
{ "type": "Feature", "properties": { "ID": 2511250000120, "正式名称": "医療法人社団　仁生会　甲南病院", "機関区分": 1, "都道府県コード": 25, "市区町村コード": 209, "所在地": "滋賀県甲賀市甲南町葛木９５８", "緯度": 34.929017, "経度": 136.175342, "url": "https://www.iryou.teikyouseido.mhlw.go.jp/znk-web/juminkanja/S2430/initialize?prefCd=25&kikanCd=1250000120&kikanKbn=1", "url2": "http://www.kohnan-shiga.or.jp", "内容": "医療法人社団　仁生会　甲南病院【1:病院】【診療科目:内科_血液内科_糖尿病・代謝内科_脳神経内科_呼吸器内科_循環器内科_消化器内科_腎臓内科_外科_脳神経外科_呼吸器外科_消化器外科_乳腺外科_肛門外科_整形外科_形成外科_婦人科_泌尿器科_リウマチ科_放射線科_麻酔科】【一般病床数:100療養病床数:99精神病床数:0感染症病床数:0合計病床数:199】滋賀県甲賀市甲南町葛木９５８" }, "geometry": { "type": "Point", "coordinates": [ 136.175342, 34.929017 ] } },
{ "type": "Feature", "properties": { "ID": 2511250000130, "正式名称": "甲賀市立信楽中央病院", "機関区分": 1, "都道府県コード": 25, "市区町村コード": 209, "所在地": "滋賀県甲賀市信楽町長野４７３", "緯度": 34.8756, "経度": 136.054508, "url": "https://www.iryou.teikyouseido.mhlw.go.jp/znk-web/juminkanja/S2430/initialize?prefCd=25&kikanCd=1250000130&kikanKbn=1", "url2": "https://koka-shigaraki-hp.jp/", "内容": "甲賀市立信楽中央病院【1:病院】【診療科目:内科_外科_整形外科_小児科_リハビリテーション科】【一般病床数:40療養病床数:0精神病床数:0感染症病床数:0合計病床数:40】滋賀県甲賀市信楽町長野４７３" }, "geometry": { "type": "Point", "coordinates": [ 136.054508, 34.8756 ] } },
{ "type": "Feature", "properties": { "ID": 2511250000140, "正式名称": "東近江市立能登川病院", "機関区分": 1, "都道府県コード": 25, "市区町村コード": 213, "所在地": "滋賀県東近江市猪子町１９１", "緯度": 35.175822, "経度": 136.168258, "url": "https://www.iryou.teikyouseido.mhlw.go.jp/znk-web/juminkanja/S2430/initialize?prefCd=25&kikanCd=1250000140&kikanKbn=1", "url2": "http://www.subarukai.jp", "内容": "東近江市立能登川病院【1:病院】【診療科目:内科_呼吸器内科_循環器内科_消化器内科_神経内科_外科_脳神経外科_心臓血管外科_整形外科_形成外科_眼形成眼窩外科_小児科_眼科_耳鼻いんこう科_皮膚科_泌尿器科_リハビリテーション科_放射線科_麻酔科】【一般病床数:102療養病床数:0精神病床数:0感染症病床数:0合計病床数:102】滋賀県東近江市猪子町１９１" }, "geometry": { "type": "Point", "coordinates": [ 136.168258, 35.175822 ] } },
{ "type": "Feature", "properties": { "ID": 2511250000150, "正式名称": "独立行政法人　国立病院機構　東近江総合医療センター", "機関区分": 1, "都道府県コード": 25, "市区町村コード": 213, "所在地": "滋賀県東近江市五智町２５５", "緯度": 35.094961, "経度": 136.229592, "url": "https://www.iryou.teikyouseido.mhlw.go.jp/znk-web/juminkanja/S2430/initialize?prefCd=25&kikanCd=1250000150&kikanKbn=1", "url2": "https://higashiomi.hosp.go.jp/", "内容": "独立行政法人　国立病院機構　東近江総合医療センター【1:病院】【診療科目:内科_血液内科_糖尿病・内分泌内科_脳神経内科_呼吸器内科_循環器内科_消化器内科_神経内科_外科_脳神経外科_呼吸器外科_心臓血管外科_整形外科_形成外科_小児科_産婦人科_眼科_耳鼻いんこう科_皮膚科_泌尿器科_精神科_歯科口腔外科_リハビリテーション科_放射線科_病理診断科_救急科_麻酔科】【一般病床数:304療養病床数:0精神病床数:0感染症病床数:0合計病床数:320】滋賀県東近江市五智町２５５" }, "geometry": { "type": "Point", "coordinates": [ 136.229592, 35.094961 ] } },
{ "type": "Feature", "properties": { "ID": 2511250000160, "正式名称": "東近江敬愛病院", "機関区分": 1, "都道府県コード": 25, "市区町村コード": 213, "所在地": "滋賀県東近江市八日市東本町８－１６", "緯度": 35.108711, "経度": 136.204342, "url": "https://www.iryou.teikyouseido.mhlw.go.jp/znk-web/juminkanja/S2430/initialize?prefCd=25&kikanCd=1250000160&kikanKbn=1", "url2": "https://www.keiaikai.or.jp", "内容": "東近江敬愛病院【1:病院】【診療科目:内科_糖尿病内科_糖尿病・代謝内科_脳神経内科_循環器内科_消化器内科_人工透析内科_神経内科_外科_脳神経外科_心臓血管外科_消化器外科_乳腺外科_肛門外科_整形外科_皮膚科_リハビリテーション科_放射線科_麻酔科】【一般病床数:60療養病床数:94精神病床数:0感染症病床数:0合計病床数:154】滋賀県東近江市八日市東本町８－１６" }, "geometry": { "type": "Point", "coordinates": [ 136.204342, 35.108711 ] } },
{ "type": "Feature", "properties": { "ID": 2511250000180, "正式名称": "医療法人社団昴会　日野記念病院", "機関区分": 1, "都道府県コード": 25, "市区町村コード": 383, "所在地": "滋賀県蒲生郡日野町上野田２００－１", "緯度": 35.017461, "経度": 136.237314, "url": "https://www.iryou.teikyouseido.mhlw.go.jp/znk-web/juminkanja/S2430/initialize?prefCd=25&kikanCd=1250000180&kikanKbn=1", "url2": "http://www.hino-hp.jp", "内容": "医療法人社団昴会　日野記念病院【1:病院】【診療科目:内科_呼吸器内科_循環器内科_消化器内科_外科_脳神経外科_消化器外科_乳腺外科_整形外科_形成外科_美容外科_小児科_婦人科_眼科_耳鼻いんこう科_皮膚科_泌尿器科_歯科_歯科口腔外科_リハビリテーション科_放射線科_病理診断科_救急科_麻酔科】【一般病床数:110療養病床数:40精神病床数:0感染症病床数:0合計病床数:150】滋賀県蒲生郡日野町上野田２００－１" }, "geometry": { "type": "Point", "coordinates": [ 136.237314, 35.017461 ] } },
{ "type": "Feature", "properties": { "ID": 2511250000190, "正式名称": "医療法人社団　昴会　湖東記念病院", "機関区分": 1, "都道府県コード": 25, "市区町村コード": 213, "所在地": "滋賀県東近江市平松町２－１", "緯度": 35.145489, "経度": 136.257064, "url": "https://www.iryou.teikyouseido.mhlw.go.jp/znk-web/juminkanja/S2430/initialize?prefCd=25&kikanCd=1250000190&kikanKbn=1", "url2": "http://www.subarukai.jp", "内容": "医療法人社団　昴会　湖東記念病院【1:病院】【診療科目:内科_脳神経内科_呼吸器内科_循環器内科_外科_脳神経外科_心臓血管外科_整形外科_形成外科_小児科_眼科_耳鼻いんこう科_皮膚科_泌尿器科_リハビリテーション科_放射線科_救急科_麻酔科】【一般病床数:129療養病床数:0精神病床数:0感染症病床数:0合計病床数:129】滋賀県東近江市平松町２－１" }, "geometry": { "type": "Point", "coordinates": [ 136.257064, 35.145489 ] } },
{ "type": "Feature", "properties": { "ID": 2511250000200, "正式名称": "医療法人　恭昭会　彦根中央病院", "機関区分": 1, "都道府県コード": 25, "市区町村コード": 202, "所在地": "滋賀県彦根市西今町４２１", "緯度": 35.248735, "経度": 136.24142, "url": "https://www.iryou.teikyouseido.mhlw.go.jp/znk-web/juminkanja/S2430/initialize?prefCd=25&kikanCd=1250000200&kikanKbn=1", "url2": "http://www.hikone.or.jp/", "内容": "医療法人　恭昭会　彦根中央病院【1:病院】【診療科目:内科_消化器内科_外科_脳神経外科_肛門外科_整形外科_形成外科_小児科_婦人科_眼科_耳鼻いんこう科_泌尿器科_リウマチ科_リハビリテーション科_放射線科_麻酔科】【一般病床数:190療養病床数:152精神病床数:0感染症病床数:0合計病床数:342】滋賀県彦根市西今町４２１" }, "geometry": { "type": "Point", "coordinates": [ 136.24142, 35.248735 ] } },
{ "type": "Feature", "properties": { "ID": 2511250000210, "正式名称": "医療法人友仁会　友仁山崎病院", "機関区分": 1, "都道府県コード": 25, "市区町村コード": 202, "所在地": "滋賀県彦根市竹ヶ鼻町８０", "緯度": 35.241211, "経度": 136.247953, "url": "https://www.iryou.teikyouseido.mhlw.go.jp/znk-web/juminkanja/S2430/initialize?prefCd=25&kikanCd=1250000210&kikanKbn=1", "url2": "http://www.yujin-yamazaki.co.jp", "内容": "医療法人友仁会　友仁山崎病院【1:病院】【診療科目:内科_循環器内科_消化器内科_外科_脳神経外科_消化器外科_整形外科_泌尿器科_リハビリテーション科_放射線科】【一般病床数:100療養病床数:57精神病床数:0感染症病床数:0合計病床数:157】滋賀県彦根市竹ヶ鼻町８０" }, "geometry": { "type": "Point", "coordinates": [ 136.247953, 35.241211 ] } },
{ "type": "Feature", "properties": { "ID": 2511250000220, "正式名称": "公益財団法人　豊郷病院", "機関区分": 1, "都道府県コード": 25, "市区町村コード": 441, "所在地": "滋賀県犬上郡豊郷町八目１２", "緯度": 35.198878, "経度": 136.231008, "url": "https://www.iryou.teikyouseido.mhlw.go.jp/znk-web/juminkanja/S2430/initialize?prefCd=25&kikanCd=1250000220&kikanKbn=1", "url2": "http://www.toyosato.or.jp", "内容": "公益財団法人　豊郷病院【1:病院】【診療科目:内科_脳神経内科_呼吸器内科_循環器内科_消化器内科_外科_脳神経外科_呼吸器外科_消化器外科_整形外科_小児科_婦人科_眼科_耳鼻いんこう科_皮膚科_泌尿器科_精神科_心療内科_歯科_歯科口腔外科_リハビリテーション科_放射線科】【一般病床数:171療養病床数:32精神病床数:110感染症病床数:0合計病床数:313】滋賀県犬上郡豊郷町八目１２" }, "geometry": { "type": "Point", "coordinates": [ 136.231008, 35.198878 ] } },
{ "type": "Feature", "properties": { "ID": 2511250000230, "正式名称": "市立長浜病院", "機関区分": 1, "都道府県コード": 25, "市区町村コード": 203, "所在地": "滋賀県長浜市大戌亥町３１３", "緯度": 35.369017, "経度": 136.287119, "url": "https://www.iryou.teikyouseido.mhlw.go.jp/znk-web/juminkanja/S2430/initialize?prefCd=25&kikanCd=1250000230&kikanKbn=1", "url2": "https://www.nagahama-hp.jp", "内容": "市立長浜病院【1:病院】【診療科目:内科_呼吸器内科_循環器内科_消化器内科_神経内科_外科_脳神経外科_呼吸器外科_心臓血管外科_整形外科_形成外科_小児科_産婦人科_眼科_耳鼻いんこう科_皮膚科_泌尿器科_歯科_歯科口腔外科_リハビリテーション科_放射線科_病理診断科_麻酔科】【一般病床数:437療養病床数:104精神病床数:0感染症病床数:0合計病床数:541】滋賀県長浜市大戌亥町３１３" }, "geometry": { "type": "Point", "coordinates": [ 136.287119, 35.369017 ] } },
{ "type": "Feature", "properties": { "ID": 2511250000240, "正式名称": "長浜市立湖北病院", "機関区分": 1, "都道府県コード": 25, "市区町村コード": 203, "所在地": "滋賀県長浜市木之本町黒田１２２１", "緯度": 35.504183, "経度": 136.212897, "url": "https://www.iryou.teikyouseido.mhlw.go.jp/znk-web/juminkanja/S2430/initialize?prefCd=25&kikanCd=1250000240&kikanKbn=1", "url2": "http://www.ikbk.jp", "内容": "長浜市立湖北病院【1:病院】【診療科目:内科_呼吸器内科_循環器内科_消化器内科_神経内科_外科_整形外科_小児科_婦人科_眼科_耳鼻いんこう科_皮膚科_泌尿器科_精神科_歯科口腔外科_リハビリテーション科_放射線科_麻酔科】【一般病床数:73療養病床数:57精神病床数:0感染症病床数:0合計病床数:130】滋賀県長浜市木之本町黒田１２２１" }, "geometry": { "type": "Point", "coordinates": [ 136.212897, 35.504183 ] } },
{ "type": "Feature", "properties": { "ID": 2511250000250, "正式名称": "高島市民病院", "機関区分": 1, "都道府県コード": 25, "市区町村コード": 212, "所在地": "滋賀県高島市勝野１６６７", "緯度": 35.292822, "経度": 136.011897, "url": "https://www.iryou.teikyouseido.mhlw.go.jp/znk-web/juminkanja/S2430/initialize?prefCd=25&kikanCd=1250000250&kikanKbn=1", "url2": "http://www.city.takashima.lg.jp/tmh/index.html", "内容": "高島市民病院【1:病院】【診療科目:内科_血液内科_糖尿病・内分泌内科_呼吸器内科_循環器内科_消化器内科_腎臓内科_外科_脳神経外科_心臓血管外科_乳腺外科_整形外科_小児科_産婦人科_眼科_耳鼻いんこう科_皮膚科_泌尿器科_精神科_神経科_歯科_歯科口腔外科_放射線科_麻酔科】【一般病床数:206療養病床数:0精神病床数:0感染症病床数:4合計病床数:210】滋賀県高島市勝野１６６７" }, "geometry": { "type": "Point", "coordinates": [ 136.011897, 35.292822 ] } },
{ "type": "Feature", "properties": { "ID": 2511250000260, "正式名称": "医療法人　マキノ病院", "機関区分": 1, "都道府県コード": 25, "市区町村コード": 212, "所在地": "滋賀県高島市マキノ町新保１０９７", "緯度": 35.445683, "経度": 136.033175, "url": "https://www.iryou.teikyouseido.mhlw.go.jp/znk-web/juminkanja/S2430/initialize?prefCd=25&kikanCd=1250000260&kikanKbn=1", "url2": "http://www.makino-hosp.or.jp/", "内容": "医療法人　マキノ病院【1:病院】【診療科目:内科_糖尿病・代謝内科_神経内科_外科_肛門外科_整形外科_小児科_皮膚科_泌尿器科_リウマチ科_リハビリテーション科_放射線科】【一般病床数:60療養病床数:60精神病床数:0感染症病床数:0合計病床数:120】滋賀県高島市マキノ町新保１０９７" }, "geometry": { "type": "Point", "coordinates": [ 136.033175, 35.445683 ] } },
{ "type": "Feature", "properties": { "ID": 2511250000270, "正式名称": "大津赤十字病院", "機関区分": 1, "都道府県コード": 25, "市区町村コード": 201, "所在地": "滋賀県大津市長等１－１－３５", "緯度": 35.007239, "経度": 135.859786, "url": "https://www.iryou.teikyouseido.mhlw.go.jp/znk-web/juminkanja/S2430/initialize?prefCd=25&kikanCd=1250000270&kikanKbn=1", "url2": "https://www.otsu.jrc.or.jp", "内容": "大津赤十字病院【1:病院】【診療科目:内科_血液内科_糖尿病・内分泌内科_脳神経内科_呼吸器内科_循環器内科_消化器内科_腎臓内科_神経内科_緩和ケア内科_外科_脳神経外科_呼吸器外科_心臓血管外科_消化器外科_肝臓外科_膵臓外科_胆のう外科_乳腺外科_頭頸部外科_整形外科_形成外科_小児科_小児外科_新生児内科_産婦人科_眼科_耳鼻いんこう科_皮膚科_泌尿器科_精神科_歯科口腔外科_リウマチ科_リハビリテーション科_放射線科_病理診断科_救急科_麻酔科】【一般病床数:602療養病床数:0精神病床数:0感染症病床数:0合計病床数:602】滋賀県大津市長等１－１－３５" }, "geometry": { "type": "Point", "coordinates": [ 135.859786, 35.007239 ] } },
{ "type": "Feature", "properties": { "ID": 2511250000280, "正式名称": "市立大津市民病院", "機関区分": 1, "都道府県コード": 25, "市区町村コード": 201, "所在地": "滋賀県大津市本宮２－９－９", "緯度": 35.000406, "経度": 135.876453, "url": "https://www.iryou.teikyouseido.mhlw.go.jp/znk-web/juminkanja/S2430/initialize?prefCd=25&kikanCd=1250000280&kikanKbn=1", "url2": "https://www.och.or.jp/", "内容": "市立大津市民病院【1:病院】【診療科目:内科_脳神経内科_呼吸器内科_循環器内科_消化器内科_外科_脳神経外科_呼吸器外科_心臓血管外科_消化器外科_乳腺外科_整形外科_形成外科_小児科_産婦人科_眼科_耳鼻いんこう科_皮膚科_泌尿器科_精神科_心療内科_歯科_矯正歯科_歯科口腔外科_リハビリテーション科_放射線科_病理診断科_救急科_麻酔科】【一般病床数:369療養病床数:0精神病床数:0感染症病床数:8合計病床数:377】滋賀県大津市本宮２－９－９" }, "geometry": { "type": "Point", "coordinates": [ 135.876453, 35.000406 ] } },
{ "type": "Feature", "properties": { "ID": 2511250000290, "正式名称": "社会福祉法人恩賜財団済生会滋賀県病院", "機関区分": 1, "都道府県コード": 25, "市区町村コード": 208, "所在地": "滋賀県栗東市大橋２－４－１", "緯度": 35.034072, "経度": 136.001758, "url": "https://www.iryou.teikyouseido.mhlw.go.jp/znk-web/juminkanja/S2430/initialize?prefCd=25&kikanCd=1250000290&kikanKbn=1", "url2": "https://www.saiseikai-shiga.jp/", "内容": "社会福祉法人恩賜財団済生会滋賀県病院【1:病院】【診療科目:内科_血液内科_糖尿病・内分泌内科_脳神経内科_呼吸器内科_循環器内科_消化器内科_腎臓内科_疼痛緩和内科_外科_脳神経外科_呼吸器外科_心臓血管外科_消化器外科_乳腺外科_整形外科_形成外科_小児科_産婦人科_眼科_耳鼻いんこう科_皮膚科_美容皮膚科_泌尿器科_精神科_心療内科_歯科_リハビリテーション科_放射線科_病理診断科_救急科_麻酔科】【一般病床数:387療養病床数:0精神病床数:0感染症病床数:6合計病床数:393】滋賀県栗東市大橋２－４－１" }, "geometry": { "type": "Point", "coordinates": [ 136.001758, 35.034072 ] } },
{ "type": "Feature", "properties": { "ID": 2511250000300, "正式名称": "近江八幡市立総合医療センター", "機関区分": 1, "都道府県コード": 25, "市区町村コード": 204, "所在地": "滋賀県近江八幡市土田町１３７９番地", "緯度": 35.124072, "経度": 136.087314, "url": "https://www.iryou.teikyouseido.mhlw.go.jp/znk-web/juminkanja/S2430/initialize?prefCd=25&kikanCd=1250000300&kikanKbn=1", "url2": "https://www.kenkou1.com/", "内容": "近江八幡市立総合医療センター【1:病院】【診療科目:内科_血液内科_代謝・内分泌内科_脳神経内科_呼吸器内科_循環器内科_消化器内科_腎臓内科_外科_脳神経外科_心臓血管外科_消化器外科_整形外科_形成外科_小児科_小児外科_産婦人科_眼科_頭頸部・耳鼻いんこう科_皮膚科_泌尿器科_リウマチ科_リハビリテーション科_放射線科_病理診断科_救急科_麻酔科】【一般病床数:403療養病床数:0精神病床数:0感染症病床数:4合計病床数:407】滋賀県近江八幡市土田町１３７９番地" }, "geometry": { "type": "Point", "coordinates": [ 136.087314, 35.124072 ] } },
{ "type": "Feature", "properties": { "ID": 2511250000310, "正式名称": "彦根市立病院", "機関区分": 1, "都道府県コード": 25, "市区町村コード": 202, "所在地": "滋賀県彦根市八坂町１８８２", "緯度": 35.262239, "経度": 136.225147, "url": "https://www.iryou.teikyouseido.mhlw.go.jp/znk-web/juminkanja/S2430/initialize?prefCd=25&kikanCd=1250000310&kikanKbn=1", "url2": "https://www.municipal-hp.hikone.shiga.jp", "内容": "彦根市立病院【1:病院】【診療科目:内科_血液内科_糖尿病・代謝内科_脳神経内科_呼吸器内科_循環器内科_消化器内科_腫瘍内科_緩和ケア内科_外科_脳神経外科_呼吸器外科_消化器外科_乳腺外科_整形外科_形成外科_小児科_産婦人科_眼科_耳鼻いんこう科_皮膚科_泌尿器科_心療内科_歯科口腔外科_リハビリテーション科_放射線科_病理診断科_麻酔科】【一般病床数:405療養病床数:0精神病床数:0感染症病床数:4合計病床数:419】滋賀県彦根市八坂町１８８２" }, "geometry": { "type": "Point", "coordinates": [ 136.225147, 35.262239 ] } },
{ "type": "Feature", "properties": { "ID": 2511250000320, "正式名称": "長浜赤十字病院", "機関区分": 1, "都道府県コード": 25, "市区町村コード": 203, "所在地": "滋賀県長浜市宮前町１４－７", "緯度": 35.383628, "経度": 136.273758, "url": "https://www.iryou.teikyouseido.mhlw.go.jp/znk-web/juminkanja/S2430/initialize?prefCd=25&kikanCd=1250000320&kikanKbn=1", "url2": "https://www.nagahama.jrc.or.jp", "内容": "長浜赤十字病院【1:病院】【診療科目:内科_血液内科_糖尿病・内分泌内科_呼吸器内科_循環器内科_消化器内科_肝臓内科_神経内科_内視鏡内科_外科_脳神経外科_呼吸器外科_血管外科_乳腺外科_肛門外科_内視鏡外科_整形外科_形成外科_小児科_産婦人科_眼科_耳鼻いんこう科_皮膚科_泌尿器科_精神科_歯科口腔外科_リハビリテーション科_放射線科_病理診断科_救急科_麻酔科】【一般病床数:418療養病床数:0精神病床数:70感染症病床数:4合計病床数:492】滋賀県長浜市宮前町１４－７" }, "geometry": { "type": "Point", "coordinates": [ 136.273758, 35.383628 ] } },
{ "type": "Feature", "properties": { "ID": 2511250000330, "正式名称": "大津赤十字志賀病院", "機関区分": 1, "都道府県コード": 25, "市区町村コード": 201, "所在地": "滋賀県大津市和邇中２９８", "緯度": 35.157183, "経度": 135.913619, "url": "https://www.iryou.teikyouseido.mhlw.go.jp/znk-web/juminkanja/S2430/initialize?prefCd=25&kikanCd=1250000330&kikanKbn=1", "url2": "http://www.otsu-shiga.jrc.or.jp/", "内容": "大津赤十字志賀病院【1:病院】【診療科目:内科_循環器内科_消化器内科_外科_整形外科_小児科_産婦人科_泌尿器科_リハビリテーション科】【一般病床数:96療養病床数:47精神病床数:0感染症病床数:0合計病床数:143】滋賀県大津市和邇中２９８" }, "geometry": { "type": "Point", "coordinates": [ 135.913619, 35.157183 ] } },
{ "type": "Feature", "properties": { "ID": 2511250000350, "正式名称": "医療法人　徳洲会　近江草津徳洲会病院", "機関区分": 1, "都道府県コード": 25, "市区町村コード": 206, "所在地": "滋賀県草津市東矢倉３－３４－５２", "緯度": 35.001294, "経度": 135.957175, "url": "https://www.iryou.teikyouseido.mhlw.go.jp/znk-web/juminkanja/S2430/initialize?prefCd=25&kikanCd=1250000350&kikanKbn=1", "url2": "https://www.oumi-kusatsu-hp.jp", "内容": "医療法人　徳洲会　近江草津徳洲会病院【1:病院】【診療科目:内科_呼吸器内科_循環器内科_消化器内科_人工透析内科_神経内科_外科_脳神経外科_心臓血管外科_乳腺外科_整形外科_小児科_産婦人科_眼科_耳鼻いんこう科_皮膚科_泌尿器科_リハビリテーション科_放射線科_麻酔科】【一般病床数:155療養病床数:44精神病床数:0感染症病床数:0合計病床数:199】滋賀県草津市東矢倉３－３４－５２" }, "geometry": { "type": "Point", "coordinates": [ 135.957175, 35.001294 ] } },
{ "type": "Feature", "properties": { "ID": 2511250000360, "正式名称": "社会福祉法人青祥会　セフィロト病院", "機関区分": 1, "都道府県コード": 25, "市区町村コード": 203, "所在地": "滋賀県長浜市寺田町２５７", "緯度": 35.364406, "経度": 136.286675, "url": "https://www.iryou.teikyouseido.mhlw.go.jp/znk-web/juminkanja/S2430/initialize?prefCd=25&kikanCd=1250000360&kikanKbn=1", "url2": "https://www.seishokai.jp/sephiroth/", "内容": "社会福祉法人青祥会　セフィロト病院【1:病院】【診療科目:内科_精神科_老年精神科】【一般病床数:0療養病床数:0精神病床数:176感染症病床数:0合計病床数:176】滋賀県長浜市寺田町２５７" }, "geometry": { "type": "Point", "coordinates": [ 136.286675, 35.364406 ] } },
{ "type": "Feature", "properties": { "ID": 2511250000370, "正式名称": "湖南病院", "機関区分": 1, "都道府県コード": 25, "市区町村コード": 210, "所在地": "滋賀県野洲市八夫２０７７", "緯度": 35.089211, "経度": 136.021647, "url": "https://www.iryou.teikyouseido.mhlw.go.jp/znk-web/juminkanja/S2430/initialize?prefCd=25&kikanCd=1250000370&kikanKbn=1", "url2": "http://www.konan-psy.or.jp/konan/", "内容": "湖南病院【1:病院】【診療科目:精神科_心療内科】【一般病床数:0療養病床数:0精神病床数:116感染症病床数:0合計病床数:116】滋賀県野洲市八夫２０７７" }, "geometry": { "type": "Point", "coordinates": [ 136.021647, 35.089211 ] } },
{ "type": "Feature", "properties": { "ID": 2511250000380, "正式名称": "一般社団法人　水口病院", "機関区分": 1, "都道府県コード": 25, "市区町村コード": 209, "所在地": "滋賀県甲賀市水口町本町２－２－４３", "緯度": 34.971211, "経度": 136.175314, "url": "https://www.iryou.teikyouseido.mhlw.go.jp/znk-web/juminkanja/S2430/initialize?prefCd=25&kikanCd=1250000380&kikanKbn=1", "url2": "http://www.minakuchi-hp.or.jp/", "内容": "一般社団法人　水口病院【1:病院】【診療科目:内科_精神科_心療内科_老年精神科】【一般病床数:0療養病床数:0精神病床数:407感染症病床数:0合計病床数:407】滋賀県甲賀市水口町本町２－２－４３" }, "geometry": { "type": "Point", "coordinates": [ 136.175314, 34.971211 ] } },
{ "type": "Feature", "properties": { "ID": 2511250000390, "正式名称": "公益財団法人青樹会　滋賀八幡病院", "機関区分": 1, "都道府県コード": 25, "市区町村コード": 204, "所在地": "滋賀県近江八幡市鷹飼町７４４", "緯度": 35.124961, "経度": 136.104064, "url": "https://www.iryou.teikyouseido.mhlw.go.jp/znk-web/juminkanja/S2430/initialize?prefCd=25&kikanCd=1250000390&kikanKbn=1", "url2": "http://www.seijyukai.jp/", "内容": "公益財団法人青樹会　滋賀八幡病院【1:病院】【診療科目:内科_循環器内科_消化器内科_精神科_神経科_心療内科】【一般病床数:0療養病床数:0精神病床数:350感染症病床数:0合計病床数:350】滋賀県近江八幡市鷹飼町７４４" }, "geometry": { "type": "Point", "coordinates": [ 136.104064, 35.124961 ] } },
{ "type": "Feature", "properties": { "ID": 2511250000400, "正式名称": "琵琶湖病院", "機関区分": 1, "都道府県コード": 25, "市区町村コード": 201, "所在地": "滋賀県大津市坂本１－８－５", "緯度": 35.0656, "経度": 135.866453, "url": "https://www.iryou.teikyouseido.mhlw.go.jp/znk-web/juminkanja/S2430/initialize?prefCd=25&kikanCd=1250000400&kikanKbn=1", "url2": "https://www.biwako.or.jp", "内容": "琵琶湖病院【1:病院】【診療科目:内科_精神科】【一般病床数:0療養病床数:24精神病床数:247感染症病床数:0合計病床数:271】滋賀県大津市坂本１－８－５" }, "geometry": { "type": "Point", "coordinates": [ 135.866453, 35.0656 ] } },
{ "type": "Feature", "properties": { "ID": 2511250000410, "正式名称": "医療法人　藤樹会　滋賀里病院", "機関区分": 1, "都道府県コード": 25, "市区町村コード": 201, "所在地": "滋賀県大津市滋賀里１－１８－４１", "緯度": 35.041933, "経度": 135.856036, "url": "https://www.iryou.teikyouseido.mhlw.go.jp/znk-web/juminkanja/S2430/initialize?prefCd=25&kikanCd=1250000410&kikanKbn=1", "url2": "http://www.shigasato.or.jp", "内容": "医療法人　藤樹会　滋賀里病院【1:病院】【診療科目:内科_精神科_心療内科】【一般病床数:0療養病床数:0精神病床数:255感染症病床数:0合計病床数:255】滋賀県大津市滋賀里１－１８－４１" }, "geometry": { "type": "Point", "coordinates": [ 135.856036, 35.041933 ] } },
{ "type": "Feature", "properties": { "ID": 2511250000420, "正式名称": "医療法人社団　瀬田川病院", "機関区分": 1, "都道府県コード": 25, "市区町村コード": 201, "所在地": "滋賀県大津市玉野浦４－２１", "緯度": 34.982961, "経度": 135.910119, "url": "https://www.iryou.teikyouseido.mhlw.go.jp/znk-web/juminkanja/S2430/initialize?prefCd=25&kikanCd=1250000420&kikanKbn=1", "url2": "https://www.setagawa.com/", "内容": "医療法人社団　瀬田川病院【1:病院】【診療科目:内科_神経内科_精神科】【一般病床数:0療養病床数:40精神病床数:236感染症病床数:0合計病床数:276】滋賀県大津市玉野浦４－２１" }, "geometry": { "type": "Point", "coordinates": [ 135.910119, 34.982961 ] } },
{ "type": "Feature", "properties": { "ID": 2511250000430, "正式名称": "滋賀県立精神医療センター", "機関区分": 1, "都道府県コード": 25, "市区町村コード": 206, "所在地": "滋賀県草津市笠山８－４－２５", "緯度": 34.974906, "経度": 135.958508, "url": "https://www.iryou.teikyouseido.mhlw.go.jp/znk-web/juminkanja/S2430/initialize?prefCd=25&kikanCd=1250000430&kikanKbn=1", "url2": "https://www.pref.shiga.lg.jp/seishin/", "内容": "滋賀県立精神医療センター【1:病院】【診療科目:内科_神経内科_精神科_心療内科】【一般病床数:0療養病床数:0精神病床数:123感染症病床数:0合計病床数:123】滋賀県草津市笠山８－４－２５" }, "geometry": { "type": "Point", "coordinates": [ 135.958508, 34.974906 ] } },
{ "type": "Feature", "properties": { "ID": 2511250000440, "正式名称": "医療法人良善会　ひかり病院", "機関区分": 1, "都道府県コード": 25, "市区町村コード": 201, "所在地": "滋賀県大津市際川３丁目３５－１", "緯度": 35.04392, "経度": 135.866471, "url": "https://www.iryou.teikyouseido.mhlw.go.jp/znk-web/juminkanja/S2430/initialize?prefCd=25&kikanCd=1250000440&kikanKbn=1", "url2": "http://hikaribyouin.com/", "内容": "医療法人良善会　ひかり病院【1:病院】【診療科目:内科_消化器内科_老年内科_リハビリテーション科】【一般病床数:0療養病床数:170精神病床数:0感染症病床数:0合計病床数:170】滋賀県大津市際川３丁目３５－１" }, "geometry": { "type": "Point", "coordinates": [ 135.866471, 35.04392 ] } },
{ "type": "Feature", "properties": { "ID": 2511250000450, "正式名称": "山田整形外科病院", "機関区分": 1, "都道府県コード": 25, "市区町村コード": 201, "所在地": "滋賀県大津市本堅田５－２２－２７", "緯度": 35.120544, "経度": 135.916703, "url": "https://www.iryou.teikyouseido.mhlw.go.jp/znk-web/juminkanja/S2430/initialize?prefCd=25&kikanCd=1250000450&kikanKbn=1", "url2": "http://www.yamadaseikei.jp", "内容": "山田整形外科病院【1:病院】【診療科目:内科_外科_ペインクリニック外科_整形外科_リウマチ科_リハビリテーション科_麻酔科】【一般病床数:40療養病床数:0精神病床数:0感染症病床数:0合計病床数:40】滋賀県大津市本堅田５－２２－２７" }, "geometry": { "type": "Point", "coordinates": [ 135.916703, 35.120544 ] } },
{ "type": "Feature", "properties": { "ID": 2511250000460, "正式名称": "医療法人　堅田病院", "機関区分": 1, "都道府県コード": 25, "市区町村コード": 201, "所在地": "滋賀県大津市本堅田３－３３－２４", "緯度": 35.11735, "経度": 135.915592, "url": "https://www.iryou.teikyouseido.mhlw.go.jp/znk-web/juminkanja/S2430/initialize?prefCd=25&kikanCd=1250000460&kikanKbn=1", "url2": null, "内容": "医療法人　堅田病院【1:病院】【診療科目:内科_循環器内科_胃腸内科_リハビリテーション科_放射線科】【一般病床数:0療養病床数:45精神病床数:0感染症病床数:0合計病床数:45】滋賀県大津市本堅田３－３３－２４" }, "geometry": { "type": "Point", "coordinates": [ 135.915592, 35.11735 ] } },
{ "type": "Feature", "properties": { "ID": 2511250000470, "正式名称": "打出病院", "機関区分": 1, "都道府県コード": 25, "市区町村コード": 201, "所在地": "滋賀県大津市打出浜１０－４１", "緯度": 35.003378, "経度": 135.878425, "url": "https://www.iryou.teikyouseido.mhlw.go.jp/znk-web/juminkanja/S2430/initialize?prefCd=25&kikanCd=1250000470&kikanKbn=1", "url2": "http://www.uchidebyouin.com", "内容": "打出病院【1:病院】【診療科目:内科_外科_肛門外科_整形外科_泌尿器科_リハビリテーション科】【一般病床数:21療養病床数:24精神病床数:0感染症病床数:0合計病床数:45】滋賀県大津市打出浜１０－４１" }, "geometry": { "type": "Point", "coordinates": [ 135.878425, 35.003378 ] } },
{ "type": "Feature", "properties": { "ID": 2511250000480, "正式名称": "琵琶湖中央リハビリテーション病院", "機関区分": 1, "都道府県コード": 25, "市区町村コード": 201, "所在地": "滋賀県大津市御殿浜２２－３３", "緯度": 34.989378, "経度": 135.896092, "url": "https://www.iryou.teikyouseido.mhlw.go.jp/znk-web/juminkanja/S2430/initialize?prefCd=25&kikanCd=1250000480&kikanKbn=1", "url2": "http://www.biwako-chuo-byoin.jp/", "内容": "琵琶湖中央リハビリテーション病院【1:病院】【診療科目:内科_消化器内科_神経内科_整形外科_リハビリテーション科】【一般病床数:0療養病床数:171精神病床数:0感染症病床数:0合計病床数:171】滋賀県大津市御殿浜２２－３３" }, "geometry": { "type": "Point", "coordinates": [ 135.896092, 34.989378 ] } },
{ "type": "Feature", "properties": { "ID": 2511250000490, "正式名称": "一般財団法人　近江愛隣園　今津病院", "機関区分": 1, "都道府県コード": 25, "市区町村コード": 212, "所在地": "滋賀県高島市今津町南新保８７－１", "緯度": 35.40696, "経度": 136.042485, "url": "https://www.iryou.teikyouseido.mhlw.go.jp/znk-web/juminkanja/S2430/initialize?prefCd=25&kikanCd=1250000490&kikanKbn=1", "url2": "http://imazuhp.jp/", "内容": "一般財団法人　近江愛隣園　今津病院【1:病院】【診療科目:内科_脳神経内科_呼吸器内科_循環器内科_消化器内科_腎臓内科_神経内科_脳神経外科_整形外科_皮膚科_泌尿器科_リウマチ科_リハビリテーション科_放射線科】【一般病床数:40療養病床数:40精神病床数:0感染症病床数:0合計病床数:80】滋賀県高島市今津町南新保８７－１" }, "geometry": { "type": "Point", "coordinates": [ 136.042485, 35.40696 ] } },
{ "type": "Feature", "properties": { "ID": 2511250000500, "正式名称": "医療法人華頂会　琵琶湖養育院病院", "機関区分": 1, "都道府県コード": 25, "市区町村コード": 201, "所在地": "滋賀県大津市大萱７－７－２", "緯度": 34.994239, "経度": 135.915564, "url": "https://www.iryou.teikyouseido.mhlw.go.jp/znk-web/juminkanja/S2430/initialize?prefCd=25&kikanCd=1250000500&kikanKbn=1", "url2": "http://www.kachokai.or.jp", "内容": "医療法人華頂会　琵琶湖養育院病院【1:病院】【診療科目:内科_糖尿病内科_呼吸器内科_循環器内科_消化器内科_腎臓内科_人工透析内科_神経内科_外科_脳神経外科_消化器外科_整形外科_皮膚科_泌尿器科_リハビリテーション科_放射線科】【一般病床数:39療養病床数:111精神病床数:0感染症病床数:0合計病床数:150】滋賀県大津市大萱７－７－２" }, "geometry": { "type": "Point", "coordinates": [ 135.915564, 34.994239 ] } },
{ "type": "Feature", "properties": { "ID": 2511250000520, "正式名称": "社会福祉法人びわこ学園　びわこ学園医療福祉センター野洲", "機関区分": 1, "都道府県コード": 25, "市区町村コード": 210, "所在地": "滋賀県野洲市北桜９７８－２", "緯度": 35.048128, "経度": 136.047342, "url": "https://www.iryou.teikyouseido.mhlw.go.jp/znk-web/juminkanja/S2430/initialize?prefCd=25&kikanCd=1250000520&kikanKbn=1", "url2": "http://www.biwakogakuen.or.jp", "内容": "社会福祉法人びわこ学園　びわこ学園医療福祉センター野洲【1:病院】【診療科目:内科_整形外科_小児科_精神科_リハビリテーション科】【一般病床数:143療養病床数:0精神病床数:0感染症病床数:0合計病床数:143】滋賀県野洲市北桜９７８－２" }, "geometry": { "type": "Point", "coordinates": [ 136.047342, 35.048128 ] } },
{ "type": "Feature", "properties": { "ID": 2511250000540, "正式名称": "医療法人社団阿星会　甲西リハビリ病院", "機関区分": 1, "都道府県コード": 25, "市区町村コード": 211, "所在地": "滋賀県湖南市夏見１１６８", "緯度": 34.99835, "経度": 136.090119, "url": "https://www.iryou.teikyouseido.mhlw.go.jp/znk-web/juminkanja/S2430/initialize?prefCd=25&kikanCd=1250000540&kikanKbn=1", "url2": "https://www.kousei-rh-hp.or.jp", "内容": "医療法人社団阿星会　甲西リハビリ病院【1:病院】【診療科目:内科_ペインクリニック内科_脳神経外科_整形外科_リウマチ科_リハビリテーション科_放射線科_麻酔科】【一般病床数:0療養病床数:100精神病床数:0感染症病床数:0合計病床数:100】滋賀県湖南市夏見１１６８" }, "geometry": { "type": "Point", "coordinates": [ 136.090119, 34.99835 ] } },
{ "type": "Feature", "properties": { "ID": 2511250000550, "正式名称": "公益財団法人　近江兄弟社　ヴォーリズ記念病院", "機関区分": 1, "都道府県コード": 25, "市区町村コード": 204, "所在地": "滋賀県近江八幡市円山町９２７番地１", "緯度": 35.158563, "経度": 136.096871, "url": "https://www.iryou.teikyouseido.mhlw.go.jp/znk-web/juminkanja/S2430/initialize?prefCd=25&kikanCd=1250000550&kikanKbn=1", "url2": "http://www.vories.or.jp", "内容": "公益財団法人　近江兄弟社　ヴォーリズ記念病院【1:病院】【診療科目:内科_糖尿病内科_内分泌内科_糖尿病・内分泌内科_呼吸器内科_循環器内科_消化器内科_神経内科_外科_脳神経外科_呼吸器外科_整形外科_泌尿器科_リハビリテーション科】【一般病床数:66療養病床数:102精神病床数:0感染症病床数:0合計病床数:168】滋賀県近江八幡市円山町９２７番地１" }, "geometry": { "type": "Point", "coordinates": [ 136.096871, 35.158563 ] } },
{ "type": "Feature", "properties": { "ID": 2511250000570, "正式名称": "医療法人　芙蓉会　南草津病院", "機関区分": 1, "都道府県コード": 25, "市区町村コード": 206, "所在地": "滋賀県草津市野路五丁目２番３９号", "緯度": 35.001878, "経度": 135.951369, "url": "https://www.iryou.teikyouseido.mhlw.go.jp/znk-web/juminkanja/S2430/initialize?prefCd=25&kikanCd=1250000570&kikanKbn=1", "url2": "http://www.373932hp.jp/", "内容": "医療法人　芙蓉会　南草津病院【1:病院】【診療科目:内科_血液内科_糖尿病内科_循環器内科_消化器内科_神経内科_脳神経外科_整形外科_泌尿器科_リハビリテーション科】【一般病床数:42療養病床数:95精神病床数:0感染症病床数:0合計病床数:137】滋賀県草津市野路五丁目２番３９号" }, "geometry": { "type": "Point", "coordinates": [ 135.951369, 35.001878 ] } },
{ "type": "Feature", "properties": { "ID": 2511250000580, "正式名称": "南草津野村病院", "機関区分": 1, "都道府県コード": 25, "市区町村コード": 206, "所在地": "滋賀県草津市野路１－６－５", "緯度": 35.004989, "経度": 135.949092, "url": "https://www.iryou.teikyouseido.mhlw.go.jp/znk-web/juminkanja/S2430/initialize?prefCd=25&kikanCd=1250000580&kikanKbn=1", "url2": "http://nmb.nomura-magokoro-med.or.jp", "内容": "南草津野村病院【1:病院】【診療科目:女性内科_小児科_産婦人科_乳腺外来_麻酔科】【一般病床数:25療養病床数:0精神病床数:0感染症病床数:0合計病床数:25】滋賀県草津市野路１－６－５" }, "geometry": { "type": "Point", "coordinates": [ 135.949092, 35.004989 ] } },
{ "type": "Feature", "properties": { "ID": 2511250000590, "正式名称": "びわこ学園医療福祉センター草津", "機関区分": 1, "都道府県コード": 25, "市区町村コード": 206, "所在地": "滋賀県草津市笠山８－３－１１３", "緯度": 34.976739, "経度": 135.959314, "url": "https://www.iryou.teikyouseido.mhlw.go.jp/znk-web/juminkanja/S2430/initialize?prefCd=25&kikanCd=1250000590&kikanKbn=1", "url2": "https://www.biwakogakuen.or.jp/kusatsucenter/", "内容": "びわこ学園医療福祉センター草津【1:病院】【診療科目:内科_整形外科_小児科_眼科_耳鼻いんこう科_皮膚科_精神科_神経科_歯科_リハビリテーション科】【一般病床数:126療養病床数:0精神病床数:0感染症病床数:0合計病床数:126】滋賀県草津市笠山８－３－１１３" }, "geometry": { "type": "Point", "coordinates": [ 135.959314, 34.976739 ] } },
{ "type": "Feature", "properties": { "ID": 2511250000600, "正式名称": "医療法人社団幸信会　青葉病院", "機関区分": 1, "都道府県コード": 25, "市区町村コード": 213, "所在地": "滋賀県東近江市青葉町１－３６", "緯度": 35.105794, "経度": 136.197981, "url": "https://www.iryou.teikyouseido.mhlw.go.jp/znk-web/juminkanja/S2430/initialize?prefCd=25&kikanCd=1250000600&kikanKbn=1", "url2": "https://aoba-med.com", "内容": "医療法人社団幸信会　青葉病院【1:病院】【診療科目:内科_リハビリテーション科】【一般病床数:0療養病床数:98精神病床数:0感染症病床数:0合計病床数:98】滋賀県東近江市青葉町１－３６" }, "geometry": { "type": "Point", "coordinates": [ 136.197981, 35.105794 ] } },
{ "type": "Feature", "properties": { "ID": 2511250000610, "正式名称": "医療法人恒仁会　近江温泉病院", "機関区分": 1, "都道府県コード": 25, "市区町村コード": 213, "所在地": "滋賀県東近江市北坂町９６６", "緯度": 35.131878, "経度": 136.275203, "url": "https://www.iryou.teikyouseido.mhlw.go.jp/znk-web/juminkanja/S2430/initialize?prefCd=25&kikanCd=1250000610&kikanKbn=1", "url2": "https://www.oumi-hp.or.jp", "内容": "医療法人恒仁会　近江温泉病院【1:病院】【診療科目:内科_皮膚科_精神科_歯科_リハビリテーション科】【一般病床数:0療養病床数:169精神病床数:56感染症病床数:0合計病床数:225】滋賀県東近江市北坂町９６６" }, "geometry": { "type": "Point", "coordinates": [ 136.275203, 35.131878 ] } },
{ "type": "Feature", "properties": { "ID": 2511250000620, "正式名称": "医療法人医誠会　神崎中央病院", "機関区分": 1, "都道府県コード": 25, "市区町村コード": 213, "所在地": "滋賀県東近江市五個荘清水鼻町９５", "緯度": 35.138933, "経度": 136.174231, "url": "https://www.iryou.teikyouseido.mhlw.go.jp/znk-web/juminkanja/S2430/initialize?prefCd=25&kikanCd=1250000620&kikanKbn=1", "url2": "http://www.kanzakihp.com/", "内容": "医療法人医誠会　神崎中央病院【1:病院】【診療科目:内科_人工透析内科_外科_整形外科_泌尿器科_リハビリテーション科】【一般病床数:162療養病床数:238精神病床数:0感染症病床数:0合計病床数:400】滋賀県東近江市五個荘清水鼻町９５" }, "geometry": { "type": "Point", "coordinates": [ 136.174231, 35.138933 ] } },
{ "type": "Feature", "properties": { "ID": 2511250000630, "正式名称": "独立行政法人国立病院機構紫香楽病院", "機関区分": 1, "都道府県コード": 25, "市区町村コード": 209, "所在地": "滋賀県甲賀市信楽町牧９９７番地", "緯度": 34.915532, "経度": 136.084309, "url": "https://www.iryou.teikyouseido.mhlw.go.jp/znk-web/juminkanja/S2430/initialize?prefCd=25&kikanCd=1250000630&kikanKbn=1", "url2": "http://shigaraki.hosp.go.jp/", "内容": "独立行政法人国立病院機構紫香楽病院【1:病院】【診療科目:内科_呼吸器内科_循環器内科_神経内科_外科_整形外科_小児科_歯科_リウマチ科_リハビリテーション科】【一般病床数:180療養病床数:0精神病床数:0感染症病床数:0合計病床数:180】滋賀県甲賀市信楽町牧９９７番地" }, "geometry": { "type": "Point", "coordinates": [ 136.084309, 34.915532 ] } },
{ "type": "Feature", "properties": { "ID": 2511250000740, "正式名称": "市立野洲病院", "機関区分": 1, "都道府県コード": 25, "市区町村コード": 210, "所在地": "滋賀県野洲市小篠原１０９４", "緯度": 35.065044, "経度": 136.025529, "url": "https://www.iryou.teikyouseido.mhlw.go.jp/znk-web/juminkanja/S2430/initialize?prefCd=25&kikanCd=1250000740&kikanKbn=1", "url2": "https://www.yasu-hp.jp/", "内容": "市立野洲病院【1:病院】【診療科目:内科_糖尿病・内分泌内科_脳神経内科_呼吸器内科_循環器内科_消化器内科_外科_脳神経外科_整形外科_小児科_産婦人科_眼科_皮膚科_泌尿器科_リハビリテーション科_放射線科_麻酔科】【一般病床数:199療養病床数:0精神病床数:0感染症病床数:0合計病床数:199】滋賀県野洲市小篠原１０９４" }, "geometry": { "type": "Point", "coordinates": [ 136.025529, 35.065044 ] } },
{ "type": "Feature", "properties": { "ID": 2511250000750, "正式名称": "社会医療法人誠光会　淡海ふれあい病院", "機関区分": 1, "都道府県コード": 25, "市区町村コード": 206, "所在地": "滋賀県草津市矢橋町１６２９－５", "緯度": 35.011077, "経度": 135.928253, "url": "https://www.iryou.teikyouseido.mhlw.go.jp/znk-web/juminkanja/S2430/initialize?prefCd=25&kikanCd=1250000750&kikanKbn=1", "url2": "https://www.seikoukai-sc.or.jp/omifureai", "内容": "社会医療法人誠光会　淡海ふれあい病院【1:病院】【診療科目:内科_腎臓内科_外科_脳神経外科_耳鼻いんこう科_歯科】【一般病床数:100療養病床数:99精神病床数:0感染症病床数:0合計病床数:199】滋賀県草津市矢橋町１６２９－５" }, "geometry": { "type": "Point", "coordinates": [ 135.928253, 35.011077 ] } }
]
}
