{
"type": "FeatureCollection",
"name": "geo_25_認知症対応型共同生活介護",
"crs": { "type": "name", "properties": { "name": "urn:ogc:def:crs:OGC:1.3:CRS84" } },
"features": [
{ "type": "Feature", "properties": { "内容": "高齢者グループホーム比良の里【認知症対応型共同生活介護】滋賀県大津市北比良２９３番３", "url": "https://www.kaigokensaku.mhlw.go.jp/25/index.php?action_kouhyou_detail_004_kani=true&JigyosyoCd=2590100158-00&ServiceCd=320&Type=search", "url2": null }, "geometry": { "type": "Point", "coordinates": [ 135.945392, 35.2202876 ] } },
{ "type": "Feature", "properties": { "内容": "高齢者グループホームゆとり【認知症対応型共同生活介護】滋賀県大津市南志賀3-19-12", "url": "https://www.kaigokensaku.mhlw.go.jp/25/index.php?action_kouhyou_detail_004_kani=true&JigyosyoCd=2590100786-00&ServiceCd=320&Type=search", "url2": "https://www.koseikai.care/base09.html" }, "geometry": { "type": "Point", "coordinates": [ 135.860055949073796, 35.037738662036404 ] } },
{ "type": "Feature", "properties": { "内容": "グループホーム３ReS　比叡山坂本【認知症対応型共同生活介護】滋賀県大津市坂本４丁目１４－３０", "url": "https://www.kaigokensaku.mhlw.go.jp/25/index.php?action_kouhyou_detail_004_kani=true&JigyosyoCd=2590101115-00&ServiceCd=320&Type=search", "url2": "https://newones3res.com/" }, "geometry": { "type": "Point", "coordinates": [ 135.86987497301638, 35.068621049863872 ] } },
{ "type": "Feature", "properties": { "内容": "洛和グループホーム大津【認知症対応型共同生活介護】滋賀県大津市大門通11-11", "url": "https://www.kaigokensaku.mhlw.go.jp/25/index.php?action_kouhyou_detail_004_kani=true&JigyosyoCd=2570100632-00&ServiceCd=320&Type=search", "url2": "http://www.rakuwa.or.jp/" }, "geometry": { "type": "Point", "coordinates": [ 135.855579700000021, 35.0140017 ] } },
{ "type": "Feature", "properties": { "内容": "洛和グループホーム石山寺【認知症対応型共同生活介護】滋賀県大津市平津1丁目17-32", "url": "https://www.kaigokensaku.mhlw.go.jp/25/index.php?action_kouhyou_detail_004_kani=true&JigyosyoCd=2570100731-00&ServiceCd=320&Type=search", "url2": "http://www.rakuwa.or.jp/" }, "geometry": { "type": "Point", "coordinates": [ 135.909149411569956, 34.948629394062394 ] } },
{ "type": "Feature", "properties": { "内容": "洛和グループホーム坂本【認知症対応型共同生活介護】滋賀県大津市下阪本6-13-11", "url": "https://www.kaigokensaku.mhlw.go.jp/25/index.php?action_kouhyou_detail_004_kani=true&JigyosyoCd=2570100863-00&ServiceCd=320&Type=search", "url2": "http://www.rakuwa.or.jp/" }, "geometry": { "type": "Point", "coordinates": [ 135.88525176535947, 35.068434180317574 ] } },
{ "type": "Feature", "properties": { "内容": "洛和グループホーム瀬田【認知症対応型共同生活介護】滋賀県大津市大江3-6-5", "url": "https://www.kaigokensaku.mhlw.go.jp/25/index.php?action_kouhyou_detail_004_kani=true&JigyosyoCd=2590100372-00&ServiceCd=320&Type=search", "url2": "http://www.rakuwa.or.jp/" }, "geometry": { "type": "Point", "coordinates": [ 135.919049346032722, 34.980138137285003 ] } },
{ "type": "Feature", "properties": { "内容": "高齢者グループホーム南志賀の里【認知症対応型共同生活介護】滋賀県大津市南志賀３丁目１番１８", "url": "https://www.kaigokensaku.mhlw.go.jp/25/index.php?action_kouhyou_detail_004_kani=true&JigyosyoCd=2570100509-00&ServiceCd=320&Type=search", "url2": null }, "geometry": { "type": "Point", "coordinates": [ 135.861392099999989, 35.0356905 ] } },
{ "type": "Feature", "properties": { "内容": "グループホームあいおい【認知症対応型共同生活介護】大津市音羽台２－１５", "url": "https://www.kaigokensaku.mhlw.go.jp/25/index.php?action_kouhyou_detail_004_kani=true&JigyosyoCd=2590100034-00&ServiceCd=320&Type=search", "url2": null }, "geometry": { "type": "Point", "coordinates": [ 135.8615294, 35.0012782 ] } },
{ "type": "Feature", "properties": { "内容": "医療法人湖青会　高齢者グループホーム志賀の里【認知症対応型共同生活介護】滋賀県大津市和邇高城２７０番２", "url": "https://www.kaigokensaku.mhlw.go.jp/25/index.php?action_kouhyou_detail_004_kani=true&JigyosyoCd=2570101739-00&ServiceCd=320&Type=search", "url2": "www.koseikai.care" }, "geometry": { "type": "Point", "coordinates": [ 135.920317399999931, 35.1630987 ] } },
{ "type": "Feature", "properties": { "内容": "社会福祉法人　華頂会　グループホーム　せいか【認知症対応型共同生活介護】滋賀県大津市大萱6丁目9番9号", "url": "https://www.kaigokensaku.mhlw.go.jp/25/index.php?action_kouhyou_detail_004_kani=true&JigyosyoCd=2590100166-00&ServiceCd=320&Type=search", "url2": "group-home/seika@gaea.con.ne.jp" }, "geometry": { "type": "Point", "coordinates": [ 135.919137200000023, 34.9920691 ] } },
{ "type": "Feature", "properties": { "内容": "南郷グループホームほたる【認知症対応型共同生活介護】大津市南郷一丁目7-21", "url": "https://www.kaigokensaku.mhlw.go.jp/25/index.php?action_kouhyou_detail_004_kani=true&JigyosyoCd=2570100459-00&ServiceCd=320&Type=search", "url2": null }, "geometry": { "type": "Point", "coordinates": [ 135.907455300000038, 34.9444737 ] } },
{ "type": "Feature", "properties": { "内容": "シルバーの森　夕照苑【認知症対応型共同生活介護】富士見台44-14", "url": "https://www.kaigokensaku.mhlw.go.jp/25/index.php?action_kouhyou_detail_004_kani=true&JigyosyoCd=2570100681-00&ServiceCd=320&Type=search", "url2": "http://wakabadai-sekisyoen.jimdo.com/" }, "geometry": { "type": "Point", "coordinates": [ 135.882916369975277, 34.977859073429279 ] } },
{ "type": "Feature", "properties": { "内容": "グループホームマザーレイク【認知症対応型共同生活介護】滋賀県大津市黒津1-6-18", "url": "https://www.kaigokensaku.mhlw.go.jp/25/index.php?action_kouhyou_detail_004_kani=true&JigyosyoCd=2570100715-00&ServiceCd=320&Type=search", "url2": "http://grouphome.jp/" }, "geometry": { "type": "Point", "coordinates": [ 135.913737200000014, 34.9426139 ] } },
{ "type": "Feature", "properties": { "内容": "大津ケアセンターそよ風【認知症対応型共同生活介護】大津市瀬田三丁目１８－２０", "url": "https://www.kaigokensaku.mhlw.go.jp/25/index.php?action_kouhyou_detail_004_kani=true&JigyosyoCd=2570101044-00&ServiceCd=320&Type=search", "url2": "https://www.sykz.co.jp/" }, "geometry": { "type": "Point", "coordinates": [ 135.907424799999944, 34.9665162 ] } },
{ "type": "Feature", "properties": { "内容": "琵琶湖大橋グループホーム【認知症対応型共同生活介護】滋賀県大津市本堅田４丁目4-18", "url": "https://www.kaigokensaku.mhlw.go.jp/25/index.php?action_kouhyou_detail_004_kani=true&JigyosyoCd=2590100877-00&ServiceCd=320&Type=search", "url2": "https://www.sanga-kaigo.co.jp" }, "geometry": { "type": "Point", "coordinates": [ 135.9194962, 35.1167927 ] } },
{ "type": "Feature", "properties": { "内容": "医療法人弘英会　グループホーム緑の癒【認知症対応型共同生活介護】滋賀県大津市緑町6番27号", "url": "https://www.kaigokensaku.mhlw.go.jp/25/index.php?action_kouhyou_detail_004_kani=true&JigyosyoCd=2590100950-00&ServiceCd=320&Type=search", "url2": "http://www.boh.or.jp" }, "geometry": { "type": "Point", "coordinates": [ 135.9094915, 35.1420109 ] } },
{ "type": "Feature", "properties": { "内容": "グループホーム出愛荘【認知症対応型共同生活介護】大津市際川４－１３－６", "url": "https://www.kaigokensaku.mhlw.go.jp/25/index.php?action_kouhyou_detail_004_kani=true&JigyosyoCd=2570101119-00&ServiceCd=320&Type=search", "url2": "http://www.deaisou.com" }, "geometry": { "type": "Point", "coordinates": [ 135.86966080000002, 35.0460676 ] } },
{ "type": "Feature", "properties": { "内容": "医療法人　誠仁会　ぐるーぷほーむ木一【認知症対応型共同生活介護】大津市里５丁目２－６０", "url": "https://www.kaigokensaku.mhlw.go.jp/25/index.php?action_kouhyou_detail_004_kani=true&JigyosyoCd=2570101374-00&ServiceCd=320&Type=search", "url2": "http://yoshitoku.or.jp" }, "geometry": { "type": "Point", "coordinates": [ 135.928772400000071, 34.9369054 ] } },
{ "type": "Feature", "properties": { "内容": "医療法人弘英会グループホームさくらテラス【認知症対応型共同生活介護】滋賀県大津市本堅田6丁目39番18号", "url": "https://www.kaigokensaku.mhlw.go.jp/25/index.php?action_kouhyou_detail_004_kani=true&JigyosyoCd=2590100471-00&ServiceCd=320&Type=search", "url2": "http://www.boh.or.jp" }, "geometry": { "type": "Point", "coordinates": [ 135.91130239832296, 35.121465966371943 ] } },
{ "type": "Feature", "properties": { "内容": "グループホームクリーム【認知症対応型共同生活介護】大石淀３丁目２－２", "url": "https://www.kaigokensaku.mhlw.go.jp/25/index.php?action_kouhyou_detail_004_kani=true&JigyosyoCd=2510101575-00&ServiceCd=320&Type=search", "url2": "http://www.ryokuseikai.jp" }, "geometry": { "type": "Point", "coordinates": [ 135.907286399999947, 34.9076354 ] } },
{ "type": "Feature", "properties": { "内容": "悠悠【認知症対応型共同生活介護】大津市一里山五丁目20番37号", "url": "https://www.kaigokensaku.mhlw.go.jp/25/index.php?action_kouhyou_detail_004_kani=true&JigyosyoCd=2570100582-00&ServiceCd=320&Type=search", "url2": null }, "geometry": { "type": "Point", "coordinates": [ 135.936707800000022, 34.9790546 ] } },
{ "type": "Feature", "properties": { "内容": "グループホーム三亀【認知症対応型共同生活介護】滋賀県大津市別保３丁目１－２４", "url": "https://www.kaigokensaku.mhlw.go.jp/25/index.php?action_kouhyou_detail_004_kani=true&JigyosyoCd=2570101002-00&ServiceCd=320&Type=search", "url2": "http://www.miki-corporation.jp" }, "geometry": { "type": "Point", "coordinates": [ 135.889118599999961, 34.9879965 ] } },
{ "type": "Feature", "properties": { "内容": "グループホーム雅荘【認知症対応型共同生活介護】大津市坂本６丁目３２－４９", "url": "https://www.kaigokensaku.mhlw.go.jp/25/index.php?action_kouhyou_detail_004_kani=true&JigyosyoCd=2570101606-00&ServiceCd=320&Type=search", "url2": "https://www.wel-fare.co.jp/pages/19/" }, "geometry": { "type": "Point", "coordinates": [ 135.874743137434393, 35.076082719631835 ] } },
{ "type": "Feature", "properties": { "内容": "グループホームみちくさ【認知症対応型共同生活介護】大津市稲津１丁目３－９", "url": "https://www.kaigokensaku.mhlw.go.jp/25/index.php?action_kouhyou_detail_004_kani=true&JigyosyoCd=2590100059-00&ServiceCd=320&Type=search", "url2": "http://www.wel-fare.co.jp/" }, "geometry": { "type": "Point", "coordinates": [ 135.913135199999942, 34.9504706 ] } },
{ "type": "Feature", "properties": { "内容": "グループホーム富士見【認知症対応型共同生活介護】大津市富士見台１５－３６", "url": "https://www.kaigokensaku.mhlw.go.jp/25/index.php?action_kouhyou_detail_004_kani=true&JigyosyoCd=2590100075-00&ServiceCd=320&Type=search", "url2": "http://www.miki-corporation.jp/" }, "geometry": { "type": "Point", "coordinates": [ 135.885532799999964, 34.9869604 ] } },
{ "type": "Feature", "properties": { "内容": "グループホームクリーム膳所【認知症対応型共同生活介護】西の庄１２－２１", "url": "https://www.kaigokensaku.mhlw.go.jp/25/index.php?action_kouhyou_detail_004_kani=true&JigyosyoCd=2590100109-00&ServiceCd=320&Type=search", "url2": "http://www.ryokuseikai.jp/" }, "geometry": { "type": "Point", "coordinates": [ 135.8875021, 35.0016143 ] } },
{ "type": "Feature", "properties": { "内容": "グループホームクリーム鹿跳【認知症対応型共同生活介護】大津市大石東六丁目1-11", "url": "https://www.kaigokensaku.mhlw.go.jp/25/index.php?action_kouhyou_detail_004_kani=true&JigyosyoCd=2590100265-00&ServiceCd=320&Type=search", "url2": "http://www.ryokuseikai.jp" }, "geometry": { "type": "Point", "coordinates": [ 135.914457800000037, 34.9132934 ] } },
{ "type": "Feature", "properties": { "内容": "かたた駅前グループホーム【認知症対応型共同生活介護】滋賀県大津市本堅田6丁目31－29", "url": "https://www.kaigokensaku.mhlw.go.jp/25/index.php?action_kouhyou_detail_004_kani=true&JigyosyoCd=2590100869-00&ServiceCd=320&Type=search", "url2": null }, "geometry": { "type": "Point", "coordinates": [ 135.9128772, 35.1191318 ] } },
{ "type": "Feature", "properties": { "内容": "社会福祉法人　華頂会　グループホームのぞみ【認知症対応型共同生活介護】滋賀県大津市大将軍3丁目25-12", "url": "https://www.kaigokensaku.mhlw.go.jp/25/index.php?action_kouhyou_detail_004_kani=true&JigyosyoCd=2590101057-00&ServiceCd=320&Type=search", "url2": null }, "geometry": { "type": "Point", "coordinates": [ 135.929377, 34.9910997 ] } },
{ "type": "Feature", "properties": { "内容": "桐生園グループホーム【認知症対応型共同生活介護】滋賀県大津市桐生一丁目26番7号", "url": "https://www.kaigokensaku.mhlw.go.jp/25/index.php?action_kouhyou_detail_004_kani=true&JigyosyoCd=2570101127-00&ServiceCd=320&Type=search", "url2": "http//www.kiryuen.ｊｐ/" }, "geometry": { "type": "Point", "coordinates": [ 135.991462, 34.9709673 ] } },
{ "type": "Feature", "properties": { "内容": "グランメゾン輪舞館大津真野【認知症対応型共同生活介護】真野2丁目24-29", "url": "https://www.kaigokensaku.mhlw.go.jp/25/index.php?action_kouhyou_detail_004_kani=true&JigyosyoCd=2590100638-00&ServiceCd=320&Type=search", "url2": "https://grand-maison.jp/homelist/otsu_mano/" }, "geometry": { "type": "Point", "coordinates": [ 135.9184249, 35.1280336 ] } },
{ "type": "Feature", "properties": { "内容": "愛の家グループホーム大津月輪【認知症対応型共同生活介護】滋賀県大津市月輪3丁目43-1", "url": "https://www.kaigokensaku.mhlw.go.jp/25/index.php?action_kouhyou_detail_004_kani=true&JigyosyoCd=2590100968-00&ServiceCd=320&Type=search", "url2": "htpps://www.mcsg.co.jp" }, "geometry": { "type": "Point", "coordinates": [ 135.9408968, 34.9824893 ] } },
{ "type": "Feature", "properties": { "内容": "グループホーム愛和【認知症対応型共同生活介護】滋賀県大津市蓮池町13－10", "url": "https://www.kaigokensaku.mhlw.go.jp/25/index.php?action_kouhyou_detail_004_kani=true&JigyosyoCd=2570101218-00&ServiceCd=320&Type=search", "url2": "http://www.ai-wa.jp/home/index.html" }, "geometry": { "type": "Point", "coordinates": [ 135.863946194477421, 35.04678092568296 ] } },
{ "type": "Feature", "properties": { "内容": "グループホームレイクヒル琴【認知症対応型共同生活介護】大津市雄琴一丁目13-25", "url": "https://www.kaigokensaku.mhlw.go.jp/25/index.php?action_kouhyou_detail_004_kani=true&JigyosyoCd=2590100604-00&ServiceCd=320&Type=search", "url2": "https://heart-lc.com/" }, "geometry": { "type": "Point", "coordinates": [ 135.894782, 35.0909538 ] } },
{ "type": "Feature", "properties": { "内容": "グループホームやすらぎの郷【認知症対応型共同生活介護】滋賀県大津市下阪本4-6-37", "url": "https://www.kaigokensaku.mhlw.go.jp/25/index.php?action_kouhyou_detail_004_kani=true&JigyosyoCd=2570100913-00&ServiceCd=320&Type=search", "url2": null }, "geometry": { "type": "Point", "coordinates": [ 135.878359400000022, 35.0644819 ] } },
{ "type": "Feature", "properties": { "内容": "グループホーム匠【認知症対応型共同生活介護】滋賀県大津市伊香立北在地町651-4", "url": "https://www.kaigokensaku.mhlw.go.jp/25/index.php?action_kouhyou_detail_004_kani=true&JigyosyoCd=2590100398-00&ServiceCd=320&Type=search", "url2": "https://rokusho.net" }, "geometry": { "type": "Point", "coordinates": [ 135.869625364556867, 35.145485994732176 ] } },
{ "type": "Feature", "properties": { "内容": "ニチイケアセンター大津仰木の里【認知症対応型共同生活介護】大津市仰木の里３丁目５－２０", "url": "https://www.kaigokensaku.mhlw.go.jp/25/index.php?action_kouhyou_detail_004_kani=true&JigyosyoCd=2590100190-00&ServiceCd=320&Type=search", "url2": "http://www.nichiigakkan.co.jp" }, "geometry": { "type": "Point", "coordinates": [ 135.886543699999947, 35.1049547 ] } },
{ "type": "Feature", "properties": { "内容": "グループホーム美咲の家【認知症対応型共同生活介護】滋賀県大津市別保３丁目10番40号", "url": "https://www.kaigokensaku.mhlw.go.jp/25/index.php?action_kouhyou_detail_004_kani=true&JigyosyoCd=2590100539-00&ServiceCd=320&Type=search", "url2": "http://akatsuki-shiga.com/misaki/" }, "geometry": { "type": "Point", "coordinates": [ 135.889854181398277, 34.984790255221952 ] } },
{ "type": "Feature", "properties": { "内容": "高齢者グループホームあかり【認知症対応型共同生活介護】大津市南志賀三丁目８番５号", "url": "https://www.kaigokensaku.mhlw.go.jp/25/index.php?action_kouhyou_detail_004_kani=true&JigyosyoCd=2590101123-00&ServiceCd=320&Type=search", "url2": "https://www.koseikai.care/" }, "geometry": { "type": "Point", "coordinates": [ 135.8574964, 35.0354076 ] } },
{ "type": "Feature", "properties": { "内容": "グループホームさくらんぼ【認知症対応型共同生活介護】大将軍１丁目４－１９", "url": "https://www.kaigokensaku.mhlw.go.jp/25/index.php?action_kouhyou_detail_004_kani=true&JigyosyoCd=2590100216-00&ServiceCd=320&Type=search", "url2": null }, "geometry": { "type": "Point", "coordinates": [ 135.92095089999998, 34.9924191 ] } },
{ "type": "Feature", "properties": { "内容": "洛和グループホーム大津若葉台【認知症対応型共同生活介護】滋賀県大津市若葉台30-25", "url": "https://www.kaigokensaku.mhlw.go.jp/25/index.php?action_kouhyou_detail_004_kani=true&JigyosyoCd=2590100174-00&ServiceCd=320&Type=search", "url2": "http//www.rakuwa.or.jp" }, "geometry": { "type": "Point", "coordinates": [ 135.8800192, 34.9759033 ] } },
{ "type": "Feature", "properties": { "内容": "グループホームさくら【認知症対応型共同生活介護】滋賀県大津市大石東四丁目５番６号", "url": "https://www.kaigokensaku.mhlw.go.jp/25/index.php?action_kouhyou_detail_004_kani=true&JigyosyoCd=2530102074-00&ServiceCd=320&Type=search", "url2": "http://hakuokai.jp/" }, "geometry": { "type": "Point", "coordinates": [ 135.922443, 34.9149324 ] } },
{ "type": "Feature", "properties": { "内容": "認知症高齢者グループホーム　楽日荘【認知症対応型共同生活介護】滋賀県大津市長等2丁目1-19", "url": "https://www.kaigokensaku.mhlw.go.jp/25/index.php?action_kouhyou_detail_004_kani=true&JigyosyoCd=2570101473-00&ServiceCd=320&Type=search", "url2": "info@rakujitusou.com" }, "geometry": { "type": "Point", "coordinates": [ 135.8618126, 35.0087885 ] } },
{ "type": "Feature", "properties": { "内容": "高齢者グループホームつむぎ【認知症対応型共同生活介護】滋賀県大津市南志賀三丁目14-23", "url": "https://www.kaigokensaku.mhlw.go.jp/25/index.php?action_kouhyou_detail_004_kani=true&JigyosyoCd=2590100406-00&ServiceCd=320&Type=search", "url2": "http://www.koseikai.care/base06.html" }, "geometry": { "type": "Point", "coordinates": [ 135.860058491401674, 35.036113629332775 ] } },
{ "type": "Feature", "properties": { "内容": "栄町グループホーム【認知症対応型共同生活介護】彦根市栄町２丁目１－２２", "url": "https://www.kaigokensaku.mhlw.go.jp/25/index.php?action_kouhyou_detail_004_kani=true&JigyosyoCd=2570200366-00&ServiceCd=320&Type=search", "url2": null }, "geometry": { "type": "Point", "coordinates": [ 136.243524100000059, 35.2745991 ] } },
{ "type": "Feature", "properties": { "内容": "グループホーム和楽【認知症対応型共同生活介護】滋賀県彦根市野田山町１０９９－１", "url": "https://www.kaigokensaku.mhlw.go.jp/25/index.php?action_kouhyou_detail_004_kani=true&JigyosyoCd=2570200374-00&ServiceCd=320&Type=search", "url2": null }, "geometry": { "type": "Point", "coordinates": [ 136.2736724, 35.247712 ] } },
{ "type": "Feature", "properties": { "内容": "認知症グループホーム　いちじくの木【認知症対応型共同生活介護】滋賀県彦根市極楽寺町596番地", "url": "https://www.kaigokensaku.mhlw.go.jp/25/index.php?action_kouhyou_detail_004_kani=true&JigyosyoCd=2590200057-00&ServiceCd=320&Type=search", "url2": "http://www.kisoukai.com" }, "geometry": { "type": "Point", "coordinates": [ 136.234834299999989, 35.2310882 ] } },
{ "type": "Feature", "properties": { "内容": "グループホーム　えくぼ【認知症対応型共同生活介護】滋賀県彦根市金剛寺町58-1グループホームえくぼ", "url": "https://www.kaigokensaku.mhlw.go.jp/25/index.php?action_kouhyou_detail_004_kani=true&JigyosyoCd=2590200248-00&ServiceCd=320&Type=search", "url2": "http://magokoro-home.co.jp/ekubo/" }, "geometry": { "type": "Point", "coordinates": [ 136.241285447907103, 35.232170474416776 ] } },
{ "type": "Feature", "properties": { "内容": "彦根市グループホームゆうゆう【認知症対応型共同生活介護】彦根市川瀬馬場町1015-1", "url": "https://www.kaigokensaku.mhlw.go.jp/25/index.php?action_kouhyou_detail_004_kani=true&JigyosyoCd=2570200325-00&ServiceCd=320&Type=search", "url2": "http://www.toyosato.or.jp/kirarayuuyuu/index.html" }, "geometry": { "type": "Point", "coordinates": [ 136.22129659999996, 35.2293005 ] } },
{ "type": "Feature", "properties": { "内容": "グループホーム　さざなみ苑【認知症対応型共同生活介護】滋賀県彦根市城町2丁目13番3号", "url": "https://www.kaigokensaku.mhlw.go.jp/25/index.php?action_kouhyou_detail_004_kani=true&JigyosyoCd=2570200341-00&ServiceCd=320&Type=search", "url2": "http://www.sazanamien.com" }, "geometry": { "type": "Point", "coordinates": [ 136.241813099999945, 35.2771931 ] } },
{ "type": "Feature", "properties": { "内容": "グループホーム鈴の家【認知症対応型共同生活介護】滋賀県彦根市田原町８７－２", "url": "https://www.kaigokensaku.mhlw.go.jp/25/index.php?action_kouhyou_detail_004_kani=true&JigyosyoCd=2590200040-00&ServiceCd=320&Type=search", "url2": "http://www.suzukihealthcare.co.jp" }, "geometry": { "type": "Point", "coordinates": [ 136.177907299999987, 35.2177768 ] } },
{ "type": "Feature", "properties": { "内容": "湖の辺の道【認知症対応型共同生活介護】彦根市新海町2237", "url": "https://www.kaigokensaku.mhlw.go.jp/25/index.php?action_kouhyou_detail_004_kani=true&JigyosyoCd=2590200123-00&ServiceCd=320&Type=search", "url2": "http://homesweethome.jp/uminobenomichi" }, "geometry": { "type": "Point", "coordinates": [ 136.130581300000017, 35.2176539 ] } },
{ "type": "Feature", "properties": { "内容": "あったかハウス京町グループホーム【認知症対応型共同生活介護】滋賀県彦根市京町1丁目4-7", "url": "https://www.kaigokensaku.mhlw.go.jp/25/index.php?action_kouhyou_detail_004_kani=true&JigyosyoCd=2570200507-00&ServiceCd=320&Type=search", "url2": "http://www.iscare.co.jp" }, "geometry": { "type": "Point", "coordinates": [ 136.259570100000019, 35.2675731 ] } },
{ "type": "Feature", "properties": { "内容": "あったかハウス甘呂グループホーム【認知症対応型共同生活介護】滋賀県彦根市甘呂町490", "url": "https://www.kaigokensaku.mhlw.go.jp/25/index.php?action_kouhyou_detail_004_kani=true&JigyosyoCd=2570200622-00&ServiceCd=320&Type=search", "url2": "http://www.iscare.co.jp" }, "geometry": { "type": "Point", "coordinates": [ 136.22451, 35.2465514 ] } },
{ "type": "Feature", "properties": { "内容": "あったかハウス甘呂グループホーム　サフラン【認知症対応型共同生活介護】滋賀県彦根市甘呂町491", "url": "https://www.kaigokensaku.mhlw.go.jp/25/index.php?action_kouhyou_detail_004_kani=true&JigyosyoCd=2590200131-00&ServiceCd=320&Type=search", "url2": "https://www.iscare.co.jp/" }, "geometry": { "type": "Point", "coordinates": [ 136.224962642327881, 35.246190243038669 ] } },
{ "type": "Feature", "properties": { "内容": "ひらたグループホーム翔裕館【認知症対応型共同生活介護】平田町448-1ひらた翔裕館Ⅱ号館", "url": "https://www.kaigokensaku.mhlw.go.jp/25/index.php?action_kouhyou_detail_004_kani=true&JigyosyoCd=2590200370-00&ServiceCd=320&Type=search", "url2": "https://www.sanga-kaigo.co.jp/" }, "geometry": { "type": "Point", "coordinates": [ 136.2384552, 35.2605948 ] } },
{ "type": "Feature", "properties": { "内容": "南ひこねグループホーム翔裕館【認知症対応型共同生活介護】滋賀県彦根市平田町788南ひこね翔裕館", "url": "https://www.kaigokensaku.mhlw.go.jp/25/index.php?action_kouhyou_detail_004_kani=true&JigyosyoCd=2590200388-00&ServiceCd=320&Type=search", "url2": "https://www.sanga-kaigo.co.jp/" }, "geometry": { "type": "Point", "coordinates": [ 136.245451760990903, 35.253273827482097 ] } },
{ "type": "Feature", "properties": { "内容": "グループホームあいの里八坂【認知症対応型共同生活介護】滋賀県彦根市八坂町1900-12", "url": "https://www.kaigokensaku.mhlw.go.jp/25/index.php?action_kouhyou_detail_004_kani=true&JigyosyoCd=2590200149-00&ServiceCd=320&Type=search", "url2": null }, "geometry": { "type": "Point", "coordinates": [ 136.223223400000052, 35.2633076 ] } },
{ "type": "Feature", "properties": { "内容": "ひこねの憩【認知症対応型共同生活介護】滋賀県彦根市地蔵町203番7", "url": "https://www.kaigokensaku.mhlw.go.jp/25/index.php?action_kouhyou_detail_004_kani=true&JigyosyoCd=2590200222-00&ServiceCd=320&Type=search", "url2": "http://frontier-gh.jp" }, "geometry": { "type": "Point", "coordinates": [ 136.2674144, 35.2542888 ] } },
{ "type": "Feature", "properties": { "内容": "グループホーム　つぼみ【認知症対応型共同生活介護】彦根市鳥居本町１４５５－７", "url": "https://www.kaigokensaku.mhlw.go.jp/25/index.php?action_kouhyou_detail_004_kani=true&JigyosyoCd=2590200115-00&ServiceCd=320&Type=search", "url2": "hikone-tsubomi.net" }, "geometry": { "type": "Point", "coordinates": [ 136.288172600000053, 35.2814222 ] } },
{ "type": "Feature", "properties": { "内容": "社会福祉法人　さざなみ会　グループホーム姉川の里【認知症対応型共同生活介護】滋賀県長浜市大井町９７３番地２", "url": "https://www.kaigokensaku.mhlw.go.jp/25/index.php?action_kouhyou_detail_004_kani=true&JigyosyoCd=2590300097-00&ServiceCd=320&Type=search", "url2": "http://www.sazanamien.com" }, "geometry": { "type": "Point", "coordinates": [ 136.2617788, 35.4167598 ] } },
{ "type": "Feature", "properties": { "内容": "グループホーム　ただすの森【認知症対応型共同生活介護】滋賀県長浜市下坂中町２００番地１", "url": "https://www.kaigokensaku.mhlw.go.jp/25/index.php?action_kouhyou_detail_004_kani=true&JigyosyoCd=2590300048-00&ServiceCd=320&Type=search", "url2": "http://o-kourakukai.or.jp/" }, "geometry": { "type": "Point", "coordinates": [ 136.283910200000037, 35.3647057 ] } },
{ "type": "Feature", "properties": { "内容": "グループホームふじのみね【認知症対応型共同生活介護】滋賀県長浜市醍醐町235番地", "url": "https://www.kaigokensaku.mhlw.go.jp/25/index.php?action_kouhyou_detail_004_kani=true&JigyosyoCd=2570300448-00&ServiceCd=320&Type=search", "url2": "http://www.jigen.co.jp" }, "geometry": { "type": "Point", "coordinates": [ 136.3387444, 35.4383535 ] } },
{ "type": "Feature", "properties": { "内容": "グループホーム　花みずき【認知症対応型共同生活介護】滋賀県長浜市下坂中町２００番地１", "url": "https://www.kaigokensaku.mhlw.go.jp/25/index.php?action_kouhyou_detail_004_kani=true&JigyosyoCd=2590300162-00&ServiceCd=320&Type=search", "url2": "http://o-kourakukai.or.jp/" }, "geometry": { "type": "Point", "coordinates": [ 136.283910200000037, 35.3647057 ] } },
{ "type": "Feature", "properties": { "内容": "株式会社さくら【認知症対応型共同生活介護】滋賀県長浜市新庄中町584グループホームのぞみ", "url": "https://www.kaigokensaku.mhlw.go.jp/25/index.php?action_kouhyou_detail_004_kani=true&JigyosyoCd=2590300220-00&ServiceCd=320&Type=search", "url2": "http:/nagahama-sakura.net" }, "geometry": { "type": "Point", "coordinates": [ 136.266500833065834, 35.397999835876654 ] } },
{ "type": "Feature", "properties": { "内容": "グループホーム　はるか【認知症対応型共同生活介護】滋賀県長浜市大寺町563番地", "url": "https://www.kaigokensaku.mhlw.go.jp/25/index.php?action_kouhyou_detail_004_kani=true&JigyosyoCd=2590300253-00&ServiceCd=320&Type=search", "url2": "http://nagahama-sakura.net/index.html" }, "geometry": { "type": "Point", "coordinates": [ 136.258046067519246, 35.425303361801902 ] } },
{ "type": "Feature", "properties": { "内容": "北ながはまグループホーム【認知症対応型共同生活介護】神照町460-10", "url": "https://www.kaigokensaku.mhlw.go.jp/25/index.php?action_kouhyou_detail_004_kani=true&JigyosyoCd=2590300311-00&ServiceCd=320&Type=search", "url2": "https://sangajapan.jp/kitanagahama/kitanagahama01/" }, "geometry": { "type": "Point", "coordinates": [ 136.2734542, 35.3975191 ] } },
{ "type": "Feature", "properties": { "内容": "グループホーム　つくしの里【認知症対応型共同生活介護】滋賀県長浜市益田町1271", "url": "https://www.kaigokensaku.mhlw.go.jp/25/index.php?action_kouhyou_detail_004_kani=true&JigyosyoCd=2590300014-00&ServiceCd=320&Type=search", "url2": null }, "geometry": { "type": "Point", "coordinates": [ 136.210821107791475, 35.419487243734075 ] } },
{ "type": "Feature", "properties": { "内容": "グループホーム　まんてん小谷【認知症対応型共同生活介護】滋賀県長浜市小谷郡上町562番地", "url": "https://www.kaigokensaku.mhlw.go.jp/25/index.php?action_kouhyou_detail_004_kani=true&JigyosyoCd=2590300105-00&ServiceCd=320&Type=search", "url2": "http://www.man-ten.org/" }, "geometry": { "type": "Point", "coordinates": [ 136.264051, 35.4553001 ] } },
{ "type": "Feature", "properties": { "内容": "余呉はごろも村グループホームこぶしの家【認知症対応型共同生活介護】滋賀県長浜市余呉町池原1293番地", "url": "https://www.kaigokensaku.mhlw.go.jp/25/index.php?action_kouhyou_detail_004_kani=true&JigyosyoCd=2590300139-00&ServiceCd=320&Type=search", "url2": null }, "geometry": { "type": "Point", "coordinates": [ 136.185499899999968, 35.558387 ] } },
{ "type": "Feature", "properties": { "内容": "グループホーム　まんてん塩津【認知症対応型共同生活介護】滋賀県長浜市西浅井町塩津中２７０番地", "url": "https://www.kaigokensaku.mhlw.go.jp/25/index.php?action_kouhyou_detail_004_kani=true&JigyosyoCd=2590300089-00&ServiceCd=320&Type=search", "url2": "http://www.man-ten.org/" }, "geometry": { "type": "Point", "coordinates": [ 136.157146900000043, 35.5277592 ] } },
{ "type": "Feature", "properties": { "内容": "グループホーム中重【認知症対応型共同生活介護】高月町横山298番地", "url": "https://www.kaigokensaku.mhlw.go.jp/25/index.php?action_kouhyou_detail_004_kani=true&JigyosyoCd=2590300113-00&ServiceCd=320&Type=search", "url2": "http://care-care.jp/kaigo/ty_facilities.php?tyid=92" }, "geometry": { "type": "Point", "coordinates": [ 136.217895499999941, 35.4835295 ] } },
{ "type": "Feature", "properties": { "内容": "グループホーム中重　ねむのき【認知症対応型共同生活介護】高月町横山298番地", "url": "https://www.kaigokensaku.mhlw.go.jp/25/index.php?action_kouhyou_detail_004_kani=true&JigyosyoCd=2590300170-00&ServiceCd=320&Type=search", "url2": "http://care-care.jp/kaigo/ty_facilities.php?tyid=92" }, "geometry": { "type": "Point", "coordinates": [ 136.217895499999941, 35.4835295 ] } },
{ "type": "Feature", "properties": { "内容": "グループホームまんてん高月【認知症対応型共同生活介護】滋賀県長浜市高月町高月641-2番地", "url": "https://www.kaigokensaku.mhlw.go.jp/25/index.php?action_kouhyou_detail_004_kani=true&JigyosyoCd=2590300303-00&ServiceCd=320&Type=search", "url2": "http://www.man-ten.org" }, "geometry": { "type": "Point", "coordinates": [ 136.2308331208244, 35.472964091832459 ] } },
{ "type": "Feature", "properties": { "内容": "グループホームほのか【認知症対応型共同生活介護】滋賀県長浜市加納町989-6", "url": "https://www.kaigokensaku.mhlw.go.jp/25/index.php?action_kouhyou_detail_004_kani=true&JigyosyoCd=2590300196-00&ServiceCd=320&Type=search", "url2": null }, "geometry": { "type": "Point", "coordinates": [ 136.304038100000071, 35.394747 ] } },
{ "type": "Feature", "properties": { "内容": "医療法人正志会　グループホームちとせ【認知症対応型共同生活介護】滋賀県近江八幡市長命寺町37－1", "url": "https://www.kaigokensaku.mhlw.go.jp/25/index.php?action_kouhyou_detail_004_kani=true&JigyosyoCd=2590400145-00&ServiceCd=320&Type=search", "url2": null }, "geometry": { "type": "Point", "coordinates": [ 136.063318400000071, 35.1579404 ] } },
{ "type": "Feature", "properties": { "内容": "しみんふくし滋賀グループホーム出町【認知症対応型共同生活介護】滋賀県近江八幡市出町120-1", "url": "https://www.kaigokensaku.mhlw.go.jp/25/index.php?action_kouhyou_detail_004_kani=true&JigyosyoCd=2590400202-00&ServiceCd=320&Type=search", "url2": "http://www.shiminfukushi-shiga.jp/" }, "geometry": { "type": "Point", "coordinates": [ 136.09757060000004, 35.1335157 ] } },
{ "type": "Feature", "properties": { "内容": "オアシスグループホーム【認知症対応型共同生活介護】馬渕町６９０番地", "url": "https://www.kaigokensaku.mhlw.go.jp/25/index.php?action_kouhyou_detail_004_kani=true&JigyosyoCd=2590400012-00&ServiceCd=320&Type=search", "url2": "ods@mx.bw.dream.jp" }, "geometry": { "type": "Point", "coordinates": [ 136.117568399999982, 35.0963541 ] } },
{ "type": "Feature", "properties": { "内容": "グループホーム　おかえり【認知症対応型共同生活介護】滋賀県近江八幡市中小森町600番地", "url": "https://www.kaigokensaku.mhlw.go.jp/25/index.php?action_kouhyou_detail_004_kani=true&JigyosyoCd=2590400129-00&ServiceCd=320&Type=search", "url2": null }, "geometry": { "type": "Point", "coordinates": [ 136.0872329, 35.1139711 ] } },
{ "type": "Feature", "properties": { "内容": "グループホーム花ごよみ【認知症対応型共同生活介護】滋賀県近江八幡市上田町1315-1", "url": "https://www.kaigokensaku.mhlw.go.jp/25/index.php?action_kouhyou_detail_004_kani=true&JigyosyoCd=2570400263-00&ServiceCd=320&Type=search", "url2": "https://www.honobonokai.com" }, "geometry": { "type": "Point", "coordinates": [ 136.1116439, 35.1168849 ] } },
{ "type": "Feature", "properties": { "内容": "グループホームしのだ【認知症対応型共同生活介護】近江八幡市上田町540-1", "url": "https://www.kaigokensaku.mhlw.go.jp/25/index.php?action_kouhyou_detail_004_kani=true&JigyosyoCd=2590400053-00&ServiceCd=320&Type=search", "url2": "https://www.honobonokai.com" }, "geometry": { "type": "Point", "coordinates": [ 136.11759040000004, 35.1133743 ] } },
{ "type": "Feature", "properties": { "内容": "いっぷく安土庵【認知症対応型共同生活介護】安土町下豊浦4111-2", "url": "https://www.kaigokensaku.mhlw.go.jp/25/index.php?action_kouhyou_detail_004_kani=true&JigyosyoCd=2590400293-00&ServiceCd=320&Type=search", "url2": "https://mihan-shiga.site/" }, "geometry": { "type": "Point", "coordinates": [ 136.130595, 35.1572612 ] } },
{ "type": "Feature", "properties": { "内容": "グループホーム近江【認知症対応型共同生活介護】滋賀県近江八幡市上畑町88番地", "url": "https://www.kaigokensaku.mhlw.go.jp/25/index.php?action_kouhyou_detail_004_kani=true&JigyosyoCd=2590400152-00&ServiceCd=320&Type=search", "url2": "http://taizankai.org/o-mi/index.html" }, "geometry": { "type": "Point", "coordinates": [ 136.115571499999987, 35.0916991 ] } },
{ "type": "Feature", "properties": { "内容": "グループホーム　ほおのき【認知症対応型共同生活介護】滋賀県近江八幡市中小森町580－1", "url": "https://www.kaigokensaku.mhlw.go.jp/25/index.php?action_kouhyou_detail_004_kani=true&JigyosyoCd=2590400244-00&ServiceCd=320&Type=search", "url2": null }, "geometry": { "type": "Point", "coordinates": [ 136.086649099999988, 35.1134696 ] } },
{ "type": "Feature", "properties": { "内容": "グループホームともの家のむら【認知症対応型共同生活介護】滋賀県近江八幡市野村町815", "url": "https://www.kaigokensaku.mhlw.go.jp/25/index.php?action_kouhyou_detail_004_kani=true&JigyosyoCd=2590400319-00&ServiceCd=320&Type=search", "url2": "http://www.tomonoie.org/public" }, "geometry": { "type": "Point", "coordinates": [ 136.0322424, 35.1270786 ] } },
{ "type": "Feature", "properties": { "内容": "グループホーム　マハナ【認知症対応型共同生活介護】草津市青地町1248-1", "url": "https://www.kaigokensaku.mhlw.go.jp/25/index.php?action_kouhyou_detail_004_kani=true&JigyosyoCd=2590600074-00&ServiceCd=320&Type=search", "url2": "http://mahanasmile.fanweb.jp" }, "geometry": { "type": "Point", "coordinates": [ 135.970665899999972, 34.9984417 ] } },
{ "type": "Feature", "properties": { "内容": "ケアタウン南草津グループホーム【認知症対応型共同生活介護】滋賀県草津市矢橋町６２７番地１", "url": "https://www.kaigokensaku.mhlw.go.jp/25/index.php?action_kouhyou_detail_004_kani=true&JigyosyoCd=2570600441-00&ServiceCd=320&Type=search", "url2": "http://caretown.jp/" }, "geometry": { "type": "Point", "coordinates": [ 135.926497599999948, 35.0033208 ] } },
{ "type": "Feature", "properties": { "内容": "グループホーム　常輝の里【認知症対応型共同生活介護】草津市志那中町25番地", "url": "https://www.kaigokensaku.mhlw.go.jp/25/index.php?action_kouhyou_detail_004_kani=true&JigyosyoCd=2590600066-00&ServiceCd=320&Type=search", "url2": "http://www.tokinosato-k.com" }, "geometry": { "type": "Point", "coordinates": [ 135.945018752114862, 35.050263815797805 ] } },
{ "type": "Feature", "properties": { "内容": "グループホームなぎさ【認知症対応型共同生活介護】集町２６０－１", "url": "https://www.kaigokensaku.mhlw.go.jp/25/index.php?action_kouhyou_detail_004_kani=true&JigyosyoCd=2570600458-00&ServiceCd=320&Type=search", "url2": "http://www.kaigo-nagisa.com/" }, "geometry": { "type": "Point", "coordinates": [ 135.950363899999957, 35.0414494 ] } },
{ "type": "Feature", "properties": { "内容": "グループホームオアフ【認知症対応型共同生活介護】滋賀県草津市草津2丁目5-24", "url": "https://www.kaigokensaku.mhlw.go.jp/25/index.php?action_kouhyou_detail_004_kani=true&JigyosyoCd=2590600017-00&ServiceCd=320&Type=search", "url2": null }, "geometry": { "type": "Point", "coordinates": [ 135.959213699999964, 35.017289 ] } },
{ "type": "Feature", "properties": { "内容": "グループホームはるか【認知症対応型共同生活介護】滋賀県草津市新浜町153-2", "url": "https://www.kaigokensaku.mhlw.go.jp/25/index.php?action_kouhyou_detail_004_kani=true&JigyosyoCd=2570600284-00&ServiceCd=320&Type=search", "url2": "http://www18.ocn.ne.jp/~katyou/index.htm" }, "geometry": { "type": "Point", "coordinates": [ 135.918512299999946, 34.9996599 ] } },
{ "type": "Feature", "properties": { "内容": "医療法人　芙蓉会　グループホームクローバー【認知症対応型共同生活介護】滋賀県草津市上笠四丁目24番19号", "url": "https://www.kaigokensaku.mhlw.go.jp/25/index.php?action_kouhyou_detail_004_kani=true&JigyosyoCd=2590600082-00&ServiceCd=320&Type=search", "url2": "http://www.yotsuba-lcn.or.jp/" }, "geometry": { "type": "Point", "coordinates": [ 135.941084300000057, 35.0332088 ] } },
{ "type": "Feature", "properties": { "内容": "洛和グループホーム守山大門【認知症対応型共同生活介護】滋賀県守山市大門町114", "url": "https://www.kaigokensaku.mhlw.go.jp/25/index.php?action_kouhyou_detail_004_kani=true&JigyosyoCd=2590700080-00&ServiceCd=320&Type=search", "url2": "http://www.rakuwa.or.jp" }, "geometry": { "type": "Point", "coordinates": [ 135.976856, 35.0556956 ] } },
{ "type": "Feature", "properties": { "内容": "ぐるーぷほーむ花梨【認知症対応型共同生活介護】立田町4135-1", "url": "https://www.kaigokensaku.mhlw.go.jp/25/index.php?action_kouhyou_detail_004_kani=true&JigyosyoCd=2590700056-00&ServiceCd=320&Type=search", "url2": "http://www.youlife.ne.jp" }, "geometry": { "type": "Point", "coordinates": [ 135.976852300000019, 35.0976072 ] } },
{ "type": "Feature", "properties": { "内容": "カナリヤグループホーム下之郷【認知症対応型共同生活介護】滋賀県守山市下之郷三丁目3－8", "url": "https://www.kaigokensaku.mhlw.go.jp/25/index.php?action_kouhyou_detail_004_kani=true&JigyosyoCd=2590700262-00&ServiceCd=320&Type=search", "url2": "https://www.kaigo-nagisa.com" }, "geometry": { "type": "Point", "coordinates": [ 135.98522967116395, 35.065977607291295 ] } },
{ "type": "Feature", "properties": { "内容": "医療法人小西醫院　グループホーム安寧【認知症対応型共同生活介護】滋賀県守山市洲本町1256番地6", "url": "https://www.kaigokensaku.mhlw.go.jp/25/index.php?action_kouhyou_detail_004_kani=true&JigyosyoCd=2590700205-00&ServiceCd=320&Type=search", "url2": "https://www.konishiclinic.jp/" }, "geometry": { "type": "Point", "coordinates": [ 135.971507749737583, 35.088449845340854 ] } },
{ "type": "Feature", "properties": { "内容": "グループホームゆい【認知症対応型共同生活介護】守山市笠原町1313-1", "url": "https://www.kaigokensaku.mhlw.go.jp/25/index.php?action_kouhyou_detail_004_kani=true&JigyosyoCd=2570700290-00&ServiceCd=320&Type=search", "url2": "http://www.yuinosato.or.jp/" }, "geometry": { "type": "Point", "coordinates": [ 135.988308620237717, 35.094551827054069 ] } },
{ "type": "Feature", "properties": { "内容": "カナリヤグループホーム【認知症対応型共同生活介護】三宅町833", "url": "https://www.kaigokensaku.mhlw.go.jp/25/index.php?action_kouhyou_detail_004_kani=true&JigyosyoCd=2570700076-00&ServiceCd=320&Type=search", "url2": "htpp://www.kanariya.or.jp" }, "geometry": { "type": "Point", "coordinates": [ 135.9686206, 35.0594338 ] } },
{ "type": "Feature", "properties": { "内容": "グループホームすいれん【認知症対応型共同生活介護】滋賀県守山市川田町1541-4", "url": "https://www.kaigokensaku.mhlw.go.jp/25/index.php?action_kouhyou_detail_004_kani=true&JigyosyoCd=2570700340-00&ServiceCd=320&Type=search", "url2": "http://www.youlife.ne.jp" }, "geometry": { "type": "Point", "coordinates": [ 135.994686676799006, 35.081796658099798 ] } },
{ "type": "Feature", "properties": { "内容": "グループホームりょうせんの郷【認知症対応型共同生活介護】滋賀県栗東市綣5丁目15番38号", "url": "https://www.kaigokensaku.mhlw.go.jp/25/index.php?action_kouhyou_detail_004_kani=true&JigyosyoCd=2591200049-00&ServiceCd=320&Type=search", "url2": "http://www.mashimo.or.jp/" }, "geometry": { "type": "Point", "coordinates": [ 135.974900599999955, 35.0386253 ] } },
{ "type": "Feature", "properties": { "内容": "グループホーム　治田の里【認知症対応型共同生活介護】滋賀県栗東市川辺626番地", "url": "https://www.kaigokensaku.mhlw.go.jp/25/index.php?action_kouhyou_detail_004_kani=true&JigyosyoCd=2591200098-00&ServiceCd=320&Type=search", "url2": "http://www.yotsuba-lcn.or.jp" }, "geometry": { "type": "Point", "coordinates": [ 135.986657235829171, 35.018997659861014 ] } },
{ "type": "Feature", "properties": { "内容": "大宝の郷【認知症対応型共同生活介護】滋賀県栗東市綣8丁目17番54号", "url": "https://www.kaigokensaku.mhlw.go.jp/25/index.php?action_kouhyou_detail_004_kani=true&JigyosyoCd=2571200225-00&ServiceCd=320&Type=search", "url2": "http://www.mashimo.or.jp/" }, "geometry": { "type": "Point", "coordinates": [ 135.9776587, 35.0399919 ] } },
{ "type": "Feature", "properties": { "内容": "グループホームまごころ・土山【認知症対応型共同生活介護】滋賀県甲賀市土山町南土山甲448番地", "url": "https://www.kaigokensaku.mhlw.go.jp/25/index.php?action_kouhyou_detail_004_kani=true&JigyosyoCd=2591400102-00&ServiceCd=320&Type=search", "url2": "http://magokolo.jp/" }, "geometry": { "type": "Point", "coordinates": [ 136.281465900000057, 34.9345865 ] } },
{ "type": "Feature", "properties": { "内容": "グルーホームそまがわ【認知症対応型共同生活介護】滋賀県甲賀市甲南町野尻418番地", "url": "https://www.kaigokensaku.mhlw.go.jp/25/index.php?action_kouhyou_detail_004_kani=true&JigyosyoCd=2591400128-00&ServiceCd=320&Type=search", "url2": null }, "geometry": { "type": "Point", "coordinates": [ 136.180879733451746, 34.916417316985914 ] } },
{ "type": "Feature", "properties": { "内容": "グループホームそまの里【認知症対応型共同生活介護】滋賀県甲賀市水口町虫生野中央26番地グループホームそまの里", "url": "https://www.kaigokensaku.mhlw.go.jp/25/index.php?action_kouhyou_detail_004_kani=true&JigyosyoCd=2591400177-00&ServiceCd=320&Type=search", "url2": null }, "geometry": { "type": "Point", "coordinates": [ 136.155668, 34.9524147 ] } },
{ "type": "Feature", "properties": { "内容": "グループホームそまの夢【認知症対応型共同生活介護】甲南町野田866-6", "url": "https://www.kaigokensaku.mhlw.go.jp/25/index.php?action_kouhyou_detail_004_kani=true&JigyosyoCd=2591400227-00&ServiceCd=320&Type=search", "url2": "http://hc-koga.com" }, "geometry": { "type": "Point", "coordinates": [ 136.1697063, 34.9249638 ] } },
{ "type": "Feature", "properties": { "内容": "グループホームみなくち【認知症対応型共同生活介護】滋賀県甲賀市水口町朝日が丘6番37号", "url": "https://www.kaigokensaku.mhlw.go.jp/25/index.php?action_kouhyou_detail_004_kani=true&JigyosyoCd=2591400086-00&ServiceCd=320&Type=search", "url2": "http://hachikikai.com" }, "geometry": { "type": "Point", "coordinates": [ 136.180210451099811, 34.975154414277789 ] } },
{ "type": "Feature", "properties": { "内容": "社会福祉法人湖青福祉会高齢者グループホームかふかの里【認知症対応型共同生活介護】252098", "url": "https://www.kaigokensaku.mhlw.go.jp/25/index.php?action_kouhyou_detail_004_kani=true&JigyosyoCd=2571400585-00&ServiceCd=320&Type=search", "url2": "http://www.kosei-f.jp/" }, "geometry": { "type": "Point", "coordinates": [ 136.16861, 34.970734 ] } },
{ "type": "Feature", "properties": { "内容": "グループホームせせらぎ【認知症対応型共同生活介護】甲南町葛木８６９－２", "url": "https://www.kaigokensaku.mhlw.go.jp/25/index.php?action_kouhyou_detail_004_kani=true&JigyosyoCd=2591400029-00&ServiceCd=320&Type=search", "url2": "http://kohnankai.jp" }, "geometry": { "type": "Point", "coordinates": [ 136.176578, 34.9328959 ] } },
{ "type": "Feature", "properties": { "内容": "グループホーム　みなくち　みんなの家【認知症対応型共同生活介護】水口町本丸2-54", "url": "https://www.kaigokensaku.mhlw.go.jp/25/index.php?action_kouhyou_detail_004_kani=true&JigyosyoCd=2591400045-00&ServiceCd=320&Type=search", "url2": "http://chiiroba.jp" }, "geometry": { "type": "Point", "coordinates": [ 136.16415870000003, 34.9726023 ] } },
{ "type": "Feature", "properties": { "内容": "グループホーム笑楽【認知症対応型共同生活介護】滋賀県甲賀市信楽町牧１１５９番地", "url": "https://www.kaigokensaku.mhlw.go.jp/25/index.php?action_kouhyou_detail_004_kani=true&JigyosyoCd=2591400060-00&ServiceCd=320&Type=search", "url2": "http://www.shigaraki-itsuki.com" }, "geometry": { "type": "Point", "coordinates": [ 136.075395500000013, 34.9151572 ] } },
{ "type": "Feature", "properties": { "内容": "グループホーム野洲すみれホーム【認知症対応型共同生活介護】滋賀県野洲市小篠原476番地1", "url": "https://www.kaigokensaku.mhlw.go.jp/25/index.php?action_kouhyou_detail_004_kani=true&JigyosyoCd=2571300116-00&ServiceCd=320&Type=search", "url2": "http://www.moriyama-sumire.jp" }, "geometry": { "type": "Point", "coordinates": [ 136.033780535443299, 35.068242464885877 ] } },
{ "type": "Feature", "properties": { "内容": "ニチイケアセンター野洲【認知症対応型共同生活介護】滋賀県野洲市比江966-4", "url": "https://www.kaigokensaku.mhlw.go.jp/25/index.php?action_kouhyou_detail_004_kani=true&JigyosyoCd=2591300054-00&ServiceCd=320&Type=search", "url2": "http://www.nichiigakkan.co.jp/" }, "geometry": { "type": "Point", "coordinates": [ 136.010138200000029, 35.0921005 ] } },
{ "type": "Feature", "properties": { "内容": "グループホーム　やすの憩【認知症対応型共同生活介護】滋賀県野洲市行畑881番地", "url": "https://www.kaigokensaku.mhlw.go.jp/25/index.php?action_kouhyou_detail_004_kani=true&JigyosyoCd=2591300062-00&ServiceCd=320&Type=search", "url2": "http://www.frontiernokaigo.jp" }, "geometry": { "type": "Point", "coordinates": [ 136.0240923, 35.0617598 ] } },
{ "type": "Feature", "properties": { "内容": "グループホームあかり家【認知症対応型共同生活介護】滋賀県湖南市下田９０３－３８", "url": "https://www.kaigokensaku.mhlw.go.jp/25/index.php?action_kouhyou_detail_004_kani=true&JigyosyoCd=2592300186-00&ServiceCd=320&Type=search", "url2": "http://sksupport.pupu.jp/" }, "geometry": { "type": "Point", "coordinates": [ 136.12931154589387, 35.030602671060137 ] } },
{ "type": "Feature", "properties": { "内容": "グループホーム三雲【認知症対応型共同生活介護】滋賀県湖南市三雲ナガレ69", "url": "https://www.kaigokensaku.mhlw.go.jp/25/index.php?action_kouhyou_detail_004_kani=true&JigyosyoCd=2592300160-00&ServiceCd=320&Type=search", "url2": "https://asahi-care-service.com/" }, "geometry": { "type": "Point", "coordinates": [ 136.119584900000092, 34.983789300000026 ] } },
{ "type": "Feature", "properties": { "内容": "グループホーム大空【認知症対応型共同生活介護】滋賀県湖南市吉永２７２番地", "url": "https://www.kaigokensaku.mhlw.go.jp/25/index.php?action_kouhyou_detail_004_kani=true&JigyosyoCd=2572300107-00&ServiceCd=320&Type=search", "url2": "https://www.oozora-konan.com" }, "geometry": { "type": "Point", "coordinates": [ 136.102656566656492, 34.986779485133617 ] } },
{ "type": "Feature", "properties": { "内容": "グループホームぼだいじ【認知症対応型共同生活介護】滋賀県湖南市菩提寺327番地16", "url": "https://www.kaigokensaku.mhlw.go.jp/25/index.php?action_kouhyou_detail_004_kani=true&JigyosyoCd=2572300024-00&ServiceCd=320&Type=search", "url2": "http://chiiroba.jp/" }, "geometry": { "type": "Point", "coordinates": [ 136.069599199999971, 35.0408793 ] } },
{ "type": "Feature", "properties": { "内容": "グループホームわいわい【認知症対応型共同生活介護】滋賀県湖南市石部東七丁目5番25号", "url": "https://www.kaigokensaku.mhlw.go.jp/25/index.php?action_kouhyou_detail_004_kani=true&JigyosyoCd=2572300073-00&ServiceCd=320&Type=search", "url2": null }, "geometry": { "type": "Point", "coordinates": [ 136.063947057672038, 35.004587204472443 ] } },
{ "type": "Feature", "properties": { "内容": "（株）ニチイ学館　ニチイケアセンター高島【認知症対応型共同生活介護】高島市勝野1725", "url": "https://www.kaigokensaku.mhlw.go.jp/25/index.php?action_kouhyou_detail_004_kani=true&JigyosyoCd=2592200071-00&ServiceCd=320&Type=search", "url2": "http://www.nichiigakkn.co.jp/" }, "geometry": { "type": "Point", "coordinates": [ 136.00764950000007, 35.2948738 ] } },
{ "type": "Feature", "properties": { "内容": "グループホーム　沖の白石【認知症対応型共同生活介護】滋賀県高島市安曇川北船木1729番地1", "url": "https://www.kaigokensaku.mhlw.go.jp/25/index.php?action_kouhyou_detail_004_kani=true&JigyosyoCd=2592200238-00&ServiceCd=320&Type=search", "url2": null }, "geometry": { "type": "Point", "coordinates": [ 136.0580205, 35.3293114 ] } },
{ "type": "Feature", "properties": { "内容": "グループホームBeスマイルあど川【認知症対応型共同生活介護】滋賀県高島市安曇川町田中３０２", "url": "https://www.kaigokensaku.mhlw.go.jp/25/index.php?action_kouhyou_detail_004_kani=true&JigyosyoCd=2592200022-00&ServiceCd=320&Type=search", "url2": "www.besmile39.co.jp" }, "geometry": { "type": "Point", "coordinates": [ 136.017373499999962, 35.3332173 ] } },
{ "type": "Feature", "properties": { "内容": "グループホームＢｅスマイル新旭【認知症対応型共同生活介護】滋賀県高島市新旭町安井川１丁目１２－１", "url": "https://www.kaigokensaku.mhlw.go.jp/25/index.php?action_kouhyou_detail_004_kani=true&JigyosyoCd=2592200105-00&ServiceCd=320&Type=search", "url2": "www.besmile39.co.jp" }, "geometry": { "type": "Point", "coordinates": [ 136.029052500000034, 35.353135 ] } },
{ "type": "Feature", "properties": { "内容": "グループホームはあとふるマキノ【認知症対応型共同生活介護】高島市マキノ町新保1095番地在宅介護サービスセンター「はあとふるマキノ」", "url": "https://www.kaigokensaku.mhlw.go.jp/25/index.php?action_kouhyou_detail_004_kani=true&JigyosyoCd=2572200018-00&ServiceCd=320&Type=search", "url2": null }, "geometry": { "type": "Point", "coordinates": [ 136.031449299999963, 35.4459642 ] } },
{ "type": "Feature", "properties": { "内容": "グループホームはあとふる朽木【認知症対応型共同生活介護】滋賀県高島市朽木市場５９３番地１", "url": "https://www.kaigokensaku.mhlw.go.jp/25/index.php?action_kouhyou_detail_004_kani=true&JigyosyoCd=2592200154-00&ServiceCd=320&Type=search", "url2": null }, "geometry": { "type": "Point", "coordinates": [ 135.91661160000001, 35.3546943 ] } },
{ "type": "Feature", "properties": { "内容": "グループホームねねの家【認知症対応型共同生活介護】滋賀県高島市今津町名小路1-3-1", "url": "https://www.kaigokensaku.mhlw.go.jp/25/index.php?action_kouhyou_detail_004_kani=true&JigyosyoCd=2572200240-00&ServiceCd=320&Type=search", "url2": "https://biwanone.jp" }, "geometry": { "type": "Point", "coordinates": [ 136.03033458029131, 35.400107380760666 ] } },
{ "type": "Feature", "properties": { "内容": "グループホームねねの家3号館【認知症対応型共同生活介護】滋賀県高島市今津町桜町1-6-3", "url": "https://www.kaigokensaku.mhlw.go.jp/25/index.php?action_kouhyou_detail_004_kani=true&JigyosyoCd=2592200147-00&ServiceCd=320&Type=search", "url2": "https://biwanone.jp" }, "geometry": { "type": "Point", "coordinates": [ 136.02894323928686, 35.399899241810317 ] } },
{ "type": "Feature", "properties": { "内容": "グループホーム　くつろぎ【認知症対応型共同生活介護】滋賀県高島市新旭町北畑183-1", "url": "https://www.kaigokensaku.mhlw.go.jp/25/index.php?action_kouhyou_detail_004_kani=true&JigyosyoCd=2592200139-00&ServiceCd=320&Type=search", "url2": null }, "geometry": { "type": "Point", "coordinates": [ 136.029866399999946, 35.3513769 ] } },
{ "type": "Feature", "properties": { "内容": "認知症対応型共同生活介護　グループホームのと川【認知症対応型共同生活介護】東近江市新宮町３３０", "url": "https://www.kaigokensaku.mhlw.go.jp/25/index.php?action_kouhyou_detail_004_kani=true&JigyosyoCd=2570500427-00&ServiceCd=320&Type=search", "url2": "http://shiga-shinjyukai.or.jp" }, "geometry": { "type": "Point", "coordinates": [ 136.151010499999984, 35.2016609 ] } },
{ "type": "Feature", "properties": { "内容": "認知症対応型共同生活介護　グループホーム彩葉【認知症対応型共同生活介護】滋賀県東近江市新宮町330番地10", "url": "https://www.kaigokensaku.mhlw.go.jp/25/index.php?action_kouhyou_detail_004_kani=true&JigyosyoCd=2590500290-00&ServiceCd=320&Type=search", "url2": "http://shiga-shinjyukai.or.jp/" }, "geometry": { "type": "Point", "coordinates": [ 136.1509322, 35.2016699 ] } },
{ "type": "Feature", "properties": { "内容": "グループホーム悠愛【認知症対応型共同生活介護】滋賀県東近江市五個荘竜田町528-4", "url": "https://www.kaigokensaku.mhlw.go.jp/25/index.php?action_kouhyou_detail_004_kani=true&JigyosyoCd=2570500369-00&ServiceCd=320&Type=search", "url2": "URLhttp://sakura-nagaoka.com" }, "geometry": { "type": "Point", "coordinates": [ 136.186364200000071, 35.1522734 ] } },
{ "type": "Feature", "properties": { "内容": "グループホームやすらぎの里永源寺【認知症対応型共同生活介護】滋賀県東近江市山上町5045", "url": "https://www.kaigokensaku.mhlw.go.jp/25/index.php?action_kouhyou_detail_004_kani=true&JigyosyoCd=2570500377-00&ServiceCd=320&Type=search", "url2": null }, "geometry": { "type": "Point", "coordinates": [ 136.27036309999994, 35.082118 ] } },
{ "type": "Feature", "properties": { "内容": "グループホームやすらぎの里けやき【認知症対応型共同生活介護】山上町5040", "url": "https://www.kaigokensaku.mhlw.go.jp/25/index.php?action_kouhyou_detail_004_kani=true&JigyosyoCd=2590500100-00&ServiceCd=320&Type=search", "url2": null }, "geometry": { "type": "Point", "coordinates": [ 136.270456316427612, 35.082136141233725 ] } },
{ "type": "Feature", "properties": { "内容": "グループホームはなのき【認知症対応型共同生活介護】滋賀県東近江市長町304番地", "url": "https://www.kaigokensaku.mhlw.go.jp/25/index.php?action_kouhyou_detail_004_kani=true&JigyosyoCd=2590500308-00&ServiceCd=320&Type=search", "url2": "https://shiga-shinjyukai.or.jp/" }, "geometry": { "type": "Point", "coordinates": [ 136.227508978609791, 35.12874120772311 ] } },
{ "type": "Feature", "properties": { "内容": "沖野原グループホーム【認知症対応型共同生活介護】滋賀県東近江市沖野三丁目１０－１８", "url": "https://www.kaigokensaku.mhlw.go.jp/25/index.php?action_kouhyou_detail_004_kani=true&JigyosyoCd=2590500035-00&ServiceCd=320&Type=search", "url2": "http://www.ex.biwa.ne.jp/^okinohara/" }, "geometry": { "type": "Point", "coordinates": [ 136.21014839999998, 35.0946937 ] } },
{ "type": "Feature", "properties": { "内容": "特定非営利活動法人　ふるさと苑【認知症対応型共同生活介護】佐野町9－1", "url": "https://www.kaigokensaku.mhlw.go.jp/25/index.php?action_kouhyou_detail_004_kani=true&JigyosyoCd=2590500092-00&ServiceCd=320&Type=search", "url2": "gh-furusatoen@way.ocn.ne.jp" }, "geometry": { "type": "Point", "coordinates": [ 136.17795179999996, 35.1769202 ] } },
{ "type": "Feature", "properties": { "内容": "グループホームさくら苑【認知症対応型共同生活介護】滋賀県東近江市聖徳町4-23", "url": "https://www.kaigokensaku.mhlw.go.jp/25/index.php?action_kouhyou_detail_004_kani=true&JigyosyoCd=2570500062-00&ServiceCd=320&Type=search", "url2": "https://www.eonet.ne.jp/~sakurakaigo/index.html" }, "geometry": { "type": "Point", "coordinates": [ 136.199353072981665, 35.100814630337361 ] } },
{ "type": "Feature", "properties": { "内容": "認知症高齢者グループホーム檀那木【認知症対応型共同生活介護】滋賀県東近江市上山町８８３番地６", "url": "https://www.kaigokensaku.mhlw.go.jp/25/index.php?action_kouhyou_detail_004_kani=true&JigyosyoCd=2570500286-00&ServiceCd=320&Type=search", "url2": "mail:dannaboku@e‐omi.ne.jp" }, "geometry": { "type": "Point", "coordinates": [ 136.2844543, 35.1178707 ] } },
{ "type": "Feature", "properties": { "内容": "グループホームひいらぎの里【認知症対応型共同生活介護】上平木町1158", "url": "https://www.kaigokensaku.mhlw.go.jp/25/index.php?action_kouhyou_detail_004_kani=true&JigyosyoCd=2590500142-00&ServiceCd=320&Type=search", "url2": null }, "geometry": { "type": "Point", "coordinates": [ 136.130386199999947, 35.1011952 ] } },
{ "type": "Feature", "properties": { "内容": "愛東の杜　グループホーム【認知症対応型共同生活介護】滋賀県東近江市妹町１０２６番地", "url": "https://www.kaigokensaku.mhlw.go.jp/25/index.php?action_kouhyou_detail_004_kani=true&JigyosyoCd=2590500076-00&ServiceCd=320&Type=search", "url2": "aitounomori＠e-omi.ne.ｊｐ" }, "geometry": { "type": "Point", "coordinates": [ 136.250531099999989, 35.1025108 ] } },
{ "type": "Feature", "properties": { "内容": "しみんふくしの家八日市グループホーム【認知症対応型共同生活介護】東近江市東沖野２丁目５－５", "url": "https://www.kaigokensaku.mhlw.go.jp/25/index.php?action_kouhyou_detail_004_kani=true&JigyosyoCd=2570500146-00&ServiceCd=320&Type=search", "url2": "http://shimin-yokaichi.net/" }, "geometry": { "type": "Point", "coordinates": [ 136.210621800000013, 35.102610200000015 ] } },
{ "type": "Feature", "properties": { "内容": "水野グループホーム【認知症対応型共同生活介護】滋賀県米原市長岡６４５番地複合住宅緑泉館", "url": "https://www.kaigokensaku.mhlw.go.jp/25/index.php?action_kouhyou_detail_004_kani=true&JigyosyoCd=2592400069-00&ServiceCd=320&Type=search", "url2": "htt://www.ryokusenkai.com/ryokusenkann/gruphome.html" }, "geometry": { "type": "Point", "coordinates": [ 136.370904011639368, 35.36298546379809 ] } },
{ "type": "Feature", "properties": { "内容": "グループホーム千寿庵【認知症対応型共同生活介護】滋賀県米原市上多良228番地1", "url": "https://www.kaigokensaku.mhlw.go.jp/25/index.php?action_kouhyou_detail_004_kani=true&JigyosyoCd=2592400010-00&ServiceCd=320&Type=search", "url2": "http://senjyukai.shiga.jp" }, "geometry": { "type": "Point", "coordinates": [ 136.287143600000036, 35.3249892 ] } },
{ "type": "Feature", "properties": { "内容": "縁ひだまり【認知症対応型共同生活介護】滋賀県米原市一色４９４", "url": "https://www.kaigokensaku.mhlw.go.jp/25/index.php?action_kouhyou_detail_004_kani=true&JigyosyoCd=2592400085-00&ServiceCd=320&Type=search", "url2": "https://www.hidamari-shiga.jp" }, "geometry": { "type": "Point", "coordinates": [ 136.355488899999955, 35.334299299999984 ] } },
{ "type": "Feature", "properties": { "内容": "スマイルグループホーム【認知症対応型共同生活介護】滋賀県米原市寺倉603番地の3", "url": "https://www.kaigokensaku.mhlw.go.jp/25/index.php?action_kouhyou_detail_004_kani=true&JigyosyoCd=2592400028-00&ServiceCd=320&Type=search", "url2": "https://www.oumikunpuukai.com" }, "geometry": { "type": "Point", "coordinates": [ 136.311226900000065, 35.3251115 ] } },
{ "type": "Feature", "properties": { "内容": "グループホーム　悠　楽【認知症対応型共同生活介護】滋賀県米原市上野1881番地", "url": "https://www.kaigokensaku.mhlw.go.jp/25/index.php?action_kouhyou_detail_004_kani=true&JigyosyoCd=2592400101-00&ServiceCd=320&Type=search", "url2": "http://www.jigen.co.jp/" }, "geometry": { "type": "Point", "coordinates": [ 136.382642199999964, 35.3937165 ] } },
{ "type": "Feature", "properties": { "内容": "社会福祉法人　日野友愛会　ほまれの里グループホーム【認知症対応型共同生活介護】滋賀県蒲生郡日野町西大路440-1", "url": "https://www.kaigokensaku.mhlw.go.jp/25/index.php?action_kouhyou_detail_004_kani=true&JigyosyoCd=2591500091-00&ServiceCd=320&Type=search", "url2": "http://www.homarenosato.com/" }, "geometry": { "type": "Point", "coordinates": [ 136.265074700000014, 35.0122368 ] } },
{ "type": "Feature", "properties": { "内容": "株式会社　ドリエジョ　ゆめさとグループホーム【認知症対応型共同生活介護】滋賀県蒲生郡日野町西大路井上４３４－２", "url": "https://www.kaigokensaku.mhlw.go.jp/25/index.php?action_kouhyou_detail_004_kani=true&JigyosyoCd=2571500194-00&ServiceCd=320&Type=search", "url2": "https://www.dreyejo.com" }, "geometry": { "type": "Point", "coordinates": [ 136.2610502, 35.0121618 ] } },
{ "type": "Feature", "properties": { "内容": "グループホーム希望の家・綾戸【認知症対応型共同生活介護】滋賀県蒲生郡竜王町綾戸1041番地", "url": "https://www.kaigokensaku.mhlw.go.jp/25/index.php?action_kouhyou_detail_004_kani=true&JigyosyoCd=2591500034-00&ServiceCd=320&Type=search", "url2": "https://www.npo-ryuoh.org/" }, "geometry": { "type": "Point", "coordinates": [ 136.126293199999964, 35.0638608 ] } },
{ "type": "Feature", "properties": { "内容": "グループホームわかすぎの丘・七里【認知症対応型共同生活介護】滋賀県蒲生郡竜王町七里545番地1", "url": "https://www.kaigokensaku.mhlw.go.jp/25/index.php?action_kouhyou_detail_004_kani=true&JigyosyoCd=2591500083-00&ServiceCd=320&Type=search", "url2": "wakasugi@npo-ryuoh.org" }, "geometry": { "type": "Point", "coordinates": [ 136.103849731602509, 35.072183638420405 ] } },
{ "type": "Feature", "properties": { "内容": "グループホーム万葉の里【認知症対応型共同生活介護】滋賀県蒲生郡竜王町山之上６０６８", "url": "https://www.kaigokensaku.mhlw.go.jp/25/index.php?action_kouhyou_detail_004_kani=true&JigyosyoCd=2571500152-00&ServiceCd=320&Type=search", "url2": "https://yukinokai.com/" }, "geometry": { "type": "Point", "coordinates": [ 136.1458189, 35.0535787 ] } },
{ "type": "Feature", "properties": { "内容": "グループホーム　きずな【認知症対応型共同生活介護】滋賀県愛知郡愛荘町長野２３８０番地１１", "url": "https://www.kaigokensaku.mhlw.go.jp/25/index.php?action_kouhyou_detail_004_kani=true&JigyosyoCd=2591700022-00&ServiceCd=320&Type=search", "url2": "http://www.asahi-net.or.jp/~TK6S-IMMR" }, "geometry": { "type": "Point", "coordinates": [ 136.199306993254112, 35.178145723432834 ] } },
{ "type": "Feature", "properties": { "内容": "グループホームかがやき【認知症対応型共同生活介護】犬上郡豊郷町沢506-1", "url": "https://www.kaigokensaku.mhlw.go.jp/25/index.php?action_kouhyou_detail_004_kani=true&JigyosyoCd=2591800012-00&ServiceCd=320&Type=search", "url2": "https://asunaroiyashinosat.wixsite.com/asunaro" }, "geometry": { "type": "Point", "coordinates": [ 136.217263799999955, 35.1917432 ] } },
{ "type": "Feature", "properties": { "内容": "甲良町グループホームらくらく【認知症対応型共同生活介護】滋賀県犬上郡甲良町在士625", "url": "https://www.kaigokensaku.mhlw.go.jp/25/index.php?action_kouhyou_detail_004_kani=true&JigyosyoCd=2571800115-00&ServiceCd=320&Type=search", "url2": "http://www.toyosato.or.jp" }, "geometry": { "type": "Point", "coordinates": [ 136.255479857672071, 35.210253767174066 ] } },
{ "type": "Feature", "properties": { "内容": "認知症対応型共同生活介護施設　ささゆりの家【認知症対応型共同生活介護】滋賀県犬上郡多賀町大字佐目675番地", "url": "https://www.kaigokensaku.mhlw.go.jp/25/index.php?action_kouhyou_detail_004_kani=true&JigyosyoCd=2571800107-00&ServiceCd=320&Type=search", "url2": "http://tashinkai.jp/" }, "geometry": { "type": "Point", "coordinates": [ 136.3357552, 35.20792 ] } },
{ "type": "Feature", "properties": { "内容": "社会福祉法人　湖東会　グループホーム　ハートフル【認知症対応型共同生活介護】滋賀県犬上郡多賀町中川原605-2", "url": "https://www.kaigokensaku.mhlw.go.jp/25/index.php?action_kouhyou_detail_004_kani=true&JigyosyoCd=2571800024-00&ServiceCd=320&Type=search", "url2": "heartful@jasmine.ocn.jp" }, "geometry": { "type": "Point", "coordinates": [ 136.279183399999965, 35.2356775 ] } }
]
}
