{
"type": "FeatureCollection",
"name": "geo_25_小規模多機能型居宅介護",
"crs": { "type": "name", "properties": { "name": "urn:ogc:def:crs:OGC:1.3:CRS84" } },
"features": [
{ "type": "Feature", "properties": { "内容": "小規模多機能型居宅介護サービスひらり【小規模多機能型居宅介護】滋賀県大津市北比良２９３番３", "url": "https://www.kaigokensaku.mhlw.go.jp/25/index.php?action_kouhyou_detail_004_kani=true&JigyosyoCd=2590100158-00&ServiceCd=730&Type=search", "url2": "http://www.kosei-f.jp/" }, "geometry": { "type": "Point", "coordinates": [ 135.945392, 35.2202876 ] } },
{ "type": "Feature", "properties": { "内容": "瀬田３丁目の家【小規模多機能型居宅介護】大津市瀬田三丁目39-19", "url": "https://www.kaigokensaku.mhlw.go.jp/25/index.php?action_kouhyou_detail_004_kani=true&JigyosyoCd=2590100141-00&ServiceCd=730&Type=search", "url2": "http://www8.ocn.ne.jp/~hakuo/" }, "geometry": { "type": "Point", "coordinates": [ 135.913882300000068, 34.9644555 ] } },
{ "type": "Feature", "properties": { "内容": "マザーレイク　湖の波【小規模多機能型居宅介護】新免2丁目6－13", "url": "https://www.kaigokensaku.mhlw.go.jp/25/index.php?action_kouhyou_detail_004_kani=true&JigyosyoCd=2590100331-00&ServiceCd=730&Type=search", "url2": "matherlakekonoha@zeus.eonet.ne.jp" }, "geometry": { "type": "Point", "coordinates": [ 135.951589799999965, 34.946632600000015 ] } },
{ "type": "Feature", "properties": { "内容": "ラ・ケアCoCo【小規模多機能型居宅介護】滋賀県大津市長等2丁目3-19", "url": "https://www.kaigokensaku.mhlw.go.jp/25/index.php?action_kouhyou_detail_004_kani=true&JigyosyoCd=2590100760-00&ServiceCd=730&Type=search", "url2": "https://www.la-care.jp/" }, "geometry": { "type": "Point", "coordinates": [ 135.8595741, 35.0088307 ] } },
{ "type": "Feature", "properties": { "内容": "ぜぜの家【小規模多機能型居宅介護】大津市中庄1丁目7-36", "url": "https://www.kaigokensaku.mhlw.go.jp/25/index.php?action_kouhyou_detail_004_kani=true&JigyosyoCd=2590100281-00&ServiceCd=730&Type=search", "url2": "http//www8.con.jp/^hakuo/" }, "geometry": { "type": "Point", "coordinates": [ 135.892187700000022, 34.9884993 ] } },
{ "type": "Feature", "properties": { "内容": "小規模多機能型居宅介護グリーングラス富士【小規模多機能型居宅介護】秋葉台13番5号", "url": "https://www.kaigokensaku.mhlw.go.jp/25/index.php?action_kouhyou_detail_004_kani=true&JigyosyoCd=2590100323-00&ServiceCd=730&Type=search", "url2": "http://www.ryokuseikai.jp" }, "geometry": { "type": "Point", "coordinates": [ 135.887429900000029, 34.9878381 ] } },
{ "type": "Feature", "properties": { "内容": "かすがやま小規模多機能ホーム爽やかな風【小規模多機能型居宅介護】滋賀県大津市本堅田６丁目16-7かすがやま翔裕館Ⅱ号館", "url": "https://www.kaigokensaku.mhlw.go.jp/25/index.php?action_kouhyou_detail_004_kani=true&JigyosyoCd=2590100885-00&ServiceCd=730&Type=search", "url2": null }, "geometry": { "type": "Point", "coordinates": [ 135.9097625, 35.1178869 ] } },
{ "type": "Feature", "properties": { "内容": "時間の奏【小規模多機能型居宅介護】滋賀県大津市一里山六丁目5-10", "url": "https://www.kaigokensaku.mhlw.go.jp/25/index.php?action_kouhyou_detail_004_kani=true&JigyosyoCd=2590100315-00&ServiceCd=730&Type=search", "url2": "https://rokusho.net" }, "geometry": { "type": "Point", "coordinates": [ 135.93571647182776, 34.975759511554834 ] } },
{ "type": "Feature", "properties": { "内容": "小規模多機能愛和【小規模多機能型居宅介護】蓮池町13-10", "url": "https://www.kaigokensaku.mhlw.go.jp/25/index.php?action_kouhyou_detail_004_kani=true&JigyosyoCd=2590100414-00&ServiceCd=730&Type=search", "url2": "http://ai-wa.jp/shoukibo/" }, "geometry": { "type": "Point", "coordinates": [ 135.863778642327787, 35.04685142473155 ] } },
{ "type": "Feature", "properties": { "内容": "小規模多機能型居宅介護サービス絆【小規模多機能型居宅介護】滋賀県大津市和邇中浜303番1", "url": "https://www.kaigokensaku.mhlw.go.jp/25/index.php?action_kouhyou_detail_004_kani=true&JigyosyoCd=2590100232-00&ServiceCd=730&Type=search", "url2": "http://www.koseikai.care" }, "geometry": { "type": "Point", "coordinates": [ 135.92069790000005, 35.1629487 ] } },
{ "type": "Feature", "properties": { "内容": "小規模多機能型居宅介護事業所　まごころの家なごみ【小規模多機能型居宅介護】滋賀県大津市勧学2－4－1", "url": "https://www.kaigokensaku.mhlw.go.jp/25/index.php?action_kouhyou_detail_004_kani=true&JigyosyoCd=2590100240-00&ServiceCd=730&Type=search", "url2": "http://magokoro-ie.net/" }, "geometry": { "type": "Point", "coordinates": [ 135.8620396, 35.0331996 ] } },
{ "type": "Feature", "properties": { "内容": "小桜の里【小規模多機能型居宅介護】滋賀県大津市大石東四丁目５番６号", "url": "https://www.kaigokensaku.mhlw.go.jp/25/index.php?action_kouhyou_detail_004_kani=true&JigyosyoCd=2590100067-00&ServiceCd=730&Type=search", "url2": "http://hakuokai.jp/smarts/index/0/" }, "geometry": { "type": "Point", "coordinates": [ 135.922443, 34.9149324 ] } },
{ "type": "Feature", "properties": { "内容": "ケアセンターほたるの里【小規模多機能型居宅介護】滋賀県大津市南郷一丁目9-21", "url": "https://www.kaigokensaku.mhlw.go.jp/25/index.php?action_kouhyou_detail_004_kani=true&JigyosyoCd=2590100273-00&ServiceCd=730&Type=search", "url2": null }, "geometry": { "type": "Point", "coordinates": [ 135.90895230000001, 34.9443543 ] } },
{ "type": "Feature", "properties": { "内容": "じょいふるびわこ【小規模多機能型居宅介護】滋賀県彦根市新海町2240", "url": "https://www.kaigokensaku.mhlw.go.jp/25/index.php?action_kouhyou_detail_004_kani=true&JigyosyoCd=2590200347-00&ServiceCd=730&Type=search", "url2": "http://homesweethome.jp/" }, "geometry": { "type": "Point", "coordinates": [ 136.1347029, 35.215452 ] } },
{ "type": "Feature", "properties": { "内容": "じょいふるあっといなえ【小規模多機能型居宅介護】滋賀県彦根市下西川町1098", "url": "https://www.kaigokensaku.mhlw.go.jp/25/index.php?action_kouhyou_detail_004_kani=true&JigyosyoCd=2590200032-00&ServiceCd=730&Type=search", "url2": "http://homesweethome.jp/" }, "geometry": { "type": "Point", "coordinates": [ 136.1752047, 35.2250177 ] } },
{ "type": "Feature", "properties": { "内容": "久左の家【小規模多機能型居宅介護】滋賀県彦根市河原二丁目１番３号", "url": "https://www.kaigokensaku.mhlw.go.jp/25/index.php?action_kouhyou_detail_004_kani=true&JigyosyoCd=2590200099-00&ServiceCd=730&Type=search", "url2": "hppt://www.chitosekai.or.jp" }, "geometry": { "type": "Point", "coordinates": [ 136.25428450000004, 35.2661258 ] } },
{ "type": "Feature", "properties": { "内容": "平田小規模多機能ホーム爽やかな風【小規模多機能型居宅介護】滋賀県彦根市平田町1114-1ひらた翔裕館Ⅰ号館", "url": "https://www.kaigokensaku.mhlw.go.jp/25/index.php?action_kouhyou_detail_004_kani=true&JigyosyoCd=2590200362-00&ServiceCd=730&Type=search", "url2": "https://www.sanga-kaigo.co.jp/" }, "geometry": { "type": "Point", "coordinates": [ 136.238461674868773, 35.260638348049774 ] } },
{ "type": "Feature", "properties": { "内容": "ぶどうの家　芹橋【小規模多機能型居宅介護】滋賀県彦根市芹橋２丁目９番４２号", "url": "https://www.kaigokensaku.mhlw.go.jp/25/index.php?action_kouhyou_detail_004_kani=true&JigyosyoCd=2590200305-00&ServiceCd=730&Type=search", "url2": "https://kiboukai-budou.jp" }, "geometry": { "type": "Point", "coordinates": [ 136.250673673575989, 35.267129167833531 ] } },
{ "type": "Feature", "properties": { "内容": "わいわいがやが家　甘呂【小規模多機能型居宅介護】滋賀県彦根市甘呂町491", "url": "https://www.kaigokensaku.mhlw.go.jp/25/index.php?action_kouhyou_detail_004_kani=true&JigyosyoCd=2590200131-00&ServiceCd=730&Type=search", "url2": "http://www.iscare.co.jp" }, "geometry": { "type": "Point", "coordinates": [ 136.220118700000057, 35.2450708 ] } },
{ "type": "Feature", "properties": { "内容": "しゃきょう小規模多機能型居宅介護　ひなたぼっこ【小規模多機能型居宅介護】滋賀県長浜市木之本町田部６４７－１", "url": "https://www.kaigokensaku.mhlw.go.jp/25/index.php?action_kouhyou_detail_004_kani=true&JigyosyoCd=2590300055-00&ServiceCd=730&Type=search", "url2": "http://www.nagahama-shakyo.or.jp" }, "geometry": { "type": "Point", "coordinates": [ 136.2303549, 35.504675200000015 ] } },
{ "type": "Feature", "properties": { "内容": "小規模多機能型居宅介護事業所　奥びわこ【小規模多機能型居宅介護】滋賀県長浜市西浅井町大浦1777", "url": "https://www.kaigokensaku.mhlw.go.jp/25/index.php?action_kouhyou_detail_004_kani=true&JigyosyoCd=2590300154-00&ServiceCd=730&Type=search", "url2": "http://sontokukai.com/" }, "geometry": { "type": "Point", "coordinates": [ 136.123556199999939, 35.488305100000019 ] } },
{ "type": "Feature", "properties": { "内容": "まごころホームまんてん小谷【小規模多機能型居宅介護】小谷郡上町562番地地域密着介護ホームまんてん小谷", "url": "https://www.kaigokensaku.mhlw.go.jp/25/index.php?action_kouhyou_detail_004_kani=true&JigyosyoCd=2590300105-00&ServiceCd=730&Type=search", "url2": "http://www.man-ten.org/" }, "geometry": { "type": "Point", "coordinates": [ 136.264051, 35.4553001 ] } },
{ "type": "Feature", "properties": { "内容": "北ながはま小規模多機能ホーム【小規模多機能型居宅介護】神照町460-10", "url": "https://www.kaigokensaku.mhlw.go.jp/25/index.php?action_kouhyou_detail_004_kani=true&JigyosyoCd=2590300311-00&ServiceCd=730&Type=search", "url2": "https://sangajapan.jp/kitanagahama/kitanagahama01/" }, "geometry": { "type": "Point", "coordinates": [ 136.2734542, 35.3975191 ] } },
{ "type": "Feature", "properties": { "内容": "まごころホームまんてん高月【小規模多機能型居宅介護】滋賀県長浜市高月町高月641-2", "url": "https://www.kaigokensaku.mhlw.go.jp/25/index.php?action_kouhyou_detail_004_kani=true&JigyosyoCd=2590300303-00&ServiceCd=730&Type=search", "url2": "http://www.man-ten.org" }, "geometry": { "type": "Point", "coordinates": [ 136.230766788169859, 35.473259002933283 ] } },
{ "type": "Feature", "properties": { "内容": "船木・えんの家【小規模多機能型居宅介護】滋賀県近江八幡市船木町１３８３", "url": "https://www.kaigokensaku.mhlw.go.jp/25/index.php?action_kouhyou_detail_004_kani=true&JigyosyoCd=2590400061-00&ServiceCd=730&Type=search", "url2": "http://kohitujikai.net/" }, "geometry": { "type": "Point", "coordinates": [ 136.074886800000058, 35.1411395 ] } },
{ "type": "Feature", "properties": { "内容": "しみんふくし滋賀　材久さん【小規模多機能型居宅介護】滋賀県近江八幡市博労町上1", "url": "https://www.kaigokensaku.mhlw.go.jp/25/index.php?action_kouhyou_detail_004_kani=true&JigyosyoCd=2590400210-00&ServiceCd=730&Type=search", "url2": "http://www.shiminfukushi-shiga.jp/" }, "geometry": { "type": "Point", "coordinates": [ 136.095537499999978, 35.1378484 ] } },
{ "type": "Feature", "properties": { "内容": "サポートセンターすくすくの館【小規模多機能型居宅介護】近江八幡市西元町５９番地", "url": "https://www.kaigokensaku.mhlw.go.jp/25/index.php?action_kouhyou_detail_004_kani=true&JigyosyoCd=2590400020-00&ServiceCd=730&Type=search", "url2": "https://suku-suku.or.jp" }, "geometry": { "type": "Point", "coordinates": [ 136.085184077909872, 35.135415573979735 ] } },
{ "type": "Feature", "properties": { "内容": "木もれびの家【小規模多機能型居宅介護】滋賀県近江八幡市西生来町2415番地2", "url": "https://www.kaigokensaku.mhlw.go.jp/25/index.php?action_kouhyou_detail_004_kani=true&JigyosyoCd=2590400269-00&ServiceCd=730&Type=search", "url2": "mihan-shiga.site" }, "geometry": { "type": "Point", "coordinates": [ 136.1450288, 35.1150112 ] } },
{ "type": "Feature", "properties": { "内容": "小規模多機能型居宅介護事業所　ひまわり【小規模多機能型居宅介護】滋賀県近江八幡市千僧供町127番地1", "url": "https://www.kaigokensaku.mhlw.go.jp/25/index.php?action_kouhyou_detail_004_kani=true&JigyosyoCd=2590400103-00&ServiceCd=730&Type=search", "url2": "https://www.iori-care.com/" }, "geometry": { "type": "Point", "coordinates": [ 136.114775449073818, 35.102119587841635 ] } },
{ "type": "Feature", "properties": { "内容": "パナソニックエイジフリーケアセンター草津野村・小規模多機能【小規模多機能型居宅介護】滋賀県草津市野村1丁目24番10号", "url": "https://www.kaigokensaku.mhlw.go.jp/25/index.php?action_kouhyou_detail_004_kani=true&JigyosyoCd=2590600223-00&ServiceCd=730&Type=search", "url2": "http://sumai.panasonic.jp/agefree/facility_care/agefree-house/kusatsunomura/" }, "geometry": { "type": "Point", "coordinates": [ 135.957763298147597, 35.029021203642579 ] } },
{ "type": "Feature", "properties": { "内容": "小規模多機能型居宅介護事業所心【小規模多機能型居宅介護】駒井沢町２４６番地の１", "url": "https://www.kaigokensaku.mhlw.go.jp/25/index.php?action_kouhyou_detail_004_kani=true&JigyosyoCd=2590600033-00&ServiceCd=730&Type=search", "url2": "http://www.ex.biwa.ne.jp/~kokoro115/" }, "geometry": { "type": "Point", "coordinates": [ 135.958954799999987, 35.04163 ] } },
{ "type": "Feature", "properties": { "内容": "小規模多機能ホームあん矢倉【小規模多機能型居宅介護】草津市東矢倉3丁目4-48", "url": "https://www.kaigokensaku.mhlw.go.jp/25/index.php?action_kouhyou_detail_004_kani=true&JigyosyoCd=2590600132-00&ServiceCd=730&Type=search", "url2": "http://an932.jp" }, "geometry": { "type": "Point", "coordinates": [ 135.957719699999984, 35.005902445622567 ] } },
{ "type": "Feature", "properties": { "内容": "小規模多機能ホームあん常盤【小規模多機能型居宅介護】滋賀県草津市芦浦町326-7", "url": "https://www.kaigokensaku.mhlw.go.jp/25/index.php?action_kouhyou_detail_004_kani=true&JigyosyoCd=2590600322-00&ServiceCd=730&Type=search", "url2": "http://an932.jp" }, "geometry": { "type": "Point", "coordinates": [ 135.957742, 35.055781 ] } },
{ "type": "Feature", "properties": { "内容": "小規模多機能事業所デイサロンすずらん【小規模多機能型居宅介護】滋賀県草津市大路３丁目３－１３", "url": "https://www.kaigokensaku.mhlw.go.jp/25/index.php?action_kouhyou_detail_004_kani=true&JigyosyoCd=2590600306-00&ServiceCd=730&Type=search", "url2": "https://www.big-advance.site/c/135/1734/service#ser3" }, "geometry": { "type": "Point", "coordinates": [ 135.969075423417621, 35.01690370541192 ] } },
{ "type": "Feature", "properties": { "内容": "小規模多機能型居宅介護事業所　萩の里【小規模多機能型居宅介護】滋賀県草津市野路東2丁目4番10号", "url": "https://www.kaigokensaku.mhlw.go.jp/25/index.php?action_kouhyou_detail_004_kani=true&JigyosyoCd=2590600231-00&ServiceCd=730&Type=search", "url2": "http://yotsuba-lcn.or.jp" }, "geometry": { "type": "Point", "coordinates": [ 135.954403400000047, 34.9936339 ] } },
{ "type": "Feature", "properties": { "内容": "あろは南草津【小規模多機能型居宅介護】追分南六丁目20番1号", "url": "https://www.kaigokensaku.mhlw.go.jp/25/index.php?action_kouhyou_detail_004_kani=true&JigyosyoCd=2590600389-00&ServiceCd=730&Type=search", "url2": "https://www.love-smile-happiness.co.jp" }, "geometry": { "type": "Point", "coordinates": [ 135.9641805, 34.9932129 ] } },
{ "type": "Feature", "properties": { "内容": "小規模多機能型居宅介護事業所　こころね【小規模多機能型居宅介護】草津市南山田町960-5小規模多機能型居宅介護事業所　こころね", "url": "https://www.kaigokensaku.mhlw.go.jp/25/index.php?action_kouhyou_detail_004_kani=true&JigyosyoCd=2590600165-00&ServiceCd=730&Type=search", "url2": "http://www.npo-kokoro.net" }, "geometry": { "type": "Point", "coordinates": [ 135.926688014224936, 35.022818569444993 ] } },
{ "type": "Feature", "properties": { "内容": "ステップアップ（小規模多機能）【小規模多機能型居宅介護】矢橋町１５５－１", "url": "https://www.kaigokensaku.mhlw.go.jp/25/index.php?action_kouhyou_detail_004_kani=true&JigyosyoCd=2590600348-00&ServiceCd=730&Type=search", "url2": null }, "geometry": { "type": "Point", "coordinates": [ 135.9314965, 35.0073326 ] } },
{ "type": "Feature", "properties": { "内容": "社会福祉法人　ご縁会　地域密着型小規模多機能居宅介護サービス　フェイス【小規模多機能型居宅介護】草津2丁目14番32号", "url": "https://www.kaigokensaku.mhlw.go.jp/25/index.php?action_kouhyou_detail_004_kani=true&JigyosyoCd=2590600157-00&ServiceCd=730&Type=search", "url2": null }, "geometry": { "type": "Point", "coordinates": [ 135.961830233729501, 35.015781952597216 ] } },
{ "type": "Feature", "properties": { "内容": "小規模多機能型居宅介護事業所　花梨【小規模多機能型居宅介護】守山市立田町4135-1", "url": "https://www.kaigokensaku.mhlw.go.jp/25/index.php?action_kouhyou_detail_004_kani=true&JigyosyoCd=2590700056-00&ServiceCd=730&Type=search", "url2": "http://www.youliefe.ne.jp" }, "geometry": { "type": "Point", "coordinates": [ 135.976852300000019, 35.0976072 ] } },
{ "type": "Feature", "properties": { "内容": "らいふステーション憩い【小規模多機能型居宅介護】滋賀県守山市石田町735-3", "url": "https://www.kaigokensaku.mhlw.go.jp/25/index.php?action_kouhyou_detail_004_kani=true&JigyosyoCd=2590700247-00&ServiceCd=730&Type=search", "url2": "https://www.youlife.ne.jp/" }, "geometry": { "type": "Point", "coordinates": [ 135.972553400000038, 35.0748549 ] } },
{ "type": "Feature", "properties": { "内容": "あいむ守山小規模多機能型居宅介護【小規模多機能型居宅介護】滋賀県守山市守山四丁目13-26-101", "url": "https://www.kaigokensaku.mhlw.go.jp/25/index.php?action_kouhyou_detail_004_kani=true&JigyosyoCd=2590700114-00&ServiceCd=730&Type=search", "url2": "http://k-aimu.co.jp" }, "geometry": { "type": "Point", "coordinates": [ 135.99226, 35.0601177 ] } },
{ "type": "Feature", "properties": { "内容": "おうみの里ほたる【小規模多機能型居宅介護】滋賀県守山市播磨田町3058番地", "url": "https://www.kaigokensaku.mhlw.go.jp/25/index.php?action_kouhyou_detail_004_kani=true&JigyosyoCd=2590700254-00&ServiceCd=730&Type=search", "url2": null }, "geometry": { "type": "Point", "coordinates": [ 135.9924144, 35.0670437 ] } },
{ "type": "Feature", "properties": { "内容": "あいむ勝部小規模多機能型居宅介護【小規模多機能型居宅介護】勝部二丁目4-12BH勝部ビル", "url": "https://www.kaigokensaku.mhlw.go.jp/25/index.php?action_kouhyou_detail_004_kani=true&JigyosyoCd=2590700163-00&ServiceCd=730&Type=search", "url2": "http://k-aimu.co.jp" }, "geometry": { "type": "Point", "coordinates": [ 135.989160399999946, 35.0476413 ] } },
{ "type": "Feature", "properties": { "内容": "小規模多機能型居宅介護事業所　心のさと【小規模多機能型居宅介護】滋賀県栗東市十里330-1", "url": "https://www.kaigokensaku.mhlw.go.jp/25/index.php?action_kouhyou_detail_004_kani=true&JigyosyoCd=2591200106-00&ServiceCd=730&Type=search", "url2": "https://takurou-kokoro.com/" }, "geometry": { "type": "Point", "coordinates": [ 135.9621549, 35.0461092 ] } },
{ "type": "Feature", "properties": { "内容": "済生会なでしこ栗東【小規模多機能型居宅介護】滋賀県栗東市出庭697-1", "url": "https://www.kaigokensaku.mhlw.go.jp/25/index.php?action_kouhyou_detail_004_kani=true&JigyosyoCd=2591200072-00&ServiceCd=730&Type=search", "url2": "http://www.saiseikai-shiga.jp/tankaiso/kyotakukaigo.html" }, "geometry": { "type": "Point", "coordinates": [ 136.003525299999978, 35.0362149 ] } },
{ "type": "Feature", "properties": { "内容": "小規模多機能ホーム　志【小規模多機能型居宅介護】滋賀県栗東市御園2629", "url": "https://www.kaigokensaku.mhlw.go.jp/25/index.php?action_kouhyou_detail_004_kani=true&JigyosyoCd=2591200114-00&ServiceCd=730&Type=search", "url2": "https://www.kokorozashi1003.com" }, "geometry": { "type": "Point", "coordinates": [ 136.0215197, 34.9947733 ] } },
{ "type": "Feature", "properties": { "内容": "ＪＡゆうハート　かなえ手【小規模多機能型居宅介護】滋賀県甲賀市信楽町柞原792-2", "url": "https://www.kaigokensaku.mhlw.go.jp/25/index.php?action_kouhyou_detail_004_kani=true&JigyosyoCd=2591400276-00&ServiceCd=730&Type=search", "url2": "http://www.ja-youheart.co.jp" }, "geometry": { "type": "Point", "coordinates": [ 136.026308363229361, 34.8614959340293 ] } },
{ "type": "Feature", "properties": { "内容": "甲賀荘小規模多機能ホームあかり【小規模多機能型居宅介護】甲賀町大原中904", "url": "https://www.kaigokensaku.mhlw.go.jp/25/index.php?action_kouhyou_detail_004_kani=true&JigyosyoCd=2591400078-00&ServiceCd=730&Type=search", "url2": "https://kougakai.org/" }, "geometry": { "type": "Point", "coordinates": [ 136.227986584130832, 34.901489350697503 ] } },
{ "type": "Feature", "properties": { "内容": "ライフサポートみなくちみんなの家【小規模多機能型居宅介護】滋賀県甲賀市水口町中邸1-20", "url": "https://www.kaigokensaku.mhlw.go.jp/25/index.php?action_kouhyou_detail_004_kani=true&JigyosyoCd=2591400326-00&ServiceCd=730&Type=search", "url2": "https://chiiroba" }, "geometry": { "type": "Point", "coordinates": [ 136.162836, 34.9723927 ] } },
{ "type": "Feature", "properties": { "内容": "ＪＡゆうハート　つない手【小規模多機能型居宅介護】滋賀県甲賀市水口町新城５２０番地", "url": "https://www.kaigokensaku.mhlw.go.jp/25/index.php?action_kouhyou_detail_004_kani=true&JigyosyoCd=2591400037-00&ServiceCd=730&Type=search", "url2": "www.ja-youheart.co.jp" }, "geometry": { "type": "Point", "coordinates": [ 136.197656300000062, 34.9603429 ] } },
{ "type": "Feature", "properties": { "内容": "むすん手【小規模多機能型居宅介護】甲南町杉谷108-2", "url": "https://www.kaigokensaku.mhlw.go.jp/25/index.php?action_kouhyou_detail_004_kani=true&JigyosyoCd=2591400094-00&ServiceCd=730&Type=search", "url2": "http://www.ja-youheart.co.jp/" }, "geometry": { "type": "Point", "coordinates": [ 136.156058239286807, 34.924358276675328 ] } },
{ "type": "Feature", "properties": { "内容": "小規模多機能型居宅介護ほほえみ【小規模多機能型居宅介護】滋賀県野洲市吉地1127旧ふれあいセンター", "url": "https://www.kaigokensaku.mhlw.go.jp/25/index.php?action_kouhyou_detail_004_kani=true&JigyosyoCd=2591300120-00&ServiceCd=730&Type=search", "url2": "http://www.hohoemi-hohoemi.com/" }, "geometry": { "type": "Point", "coordinates": [ 136.0163287, 35.1097482 ] } },
{ "type": "Feature", "properties": { "内容": "あいむ祇王小規模多機能型居宅介護事業所【小規模多機能型居宅介護】冨波乙190", "url": "https://www.kaigokensaku.mhlw.go.jp/25/index.php?action_kouhyou_detail_004_kani=true&JigyosyoCd=2591300070-00&ServiceCd=730&Type=search", "url2": "http://k-aimu.co.jp" }, "geometry": { "type": "Point", "coordinates": [ 136.032614700000011, 35.0759354 ] } },
{ "type": "Feature", "properties": { "内容": "秋桜舎【小規模多機能型居宅介護】滋賀県湖南市石部東一丁目９番２６号", "url": "https://www.kaigokensaku.mhlw.go.jp/25/index.php?action_kouhyou_detail_004_kani=true&JigyosyoCd=2592300038-00&ServiceCd=730&Type=search", "url2": "http://nanten-net.com" }, "geometry": { "type": "Point", "coordinates": [ 136.059237199999984, 35.0080971 ] } },
{ "type": "Feature", "properties": { "内容": "小規模多機能型居宅介護事業所ぬくもりの家大空【小規模多機能型居宅介護】滋賀県湖南市吉永２７０番地１", "url": "https://www.kaigokensaku.mhlw.go.jp/25/index.php?action_kouhyou_detail_004_kani=true&JigyosyoCd=2592300103-00&ServiceCd=730&Type=search", "url2": "https://www.oozora-konan.com/" }, "geometry": { "type": "Point", "coordinates": [ 136.102363800000035, 34.9867526 ] } },
{ "type": "Feature", "properties": { "内容": "小規模多機能型居宅介護事業所　ぼだいじみんなの家【小規模多機能型居宅介護】菩提寺３２７番地１６", "url": "https://www.kaigokensaku.mhlw.go.jp/25/index.php?action_kouhyou_detail_004_kani=true&JigyosyoCd=2592300087-00&ServiceCd=730&Type=search", "url2": "https://chiiroba.jp/" }, "geometry": { "type": "Point", "coordinates": [ 136.069599199999971, 35.0408793 ] } },
{ "type": "Feature", "properties": { "内容": "小規模多機能型居宅介護　樹林【小規模多機能型居宅介護】滋賀県湖南市石部南4丁目５－１１", "url": "https://www.kaigokensaku.mhlw.go.jp/25/index.php?action_kouhyou_detail_004_kani=true&JigyosyoCd=2592300178-00&ServiceCd=730&Type=search", "url2": "http:nanten-net.com" }, "geometry": { "type": "Point", "coordinates": [ 136.062127835582032, 34.99541557428622 ] } },
{ "type": "Feature", "properties": { "内容": "小規模多機能型居宅介護　元気な仲間【小規模多機能型居宅介護】滋賀県高島市新旭町安井川148-4", "url": "https://www.kaigokensaku.mhlw.go.jp/25/index.php?action_kouhyou_detail_004_kani=true&JigyosyoCd=2592200162-00&ServiceCd=730&Type=search", "url2": "www.npo-genki.com" }, "geometry": { "type": "Point", "coordinates": [ 136.0284471, 35.3505325 ] } },
{ "type": "Feature", "properties": { "内容": "株式会社ニチイ学館　ニチイケアセンタ－高島やわらぎ【小規模多機能型居宅介護】高島市勝野1725", "url": "https://www.kaigokensaku.mhlw.go.jp/25/index.php?action_kouhyou_detail_004_kani=true&JigyosyoCd=2592200071-00&ServiceCd=730&Type=search", "url2": "www.nichiigakkan.co.jp" }, "geometry": { "type": "Point", "coordinates": [ 136.00764950000007, 35.2948738 ] } },
{ "type": "Feature", "properties": { "内容": "えがお屋本舗下古賀店【小規模多機能型居宅介護】滋賀県高島市安曇川町下古賀1255番地", "url": "https://www.kaigokensaku.mhlw.go.jp/25/index.php?action_kouhyou_detail_004_kani=true&JigyosyoCd=2592200121-00&ServiceCd=730&Type=search", "url2": null }, "geometry": { "type": "Point", "coordinates": [ 135.991180799999938, 35.3584616 ] } },
{ "type": "Feature", "properties": { "内容": "えがお屋本舗上弘部店【小規模多機能型居宅介護】滋賀県高島市今津町上弘部438番地2", "url": "https://www.kaigokensaku.mhlw.go.jp/25/index.php?action_kouhyou_detail_004_kani=true&JigyosyoCd=2592200220-00&ServiceCd=730&Type=search", "url2": null }, "geometry": { "type": "Point", "coordinates": [ 136.00440693795926, 35.406952216928531 ] } },
{ "type": "Feature", "properties": { "内容": "小規模多機能型居宅介護事業所　はぴねすマキノ【小規模多機能型居宅介護】滋賀県高島市マキノ町新保1097番地", "url": "https://www.kaigokensaku.mhlw.go.jp/25/index.php?action_kouhyou_detail_004_kani=true&JigyosyoCd=2592200170-00&ServiceCd=730&Type=search", "url2": null }, "geometry": { "type": "Point", "coordinates": [ 136.033285675532511, 35.445442814962561 ] } },
{ "type": "Feature", "properties": { "内容": "萩の浜荘【小規模多機能型居宅介護】滋賀県高島市勝野1-79", "url": "https://www.kaigokensaku.mhlw.go.jp/25/index.php?action_kouhyou_detail_004_kani=true&JigyosyoCd=2592200246-00&ServiceCd=730&Type=search", "url2": "www.hginohamasou.jp" }, "geometry": { "type": "Point", "coordinates": [ 136.019714199999981, 35.2996018 ] } },
{ "type": "Feature", "properties": { "内容": "小規模多機能型居宅介護　メデイケアさくら【小規模多機能型居宅介護】新旭町旭６０５番地１", "url": "https://www.kaigokensaku.mhlw.go.jp/25/index.php?action_kouhyou_detail_004_kani=true&JigyosyoCd=2592200097-00&ServiceCd=730&Type=search", "url2": "medicare@castle.ocn.ne.jp" }, "geometry": { "type": "Point", "coordinates": [ 136.039151599999968, 35.3544434 ] } },
{ "type": "Feature", "properties": { "内容": "小規模多機能型居宅介護事業所　さわの風【小規模多機能型居宅介護】マキノ町沢１７９１－１", "url": "https://www.kaigokensaku.mhlw.go.jp/25/index.php?action_kouhyou_detail_004_kani=true&JigyosyoCd=2592200113-00&ServiceCd=730&Type=search", "url2": "http://yutakakai.jp/" }, "geometry": { "type": "Point", "coordinates": [ 136.03459870000006, 35.4623594 ] } },
{ "type": "Feature", "properties": { "内容": "小規模多機能型居宅介護　しんぐう【小規模多機能型居宅介護】滋賀県東近江市新宮町323番地1", "url": "https://www.kaigokensaku.mhlw.go.jp/25/index.php?action_kouhyou_detail_004_kani=true&JigyosyoCd=2590500225-00&ServiceCd=730&Type=search", "url2": "shiga-shinjyukai.or.jp" }, "geometry": { "type": "Point", "coordinates": [ 136.148202500000025, 35.2029598 ] } },
{ "type": "Feature", "properties": { "内容": "小規模多機能型居宅介護施設第二ともの家【小規模多機能型居宅介護】宮川町６９１番地２９１", "url": "https://www.kaigokensaku.mhlw.go.jp/25/index.php?action_kouhyou_detail_004_kani=true&JigyosyoCd=2590500159-00&ServiceCd=730&Type=search", "url2": "http://www.tomonoie.org/public/" }, "geometry": { "type": "Point", "coordinates": [ 136.15830440000002, 35.0311286 ] } },
{ "type": "Feature", "properties": { "内容": "愛近江　ゆ加里【小規模多機能型居宅介護】滋賀県東近江市勝堂町1702", "url": "https://www.kaigokensaku.mhlw.go.jp/25/index.php?action_kouhyou_detail_004_kani=true&JigyosyoCd=2590500118-00&ServiceCd=730&Type=search", "url2": null }, "geometry": { "type": "Point", "coordinates": [ 136.230459900000028, 35.1540418 ] } },
{ "type": "Feature", "properties": { "内容": "東近江市社会福祉協議会小規模多機能型居宅介護事業所かじやの里の新兵衛さん【小規模多機能型居宅介護】東近江市佐野町35番地", "url": "https://www.kaigokensaku.mhlw.go.jp/25/index.php?action_kouhyou_detail_004_kani=true&JigyosyoCd=2590500019-00&ServiceCd=730&Type=search", "url2": "http://www.higashiomi-shakyo.or.jp/" }, "geometry": { "type": "Point", "coordinates": [ 136.179226699999958, 35.1769257 ] } },
{ "type": "Feature", "properties": { "内容": "小規模多機能型居宅介護ひばり【小規模多機能型居宅介護】滋賀県東近江地長町304番地", "url": "https://www.kaigokensaku.mhlw.go.jp/25/index.php?action_kouhyou_detail_004_kani=true&JigyosyoCd=2590500308-00&ServiceCd=730&Type=search", "url2": "http://shiga-shinjyukai.or.jp/" }, "geometry": { "type": "Point", "coordinates": [ 136.227694500000013, 35.1313415 ] } },
{ "type": "Feature", "properties": { "内容": "小規模多機能型居宅介護　沖野原【小規模多機能型居宅介護】滋賀県東近江市沖野三丁目10-18", "url": "https://www.kaigokensaku.mhlw.go.jp/25/index.php?action_kouhyou_detail_004_kani=true&JigyosyoCd=2590500035-00&ServiceCd=730&Type=search", "url2": "https://okinohara.jp" }, "geometry": { "type": "Point", "coordinates": [ 136.20979, 35.0947942 ] } },
{ "type": "Feature", "properties": { "内容": "愛東の杜【小規模多機能型居宅介護】妹町１０２６番地", "url": "https://www.kaigokensaku.mhlw.go.jp/25/index.php?action_kouhyou_detail_004_kani=true&JigyosyoCd=2590500076-00&ServiceCd=730&Type=search", "url2": "aitounomori@e-omi.ne.jp" }, "geometry": { "type": "Point", "coordinates": [ 136.250531099999989, 35.1025108 ] } },
{ "type": "Feature", "properties": { "内容": "しみんふくしの家八日市小規模多機能型居宅介護【小規模多機能型居宅介護】滋賀県東近江市栄町７－５", "url": "https://www.kaigokensaku.mhlw.go.jp/25/index.php?action_kouhyou_detail_004_kani=true&JigyosyoCd=2590500126-00&ServiceCd=730&Type=search", "url2": "http://shimin-yokaichi.net" }, "geometry": { "type": "Point", "coordinates": [ 136.1942103, 35.1090169 ] } },
{ "type": "Feature", "properties": { "内容": "はなれひだまり【小規模多機能型居宅介護】滋賀県米原市本郷６０３－１", "url": "https://www.kaigokensaku.mhlw.go.jp/25/index.php?action_kouhyou_detail_004_kani=true&JigyosyoCd=2592400143-00&ServiceCd=730&Type=search", "url2": "http://www.hidamari-shiga.jp" }, "geometry": { "type": "Point", "coordinates": [ 136.352043500000036, 35.3360372 ] } },
{ "type": "Feature", "properties": { "内容": "ほっとひだまり【小規模多機能型居宅介護】滋賀県米原市一色458-1", "url": "https://www.kaigokensaku.mhlw.go.jp/25/index.php?action_kouhyou_detail_004_kani=true&JigyosyoCd=2592400093-00&ServiceCd=730&Type=search", "url2": "http://www.hidamari-shiga.jp" }, "geometry": { "type": "Point", "coordinates": [ 136.356455399999959, 35.338329300000019 ] } },
{ "type": "Feature", "properties": { "内容": "みんなの家【小規模多機能型居宅介護】滋賀県米原市顔戸1729-1", "url": "https://www.kaigokensaku.mhlw.go.jp/25/index.php?action_kouhyou_detail_004_kani=true&JigyosyoCd=2592400036-00&ServiceCd=730&Type=search", "url2": "http://maibara-shakyo.or.jp/" }, "geometry": { "type": "Point", "coordinates": [ 136.301366782863596, 35.345484667479695 ] } },
{ "type": "Feature", "properties": { "内容": "白寿荘小規模多機能ホームさくらの里【小規模多機能型居宅介護】滋賀県蒲生郡日野町蓮花寺382番地", "url": "https://www.kaigokensaku.mhlw.go.jp/25/index.php?action_kouhyou_detail_004_kani=true&JigyosyoCd=2591500059-00&ServiceCd=730&Type=search", "url2": "http://koktoukai.or.jp/" }, "geometry": { "type": "Point", "coordinates": [ 136.2293694, 35.0558228 ] } },
{ "type": "Feature", "properties": { "内容": "小規模多機能山かがみ【小規模多機能型居宅介護】滋賀県蒲生郡竜王町鏡587-2", "url": "https://www.kaigokensaku.mhlw.go.jp/25/index.php?action_kouhyou_detail_004_kani=true&JigyosyoCd=2591500109-00&ServiceCd=730&Type=search", "url2": "https://yukinokai.com/" }, "geometry": { "type": "Point", "coordinates": [ 136.081622299999907, 35.0898908 ] } },
{ "type": "Feature", "properties": { "内容": "じょいふるあいしょう【小規模多機能型居宅介護】滋賀県愛知郡愛荘町愛知川808", "url": "https://www.kaigokensaku.mhlw.go.jp/25/index.php?action_kouhyou_detail_004_kani=true&JigyosyoCd=2591700048-00&ServiceCd=730&Type=search", "url2": "http://homesweethome.jp/" }, "geometry": { "type": "Point", "coordinates": [ 136.202357200000051, 35.1664586 ] } },
{ "type": "Feature", "properties": { "内容": "愛荘ゆらぎあんどん【小規模多機能型居宅介護】滋賀県愛知郡愛荘町島川1321", "url": "https://www.kaigokensaku.mhlw.go.jp/25/index.php?action_kouhyou_detail_004_kani=true&JigyosyoCd=2591700055-00&ServiceCd=730&Type=search", "url2": null }, "geometry": { "type": "Point", "coordinates": [ 136.2310377, 35.1707599 ] } },
{ "type": "Feature", "properties": { "内容": "ファミリーステーション甲良【小規模多機能型居宅介護】滋賀県犬上郡甲良町小川原536-1", "url": "https://www.kaigokensaku.mhlw.go.jp/25/index.php?action_kouhyou_detail_004_kani=true&JigyosyoCd=2591800046-00&ServiceCd=730&Type=search", "url2": "http://kotoukai.or.jp/" }, "geometry": { "type": "Point", "coordinates": [ 136.260363500000039, 35.218484 ] } },
{ "type": "Feature", "properties": { "内容": "ファミリーステーション多賀【小規模多機能型居宅介護】滋賀県犬上郡多賀町敏満寺1273-3多賀町立清涼ファミリーステーション内", "url": "https://www.kaigokensaku.mhlw.go.jp/25/index.php?action_kouhyou_detail_004_kani=true&JigyosyoCd=2591800053-00&ServiceCd=730&Type=search", "url2": "http://kotoukai.or.jp/publics/index/2/" }, "geometry": { "type": "Point", "coordinates": [ 136.280517, 35.2163931 ] } }
]
}
