{
"type": "FeatureCollection",
"name": "geo_25_訪問リハビリテーション",
"crs": { "type": "name", "properties": { "name": "urn:ogc:def:crs:OGC:1.3:CRS84" } },
"features": [
{ "type": "Feature", "properties": { "内容": "介護老人保健施設ｹｱｾﾝﾀｰ志賀（訪問リハビリテーション）【訪問リハビリテーション】大津市和邇高城260-1", "url": "https://www.kaigokensaku.mhlw.go.jp/25/index.php?action_kouhyou_detail_004_kani=true&JigyosyoCd=2550180067-00&ServiceCd=140&Type=search", "url2": "http;//www.kosei-f.jp/" }, "geometry": { "type": "Point", "coordinates": [ 135.9195092, 35.1623488 ] } },
{ "type": "Feature", "properties": { "内容": "医療法人社団　湖光会　せいらんクリニック【訪問リハビリテーション】滋賀県大津市松原町14‐7", "url": "https://www.kaigokensaku.mhlw.go.jp/25/index.php?action_kouhyou_detail_004_kani=true&JigyosyoCd=2510106939-00&ServiceCd=140&Type=search", "url2": "https://ishiyama-naika-seikei.com" }, "geometry": { "type": "Point", "coordinates": [ 135.902414200000067, 34.9781425 ] } },
{ "type": "Feature", "properties": { "内容": "大津赤十字志賀病院【訪問リハビリテーション】滋賀県大津市和邇中298", "url": "https://www.kaigokensaku.mhlw.go.jp/25/index.php?action_kouhyou_detail_004_kani=true&JigyosyoCd=2510106004-00&ServiceCd=140&Type=search", "url2": "https://www.otsu-shiga.jrc.or.jp" }, "geometry": { "type": "Point", "coordinates": [ 135.913836800000013, 35.1573099 ] } },
{ "type": "Feature", "properties": { "内容": "介護老人保健施設日和の里　訪問リハビリテーション【訪問リハビリテーション】滋賀県大津市坂本6丁目25-3", "url": "https://www.kaigokensaku.mhlw.go.jp/25/index.php?action_kouhyou_detail_004_kani=true&JigyosyoCd=2550180059-00&ServiceCd=140&Type=search", "url2": "http://shigamin.jp/hiyori/" }, "geometry": { "type": "Point", "coordinates": [ 135.8732186, 35.0745441 ] } },
{ "type": "Feature", "properties": { "内容": "介護老人保健施設レーク・ホロニー【訪問リハビリテーション】滋賀県大津市大萱７丁目7-3", "url": "https://www.kaigokensaku.mhlw.go.jp/25/index.php?action_kouhyou_detail_004_kani=true&JigyosyoCd=2550180000-00&ServiceCd=140&Type=search", "url2": "https://lake-horony.jp/" }, "geometry": { "type": "Point", "coordinates": [ 135.915630334918205, 34.995355220261722 ] } },
{ "type": "Feature", "properties": { "内容": "医療法人さんらく会遠藤クリニック【訪問リハビリテーション】滋賀県大津市千町二丁目15-22", "url": "https://www.kaigokensaku.mhlw.go.jp/25/index.php?action_kouhyou_detail_004_kani=true&JigyosyoCd=2510105089-00&ServiceCd=140&Type=search", "url2": "http://www.endo.clinic.or.jp" }, "geometry": { "type": "Point", "coordinates": [ 135.905265500000013, 34.9459281 ] } },
{ "type": "Feature", "properties": { "内容": "医療法人弘英会琵琶湖大橋病院【訪問リハビリテーション】滋賀県大津市真野5丁目1番29号", "url": "https://www.kaigokensaku.mhlw.go.jp/25/index.php?action_kouhyou_detail_004_kani=true&JigyosyoCd=2510103605-00&ServiceCd=140&Type=search", "url2": "http://www.boh.or.jp/" }, "geometry": { "type": "Point", "coordinates": [ 135.922931, 35.1283279 ] } },
{ "type": "Feature", "properties": { "内容": "浜本内科訪問リハビリステーション【訪問リハビリテーション】滋賀県大津市国分一丁目９－２３", "url": "https://www.kaigokensaku.mhlw.go.jp/25/index.php?action_kouhyou_detail_004_kani=true&JigyosyoCd=2510104454-00&ServiceCd=140&Type=search", "url2": "https://hamamotonaika.jp/" }, "geometry": { "type": "Point", "coordinates": [ 135.895198400000027, 34.9706876 ] } },
{ "type": "Feature", "properties": { "内容": "南大津クリニック【訪問リハビリテーション】滋賀県大津市大石中１丁目6-6", "url": "https://www.kaigokensaku.mhlw.go.jp/25/index.php?action_kouhyou_detail_004_kani=true&JigyosyoCd=2510105170-00&ServiceCd=140&Type=search", "url2": "http://www.ryokuseikai.jp" }, "geometry": { "type": "Point", "coordinates": [ 135.913192, 34.9107273 ] } },
{ "type": "Feature", "properties": { "内容": "青木医院【訪問リハビリテーション】滋賀県大津市和邇高城260番地の1", "url": "https://www.kaigokensaku.mhlw.go.jp/25/index.php?action_kouhyou_detail_004_kani=true&JigyosyoCd=2510105964-00&ServiceCd=140&Type=search", "url2": "http://www.koseikai.care/" }, "geometry": { "type": "Point", "coordinates": [ 135.919525900000053, 35.1623293 ] } },
{ "type": "Feature", "properties": { "内容": "東医院【訪問リハビリテーション】大津市南小松1594－170", "url": "https://www.kaigokensaku.mhlw.go.jp/25/index.php?action_kouhyou_detail_004_kani=true&JigyosyoCd=2510105972-00&ServiceCd=140&Type=search", "url2": null }, "geometry": { "type": "Point", "coordinates": [ 135.94402, 35.2319226 ] } },
{ "type": "Feature", "properties": { "内容": "医療法人幸生会　琵琶湖中央リハビリテーション病院　訪問リハビリテーション【訪問リハビリテーション】滋賀県大津市御殿浜22-33", "url": "https://www.kaigokensaku.mhlw.go.jp/25/index.php?action_kouhyou_detail_004_kani=true&JigyosyoCd=2510104546-00&ServiceCd=140&Type=search", "url2": "http://www.biwako-chuo-byoin.jp/" }, "geometry": { "type": "Point", "coordinates": [ 135.896065, 34.9893104 ] } },
{ "type": "Feature", "properties": { "内容": "医療法人弘英会　介護老人保健施設Ｂ･Ｏ･Ｈケア･サービスセンター【訪問リハビリテーション】滋賀県大津市伊香立途中町７０４番地", "url": "https://www.kaigokensaku.mhlw.go.jp/25/index.php?action_kouhyou_detail_004_kani=true&JigyosyoCd=2550180026-00&ServiceCd=140&Type=search", "url2": "https://boh-care.jp" }, "geometry": { "type": "Point", "coordinates": [ 135.875508752236868, 35.155552990031993 ] } },
{ "type": "Feature", "properties": { "内容": "医療法人社団　加音　瀬田西クリニック訪問リハビリステーション【訪問リハビリテーション】滋賀県大津市瀬田3丁目37番9号", "url": "https://www.kaigokensaku.mhlw.go.jp/25/index.php?action_kouhyou_detail_004_kani=true&JigyosyoCd=2510107804-00&ServiceCd=140&Type=search", "url2": "https://www.setanishi.jp/" }, "geometry": { "type": "Point", "coordinates": [ 135.914442499999979, 34.9647533 ] } },
{ "type": "Feature", "properties": { "内容": "地方独立行政法人市立大津市民病院在宅診療センター訪問リハビリテーション事業所【訪問リハビリテーション】本宮２丁目９番９号", "url": "https://www.kaigokensaku.mhlw.go.jp/25/index.php?action_kouhyou_detail_004_kani=true&JigyosyoCd=2510107374-00&ServiceCd=140&Type=search", "url2": "www.och.or.jp" }, "geometry": { "type": "Point", "coordinates": [ 135.8762323, 34.9999755 ] } },
{ "type": "Feature", "properties": { "内容": "医療法人華頂会　琵琶湖養育院病院　訪問リハビリステーション【訪問リハビリテーション】大津市大萱七丁目7-2", "url": "https://www.kaigokensaku.mhlw.go.jp/25/index.php?action_kouhyou_detail_004_kani=true&JigyosyoCd=2510102599-00&ServiceCd=140&Type=search", "url2": "http://www.kachokai.or.jp/" }, "geometry": { "type": "Point", "coordinates": [ 135.9157543, 34.9942021 ] } },
{ "type": "Feature", "properties": { "内容": "医療法人良善会　ひかり病院　訪問リハビリテーション【訪問リハビリテーション】滋賀県大津市際川3丁目35-1", "url": "https://www.kaigokensaku.mhlw.go.jp/25/index.php?action_kouhyou_detail_004_kani=true&JigyosyoCd=2510106152-00&ServiceCd=140&Type=search", "url2": "http://hikaribyouin.com/" }, "geometry": { "type": "Point", "coordinates": [ 135.8664556, 35.0439511 ] } },
{ "type": "Feature", "properties": { "内容": "医療法人社団　五心会　ひらたクリニック【訪問リハビリテーション】彦根市平田町448-1", "url": "https://www.kaigokensaku.mhlw.go.jp/25/index.php?action_kouhyou_detail_004_kani=true&JigyosyoCd=2510202712-00&ServiceCd=140&Type=search", "url2": null }, "geometry": { "type": "Point", "coordinates": [ 136.2384945, 35.260595 ] } },
{ "type": "Feature", "properties": { "内容": "訪問リハビリステーションオリーブ【訪問リハビリテーション】滋賀県彦根市竹ヶ鼻町80番地", "url": "https://www.kaigokensaku.mhlw.go.jp/25/index.php?action_kouhyou_detail_004_kani=true&JigyosyoCd=2550280016-00&ServiceCd=140&Type=search", "url2": "http://yujin-kaigo.com/" }, "geometry": { "type": "Point", "coordinates": [ 136.248794699999962, 35.241159 ] } },
{ "type": "Feature", "properties": { "内容": "彦根中央病院【訪問リハビリテーション】西今町421番地", "url": "https://www.kaigokensaku.mhlw.go.jp/25/index.php?action_kouhyou_detail_004_kani=true&JigyosyoCd=2510202357-00&ServiceCd=140&Type=search", "url2": "hchp@nifty.com" }, "geometry": { "type": "Point", "coordinates": [ 136.241420399999981, 35.248735500000024 ] } },
{ "type": "Feature", "properties": { "内容": "医療法人東川クリニック【訪問リハビリテーション】滋賀県長浜市弓削町342", "url": "https://www.kaigokensaku.mhlw.go.jp/25/index.php?action_kouhyou_detail_004_kani=true&JigyosyoCd=2510301365-00&ServiceCd=140&Type=search", "url2": null }, "geometry": { "type": "Point", "coordinates": [ 136.231862800000044, 35.4193502 ] } },
{ "type": "Feature", "properties": { "内容": "医療法人　みやこ　　　みやこクリニック【訪問リハビリテーション】滋賀県長浜市湖北町速水2778", "url": "https://www.kaigokensaku.mhlw.go.jp/25/index.php?action_kouhyou_detail_004_kani=true&JigyosyoCd=2510301563-00&ServiceCd=140&Type=search", "url2": "http://www.miyakoclinic.net/" }, "geometry": { "type": "Point", "coordinates": [ 136.242567399999984, 35.4485696 ] } },
{ "type": "Feature", "properties": { "内容": "訪問リハビリテーション琵琶【訪問リハビリテーション】滋賀県長浜市川道町2694", "url": "https://www.kaigokensaku.mhlw.go.jp/25/index.php?action_kouhyou_detail_004_kani=true&JigyosyoCd=2550380022-00&ServiceCd=140&Type=search", "url2": "htt://ww.simosaka.jp/indexhtml" }, "geometry": { "type": "Point", "coordinates": [ 136.236292010613965, 35.402915966651754 ] } },
{ "type": "Feature", "properties": { "内容": "にしあざい診療所【訪問リハビリテーション】滋賀県長浜市西浅井町大浦2590番地", "url": "https://www.kaigokensaku.mhlw.go.jp/25/index.php?action_kouhyou_detail_004_kani=true&JigyosyoCd=2510302025-00&ServiceCd=140&Type=search", "url2": null }, "geometry": { "type": "Point", "coordinates": [ 136.123593, 35.4982898 ] } },
{ "type": "Feature", "properties": { "内容": "介護老人保健施設　長浜メディケアセンター【訪問リハビリテーション】滋賀県長浜市加田町2984-1", "url": "https://www.kaigokensaku.mhlw.go.jp/25/index.php?action_kouhyou_detail_004_kani=true&JigyosyoCd=2550380014-00&ServiceCd=140&Type=search", "url2": "http:/seishokai.jp/nmc" }, "geometry": { "type": "Point", "coordinates": [ 136.3049945, 35.3601404 ] } },
{ "type": "Feature", "properties": { "内容": "医療法人堤整形外科【訪問リハビリテーション】滋賀県長浜市八幡中山町393-1", "url": "https://www.kaigokensaku.mhlw.go.jp/25/index.php?action_kouhyou_detail_004_kani=true&JigyosyoCd=2510301910-00&ServiceCd=140&Type=search", "url2": "https://tsutsumi-seikei.jp/" }, "geometry": { "type": "Point", "coordinates": [ 136.279453600000011, 35.3891935 ] } },
{ "type": "Feature", "properties": { "内容": "介護老人保健施設　ヴォーリズ老健センター【訪問リハビリテーション】近江八幡市北之庄町492番地", "url": "https://www.kaigokensaku.mhlw.go.jp/25/index.php?action_kouhyou_detail_004_kani=true&JigyosyoCd=2550480012-00&ServiceCd=140&Type=search", "url2": "http://vo-roken.com/" }, "geometry": { "type": "Point", "coordinates": [ 136.0895204, 35.1524399 ] } },
{ "type": "Feature", "properties": { "内容": "ヴォーリズ記念病院　リハビリテーション技術科　訪問リハビリ部門【訪問リハビリテーション】滋賀県近江八幡市円山町927番地1", "url": "https://www.kaigokensaku.mhlw.go.jp/25/index.php?action_kouhyou_detail_004_kani=true&JigyosyoCd=2510401694-00&ServiceCd=140&Type=search", "url2": "https://www.vories.or.jp/" }, "geometry": { "type": "Point", "coordinates": [ 136.092451, 35.154053400000016 ] } },
{ "type": "Feature", "properties": { "内容": "医療法人医誠会　介護老人保健施設　エスペラル近江八幡【訪問リハビリテーション】滋賀県近江八幡市大房町1002番地1", "url": "https://www.kaigokensaku.mhlw.go.jp/25/index.php?action_kouhyou_detail_004_kani=true&JigyosyoCd=2550480020-00&ServiceCd=140&Type=search", "url2": "http://www.esp-omihachiman.com" }, "geometry": { "type": "Point", "coordinates": [ 136.0780859, 35.1271435 ] } },
{ "type": "Feature", "properties": { "内容": "おさだファミリークリニックメディカルリハらん【訪問リハビリテーション】滋賀県近江八幡市長田町1268-1", "url": "https://www.kaigokensaku.mhlw.go.jp/25/index.php?action_kouhyou_detail_004_kani=true&JigyosyoCd=2510401470-00&ServiceCd=140&Type=search", "url2": null }, "geometry": { "type": "Point", "coordinates": [ 136.1185654, 35.1367879 ] } },
{ "type": "Feature", "properties": { "内容": "若草診療所【訪問リハビリテーション】草津市若草５丁目１３－１", "url": "https://www.kaigokensaku.mhlw.go.jp/25/index.php?action_kouhyou_detail_004_kani=true&JigyosyoCd=2510601731-00&ServiceCd=140&Type=search", "url2": "http://wakakusacl.com/" }, "geometry": { "type": "Point", "coordinates": [ 135.970455, 34.9851488 ] } },
{ "type": "Feature", "properties": { "内容": "南草津病院　訪問リハビリテーション【訪問リハビリテーション】滋賀県草津市野路５丁目２番３９号", "url": "https://www.kaigokensaku.mhlw.go.jp/25/index.php?action_kouhyou_detail_004_kani=true&JigyosyoCd=2510601954-00&ServiceCd=140&Type=search", "url2": "http://www.373932hp.jp/" }, "geometry": { "type": "Point", "coordinates": [ 135.951614800000016, 35.0020578 ] } },
{ "type": "Feature", "properties": { "内容": "草津ケアセンター　訪問リハビリステーション【訪問リハビリテーション】滋賀県草津市野村2丁目13番13号介護老人保健施設　草津ケアセンター", "url": "https://www.kaigokensaku.mhlw.go.jp/25/index.php?action_kouhyou_detail_004_kani=true&JigyosyoCd=2550680017-00&ServiceCd=140&Type=search", "url2": "http://www.kusatsu-gh.or.jp" }, "geometry": { "type": "Point", "coordinates": [ 135.9534231, 35.025377 ] } },
{ "type": "Feature", "properties": { "内容": "医療法人小西醫院【訪問リハビリテーション】守山市洲本町1256-6", "url": "https://www.kaigokensaku.mhlw.go.jp/25/index.php?action_kouhyou_detail_004_kani=true&JigyosyoCd=2510701010-00&ServiceCd=140&Type=search", "url2": "http://www.konishiclinic.com/" }, "geometry": { "type": "Point", "coordinates": [ 135.971542, 35.0885303 ] } },
{ "type": "Feature", "properties": { "内容": "金沢整形外科クリニック　訪問リハビリ　あすた【訪問リハビリテーション】栗東市小野881", "url": "https://www.kaigokensaku.mhlw.go.jp/25/index.php?action_kouhyou_detail_004_kani=true&JigyosyoCd=2511200756-00&ServiceCd=140&Type=search", "url2": "http://www.kanazawasseikei.or.jp/" }, "geometry": { "type": "Point", "coordinates": [ 136.009144500000048, 35.0256239 ] } },
{ "type": "Feature", "properties": { "内容": "介護老人保健施設ケアポート栗東【訪問リハビリテーション】栗東市大橋２丁目８番２号", "url": "https://www.kaigokensaku.mhlw.go.jp/25/index.php?action_kouhyou_detail_004_kani=true&JigyosyoCd=2551280015-00&ServiceCd=140&Type=search", "url2": "http//www.careport-rittou.jp" }, "geometry": { "type": "Point", "coordinates": [ 136.001184100000046, 35.031846 ] } },
{ "type": "Feature", "properties": { "内容": "訪問リハビリテーション心地【訪問リハビリテーション】甲南町野尻７７－１", "url": "https://www.kaigokensaku.mhlw.go.jp/25/index.php?action_kouhyou_detail_004_kani=true&JigyosyoCd=2511401776-00&ServiceCd=140&Type=search", "url2": "t-seikei.jp" }, "geometry": { "type": "Point", "coordinates": [ 136.182606299999946, 34.915098 ] } },
{ "type": "Feature", "properties": { "内容": "公立甲賀病院訪問リハビリテーション事業所【訪問リハビリテーション】滋賀県甲賀市水口町松尾1256番地", "url": "https://www.kaigokensaku.mhlw.go.jp/25/index.php?action_kouhyou_detail_004_kani=true&JigyosyoCd=2511402261-00&ServiceCd=140&Type=search", "url2": "https://www.kohka-hp.or.jp/" }, "geometry": { "type": "Point", "coordinates": [ 136.177922099999989, 34.9826835 ] } },
{ "type": "Feature", "properties": { "内容": "甲南病院訪問リハビリテーション事業所【訪問リハビリテーション】滋賀県甲賀市甲南町葛木958番地", "url": "https://www.kaigokensaku.mhlw.go.jp/25/index.php?action_kouhyou_detail_004_kani=true&JigyosyoCd=2511401628-00&ServiceCd=140&Type=search", "url2": "http://www.kohnan-shiga.or.jp/" }, "geometry": { "type": "Point", "coordinates": [ 136.175389399999972, 34.9290464 ] } },
{ "type": "Feature", "properties": { "内容": "介護老人保健施設　寿々はうす【訪問リハビリテーション】滋賀県野洲市八夫２０７７", "url": "https://www.kaigokensaku.mhlw.go.jp/25/index.php?action_kouhyou_detail_004_kani=true&JigyosyoCd=2551380013-00&ServiceCd=140&Type=search", "url2": "http://www.konan-psy.or.jp/" }, "geometry": { "type": "Point", "coordinates": [ 136.0213522, 35.0887954 ] } },
{ "type": "Feature", "properties": { "内容": "市立野洲病院訪問リハビリテーション【訪問リハビリテーション】滋賀県野洲市小篠原1094番地", "url": "https://www.kaigokensaku.mhlw.go.jp/25/index.php?action_kouhyou_detail_004_kani=true&JigyosyoCd=2511301232-00&ServiceCd=140&Type=search", "url2": "https://www.yasu-hp.jp/" }, "geometry": { "type": "Point", "coordinates": [ 136.023234382371527, 35.064562376426046 ] } },
{ "type": "Feature", "properties": { "内容": "甲西中央クリニック訪問リハビリテーション事業所【訪問リハビリテーション】滋賀県湖南市中央２-１２５", "url": "https://www.kaigokensaku.mhlw.go.jp/25/index.php?action_kouhyou_detail_004_kani=true&JigyosyoCd=2512300340-00&ServiceCd=140&Type=search", "url2": "http://ikuta-hospital.com/" }, "geometry": { "type": "Point", "coordinates": [ 136.082920599999966, 35.0051474 ] } },
{ "type": "Feature", "properties": { "内容": "生田病院訪問リハビリテーション事業所【訪問リハビリテーション】湖南市菩提寺104-13", "url": "https://www.kaigokensaku.mhlw.go.jp/25/index.php?action_kouhyou_detail_004_kani=true&JigyosyoCd=2512300183-00&ServiceCd=140&Type=search", "url2": "http://ikuta-hospital.com" }, "geometry": { "type": "Point", "coordinates": [ 136.073257600000034, 35.0227675 ] } },
{ "type": "Feature", "properties": { "内容": "甲西リハビリ病院訪問リハビリセンター【訪問リハビリテーション】湖南市夏見１１６８番地", "url": "https://www.kaigokensaku.mhlw.go.jp/25/index.php?action_kouhyou_detail_004_kani=true&JigyosyoCd=2512300118-00&ServiceCd=140&Type=search", "url2": "http://kousei-rh-hp.or.jp" }, "geometry": { "type": "Point", "coordinates": [ 136.090011600000025, 34.998451 ] } },
{ "type": "Feature", "properties": { "内容": "今津病院　訪問リハビリテーション【訪問リハビリテーション】高島市今津町南新保87番地1", "url": "https://www.kaigokensaku.mhlw.go.jp/25/index.php?action_kouhyou_detail_004_kani=true&JigyosyoCd=2512201100-00&ServiceCd=140&Type=search", "url2": "http://www.oumiairinen.org/hospital/rihabiri/homon.htm" }, "geometry": { "type": "Point", "coordinates": [ 136.042949599999929, 35.4073096 ] } },
{ "type": "Feature", "properties": { "内容": "医療法人マキノ病院【訪問リハビリテーション】滋賀県高島市マキノ町新保1097番地", "url": "https://www.kaigokensaku.mhlw.go.jp/25/index.php?action_kouhyou_detail_004_kani=true&JigyosyoCd=2512201043-00&ServiceCd=140&Type=search", "url2": "http://www.makino-hosp.or.jp/" }, "geometry": { "type": "Point", "coordinates": [ 136.032829699999979, 35.4457531 ] } },
{ "type": "Feature", "properties": { "内容": "訪問リハビリテーション　グリーンテラス【訪問リハビリテーション】滋賀県高島市新旭町旭696番地", "url": "https://www.kaigokensaku.mhlw.go.jp/25/index.php?action_kouhyou_detail_004_kani=true&JigyosyoCd=2552280022-00&ServiceCd=140&Type=search", "url2": null }, "geometry": { "type": "Point", "coordinates": [ 136.045472, 35.3525186 ] } },
{ "type": "Feature", "properties": { "内容": "医療法人社団幸信会　青葉メディカル訪問リハビリテーション【訪問リハビリテーション】滋賀県東近江市青葉町1-46", "url": "https://www.kaigokensaku.mhlw.go.jp/25/index.php?action_kouhyou_detail_004_kani=true&JigyosyoCd=2510500693-00&ServiceCd=140&Type=search", "url2": "http://www.aoba-med.com" }, "geometry": { "type": "Point", "coordinates": [ 136.197524, 35.1060311 ] } },
{ "type": "Feature", "properties": { "内容": "東近江市永源寺診療所【訪問リハビリテーション】滋賀県東近江市山上町1352", "url": "https://www.kaigokensaku.mhlw.go.jp/25/index.php?action_kouhyou_detail_004_kani=true&JigyosyoCd=2510500883-00&ServiceCd=140&Type=search", "url2": "https://eigenji-clinic.jp/" }, "geometry": { "type": "Point", "coordinates": [ 136.2988334, 35.075333 ] } },
{ "type": "Feature", "properties": { "内容": "医療法人社団昴会　東近江市蒲生医療センター指定訪問リハビリテーション事業所【訪問リハビリテーション】滋賀県東近江市桜川西町３４０番地", "url": "https://www.kaigokensaku.mhlw.go.jp/25/index.php?action_kouhyou_detail_004_kani=true&JigyosyoCd=2510501303-00&ServiceCd=140&Type=search", "url2": "http://gamo-hp.siga.jp/" }, "geometry": { "type": "Point", "coordinates": [ 136.187830665308411, 35.060241368426112 ] } },
{ "type": "Feature", "properties": { "内容": "東近江敬愛病院【訪問リハビリテーション】八日市東本町8番16号", "url": "https://www.kaigokensaku.mhlw.go.jp/25/index.php?action_kouhyou_detail_004_kani=true&JigyosyoCd=2510500503-00&ServiceCd=140&Type=search", "url2": "http://www.keiaikai.or.jp/" }, "geometry": { "type": "Point", "coordinates": [ 136.204059700000016, 35.1089227 ] } },
{ "type": "Feature", "properties": { "内容": "近江訪問リハ・ステーション【訪問リハビリテーション】東近江市北坂町９６６", "url": "https://www.kaigokensaku.mhlw.go.jp/25/index.php?action_kouhyou_detail_004_kani=true&JigyosyoCd=2510500859-00&ServiceCd=140&Type=search", "url2": "http:www.oumi-hp.or.jp" }, "geometry": { "type": "Point", "coordinates": [ 136.275343900000053, 35.1321416 ] } },
{ "type": "Feature", "properties": { "内容": "リハビリセンターあゆみ【訪問リハビリテーション】東近江市新宮町５５８", "url": "https://www.kaigokensaku.mhlw.go.jp/25/index.php?action_kouhyou_detail_004_kani=true&JigyosyoCd=2550580035-00&ServiceCd=140&Type=search", "url2": "http://shiga-shinjyukai.or.jp/" }, "geometry": { "type": "Point", "coordinates": [ 136.149446799999964, 35.2009388 ] } },
{ "type": "Feature", "properties": { "内容": "ニコニコリハビリステーション【訪問リハビリテーション】滋賀県東近江市垣見町1597", "url": "https://www.kaigokensaku.mhlw.go.jp/25/index.php?action_kouhyou_detail_004_kani=true&JigyosyoCd=2510501311-00&ServiceCd=140&Type=search", "url2": "http://nikoriha.com" }, "geometry": { "type": "Point", "coordinates": [ 136.164333208004024, 35.182106530016746 ] } },
{ "type": "Feature", "properties": { "内容": "うらべ在宅クリニック【訪問リハビリテーション】滋賀県東近江市横溝町305番地1", "url": "https://www.kaigokensaku.mhlw.go.jp/25/index.php?action_kouhyou_detail_004_kani=true&JigyosyoCd=2570501581-00&ServiceCd=140&Type=search", "url2": "https://urabehome.com/" }, "geometry": { "type": "Point", "coordinates": [ 136.243564600000013, 35.1319895 ] } },
{ "type": "Feature", "properties": { "内容": "介護老人保健施設　ここちの郷【訪問リハビリテーション】滋賀県東近江市五個荘山本町466", "url": "https://www.kaigokensaku.mhlw.go.jp/25/index.php?action_kouhyou_detail_004_kani=true&JigyosyoCd=2550580019-00&ServiceCd=140&Type=search", "url2": "http://www.rokushinnkai.com/kokochi/" }, "geometry": { "type": "Point", "coordinates": [ 136.1803871, 35.1400233 ] } },
{ "type": "Feature", "properties": { "内容": "近江診療所【訪問リハビリテーション】滋賀県米原市新庄77-1", "url": "https://www.kaigokensaku.mhlw.go.jp/25/index.php?action_kouhyou_detail_004_kani=true&JigyosyoCd=2512400371-00&ServiceCd=140&Type=search", "url2": "ｈｔｔｐ：//ｆｕｋｕｓｈｉａ．ｊａｄｅｃｏｍ．ｏｒ．ｊｐ" }, "geometry": { "type": "Point", "coordinates": [ 136.313387400000011, 35.335132500000022 ] } },
{ "type": "Feature", "properties": { "内容": "地域包括ケアセンターいぶき【訪問リハビリテーション】滋賀県米原市春照58-1", "url": "https://www.kaigokensaku.mhlw.go.jp/25/index.php?action_kouhyou_detail_004_kani=true&JigyosyoCd=2512400264-00&ServiceCd=140&Type=search", "url2": "https://www.jadecom.or.jp/jadecomhp/ibuki" }, "geometry": { "type": "Point", "coordinates": [ 136.382650900000044, 35.3835069 ] } },
{ "type": "Feature", "properties": { "内容": "訪問リハビリテーションいそクリニック【訪問リハビリテーション】米原市磯1729－1悠悠の館　　いそクリニック内", "url": "https://www.kaigokensaku.mhlw.go.jp/25/index.php?action_kouhyou_detail_004_kani=true&JigyosyoCd=2512400322-00&ServiceCd=140&Type=search", "url2": "http://www.iso-clinc.jp/" }, "geometry": { "type": "Point", "coordinates": [ 136.262007400000016, 35.3108144 ] } },
{ "type": "Feature", "properties": { "内容": "訪問リハビリテーション　坂田メディケアセンター【訪問リハビリテーション】滋賀県米原市野一色1136", "url": "https://www.kaigokensaku.mhlw.go.jp/25/index.php?action_kouhyou_detail_004_kani=true&JigyosyoCd=2552480010-00&ServiceCd=140&Type=search", "url2": "http://www.seishokai.jp/smc" }, "geometry": { "type": "Point", "coordinates": [ 136.3532472, 35.3860596 ] } },
{ "type": "Feature", "properties": { "内容": "弓削メディカルクリニック　在宅医療部【訪問リハビリテーション】弓削1825", "url": "https://www.kaigokensaku.mhlw.go.jp/25/index.php?action_kouhyou_detail_004_kani=true&JigyosyoCd=2511500650-00&ServiceCd=140&Type=search", "url2": "http://yugemed.com/" }, "geometry": { "type": "Point", "coordinates": [ 136.11966, 35.0882634 ] } },
{ "type": "Feature", "properties": { "内容": "公益財団法人豊郷病院　訪問リハビリテーション　アイルとよさと【訪問リハビリテーション】滋賀県犬上郡豊郷町八目１２番地", "url": "https://www.kaigokensaku.mhlw.go.jp/25/index.php?action_kouhyou_detail_004_kani=true&JigyosyoCd=2511800019-00&ServiceCd=140&Type=search", "url2": "http://www.toyosato.or.jp" }, "geometry": { "type": "Point", "coordinates": [ 136.231107100000031, 35.1987905 ] } }
]
}
