{
"type": "FeatureCollection",
"name": "geo_25_短期入所療養介護（介護老人保健施設）",
"crs": { "type": "name", "properties": { "name": "urn:ogc:def:crs:OGC:1.3:CRS84" } },
"features": [
{ "type": "Feature", "properties": { "内容": "医療法人堅田病院介護老人保健施設虹水苑【短期入所療養介護（介護老人保健施設）】大津市仰木七丁目18-15", "url": "https://www.kaigokensaku.mhlw.go.jp/25/index.php?action_kouhyou_detail_004_kani=true&JigyosyoCd=2550180042-00&ServiceCd=220&Type=search", "url2": null }, "geometry": { "type": "Point", "coordinates": [ 135.895087099999955, 35.1144898 ] } },
{ "type": "Feature", "properties": { "内容": "介護老人保健施設日和の里【短期入所療養介護（介護老人保健施設）】滋賀県大津市坂本6丁目25番3号", "url": "https://www.kaigokensaku.mhlw.go.jp/25/index.php?action_kouhyou_detail_004_kani=true&JigyosyoCd=2550180059-00&ServiceCd=220&Type=search", "url2": "http://shigamin.jp/hiyori/" }, "geometry": { "type": "Point", "coordinates": [ 135.87325409999994, 35.0745916 ] } },
{ "type": "Feature", "properties": { "内容": "医療法人弘英会　介護老人保健施設Ｂ･Ｏ･Ｈケア･サービスセンター【短期入所療養介護（介護老人保健施設）】滋賀県大津市伊香立途中町７０４番地", "url": "https://www.kaigokensaku.mhlw.go.jp/25/index.php?action_kouhyou_detail_004_kani=true&JigyosyoCd=2550180026-00&ServiceCd=220&Type=search", "url2": "http://boh-care.jp" }, "geometry": { "type": "Point", "coordinates": [ 135.875503387818839, 35.15555299003578 ] } },
{ "type": "Feature", "properties": { "内容": "介護老人保健施設レーク・ホロニー【短期入所療養介護（介護老人保健施設）】滋賀県大津市大萱七丁目7番3号介護老人保健施設レーク・ホロニー", "url": "https://www.kaigokensaku.mhlw.go.jp/25/index.php?action_kouhyou_detail_004_kani=true&JigyosyoCd=2550180000-00&ServiceCd=220&Type=search", "url2": "http://www18.ocn.jp/^katyou/index.htm" }, "geometry": { "type": "Point", "coordinates": [ 135.915623800000049, 34.9953159 ] } },
{ "type": "Feature", "properties": { "内容": "介護老人保健施設ケアセンター志賀【短期入所療養介護（介護老人保健施設）】大津市和邇高城260番1", "url": "https://www.kaigokensaku.mhlw.go.jp/25/index.php?action_kouhyou_detail_004_kani=true&JigyosyoCd=2550180067-00&ServiceCd=220&Type=search", "url2": "http://www.koseikai.care/" }, "geometry": { "type": "Point", "coordinates": [ 135.919525900000053, 35.162329300000017 ] } },
{ "type": "Feature", "properties": { "内容": "独立行政法人地域医療機能推進機構　滋賀病院附属介護老人保健施設【短期入所療養介護（介護老人保健施設）】大津市富士見台16-1", "url": "https://www.kaigokensaku.mhlw.go.jp/25/index.php?action_kouhyou_detail_004_kani=true&JigyosyoCd=2550180034-00&ServiceCd=220&Type=search", "url2": "http://shiga.jcho.go.jp/rouken/" }, "geometry": { "type": "Point", "coordinates": [ 135.884505100000069, 34.9863133 ] } },
{ "type": "Feature", "properties": { "内容": "介護老人保健施設アロフェンテ彦根【短期入所療養介護（介護老人保健施設）】滋賀県彦根市竹ヶ鼻町80番地", "url": "https://www.kaigokensaku.mhlw.go.jp/25/index.php?action_kouhyou_detail_004_kani=true&JigyosyoCd=2550280016-00&ServiceCd=220&Type=search", "url2": "http://yujin-kaigo.com/" }, "geometry": { "type": "Point", "coordinates": [ 136.248794699999962, 35.241159 ] } },
{ "type": "Feature", "properties": { "内容": "介護老人保健施設　琵琶【短期入所療養介護（介護老人保健施設）】滋賀県長浜市川道町2694", "url": "https://www.kaigokensaku.mhlw.go.jp/25/index.php?action_kouhyou_detail_004_kani=true&JigyosyoCd=2550380022-00&ServiceCd=220&Type=search", "url2": "http://www.simosaka.jp" }, "geometry": { "type": "Point", "coordinates": [ 136.236295599999949, 35.4029218 ] } },
{ "type": "Feature", "properties": { "内容": "介護老人保健施設　長浜メディケアセンター【短期入所療養介護（介護老人保健施設）】滋賀県長浜市加田町2984-1", "url": "https://www.kaigokensaku.mhlw.go.jp/25/index.php?action_kouhyou_detail_004_kani=true&JigyosyoCd=2550380014-00&ServiceCd=220&Type=search", "url2": "http://seishokai.jp/nmc" }, "geometry": { "type": "Point", "coordinates": [ 136.304918899999961, 35.3602097 ] } },
{ "type": "Feature", "properties": { "内容": "介護老人保健施設　湖北やすらぎの里【短期入所療養介護（介護老人保健施設）】滋賀県長浜市木之本町黒田1221番地", "url": "https://www.kaigokensaku.mhlw.go.jp/25/index.php?action_kouhyou_detail_004_kani=true&JigyosyoCd=2550380030-00&ServiceCd=220&Type=search", "url2": "http://www.ikbk.jp/kohokuyasuraginosato/" }, "geometry": { "type": "Point", "coordinates": [ 136.212835653442426, 35.504089653633976 ] } },
{ "type": "Feature", "properties": { "内容": "介護老人保健施設　ヴォーリズ老健センター【短期入所療養介護（介護老人保健施設）】近江八幡市北之庄町４９２番地", "url": "https://www.kaigokensaku.mhlw.go.jp/25/index.php?action_kouhyou_detail_004_kani=true&JigyosyoCd=2550480012-00&ServiceCd=220&Type=search", "url2": "http://vo-roken.com/" }, "geometry": { "type": "Point", "coordinates": [ 136.089671599999974, 35.1524025 ] } },
{ "type": "Feature", "properties": { "内容": "医療法人医誠会　介護老人保健施設　エスペラル近江八幡【短期入所療養介護（介護老人保健施設）】滋賀県近江八幡市大房町1002番地1", "url": "https://www.kaigokensaku.mhlw.go.jp/25/index.php?action_kouhyou_detail_004_kani=true&JigyosyoCd=2550480020-00&ServiceCd=220&Type=search", "url2": "http://www.esp-omihachiman.com/" }, "geometry": { "type": "Point", "coordinates": [ 136.07804520000002, 35.1272427 ] } },
{ "type": "Feature", "properties": { "内容": "介護老人保健施設ケアタウン南草津【短期入所療養介護（介護老人保健施設）】草津市矢橋町６２１番地", "url": "https://www.kaigokensaku.mhlw.go.jp/25/index.php?action_kouhyou_detail_004_kani=true&JigyosyoCd=2550680025-00&ServiceCd=220&Type=search", "url2": "http://www.yotsuba-lcn.or.jp" }, "geometry": { "type": "Point", "coordinates": [ 135.927025299999968, 35.0031347 ] } },
{ "type": "Feature", "properties": { "内容": "社会医療法人誠光会介護老人保健施設草津ケアセンター【短期入所療養介護（介護老人保健施設）】草津市野村二丁目13-13", "url": "https://www.kaigokensaku.mhlw.go.jp/25/index.php?action_kouhyou_detail_004_kani=true&JigyosyoCd=2550680017-00&ServiceCd=220&Type=search", "url2": "https://www.seikoukai-sc.or.jp/care_center/" }, "geometry": { "type": "Point", "coordinates": [ 135.953325100000029, 35.0253266 ] } },
{ "type": "Feature", "properties": { "内容": "介護老人保健施設　守山すみれ苑【短期入所療養介護（介護老人保健施設）】荒見町300番地１", "url": "https://www.kaigokensaku.mhlw.go.jp/25/index.php?action_kouhyou_detail_004_kani=true&JigyosyoCd=2550780015-00&ServiceCd=220&Type=search", "url2": null }, "geometry": { "type": "Point", "coordinates": [ 135.981785599999967, 35.0850505 ] } },
{ "type": "Feature", "properties": { "内容": "介護老人保健施設ケアポート栗東【短期入所療養介護（介護老人保健施設）】栗東市大橋二丁目８番２号", "url": "https://www.kaigokensaku.mhlw.go.jp/25/index.php?action_kouhyou_detail_004_kani=true&JigyosyoCd=2551280015-00&ServiceCd=220&Type=search", "url2": "https://www.careport-rittou.jp" }, "geometry": { "type": "Point", "coordinates": [ 136.001184100000046, 35.031846 ] } },
{ "type": "Feature", "properties": { "内容": "介護老人保健施設　スキナヴィラ水口【短期入所療養介護（介護老人保健施設）】滋賀県甲賀市水口町本町2丁目2番43号", "url": "https://www.kaigokensaku.mhlw.go.jp/25/index.php?action_kouhyou_detail_004_kani=true&JigyosyoCd=2551480003-00&ServiceCd=220&Type=search", "url2": "http://www.minakuchi-hp.or.jp/" }, "geometry": { "type": "Point", "coordinates": [ 136.175756, 34.970892 ] } },
{ "type": "Feature", "properties": { "内容": "介護老人保健施設スキナヴィラ甲賀【短期入所療養介護（介護老人保健施設）】滋賀県甲賀市水口町新町１丁目１－１３", "url": "https://www.kaigokensaku.mhlw.go.jp/25/index.php?action_kouhyou_detail_004_kani=true&JigyosyoCd=2551480045-00&ServiceCd=220&Type=search", "url2": "http://www.minakuchi-hp.or.jp/" }, "geometry": { "type": "Point", "coordinates": [ 136.1772111, 34.9710718 ] } },
{ "type": "Feature", "properties": { "内容": "介護老人保健施設　野洲すみれ苑【短期入所療養介護（介護老人保健施設）】滋賀県野洲市小篠原490-1", "url": "https://www.kaigokensaku.mhlw.go.jp/25/index.php?action_kouhyou_detail_004_kani=true&JigyosyoCd=2551380021-00&ServiceCd=220&Type=search", "url2": "http://www.sumire.or.jp/" }, "geometry": { "type": "Point", "coordinates": [ 136.024408900000026, 35.0676426 ] } },
{ "type": "Feature", "properties": { "内容": "介護老人保健施設　寿々はうす【短期入所療養介護（介護老人保健施設）】滋賀県野洲市八夫2077", "url": "https://www.kaigokensaku.mhlw.go.jp/25/index.php?action_kouhyou_detail_004_kani=true&JigyosyoCd=2551380013-00&ServiceCd=220&Type=search", "url2": "http://www.konan-psy.or.jp/" }, "geometry": { "type": "Point", "coordinates": [ 136.021453699999938, 35.0887735 ] } },
{ "type": "Feature", "properties": { "内容": "介護老人保健施設石部ケアセンター【短期入所療養介護（介護老人保健施設）】湖南市丸山四丁目5番1号", "url": "https://www.kaigokensaku.mhlw.go.jp/25/index.php?action_kouhyou_detail_004_kani=true&JigyosyoCd=2552380012-00&ServiceCd=220&Type=search", "url2": "http://hachikikai.com" }, "geometry": { "type": "Point", "coordinates": [ 136.046080299999971, 34.9987732 ] } },
{ "type": "Feature", "properties": { "内容": "介護老人保健施設　ケアセンターこうせい【短期入所療養介護（介護老人保健施設）】滋賀県湖南市菩提寺104-14", "url": "https://www.kaigokensaku.mhlw.go.jp/25/index.php?action_kouhyou_detail_004_kani=true&JigyosyoCd=2552380020-00&ServiceCd=220&Type=search", "url2": "http//carecenter-kosei.com" }, "geometry": { "type": "Point", "coordinates": [ 136.072988200000026, 35.0221787 ] } },
{ "type": "Feature", "properties": { "内容": "介護老人保健施設陽光の里【短期入所療養介護（介護老人保健施設）】滋賀県高島市勝野1667番14", "url": "https://www.kaigokensaku.mhlw.go.jp/25/index.php?action_kouhyou_detail_004_kani=true&JigyosyoCd=2552280014-00&ServiceCd=220&Type=search", "url2": "http://www.city.takashima.shiga.jp" }, "geometry": { "type": "Point", "coordinates": [ 136.0122407, 35.2928518 ] } },
{ "type": "Feature", "properties": { "内容": "医療法人社団四葉会　短期入所療養介護　グリーンテラス【短期入所療養介護（介護老人保健施設）】滋賀県高島市新旭町旭696番地", "url": "https://www.kaigokensaku.mhlw.go.jp/25/index.php?action_kouhyou_detail_004_kani=true&JigyosyoCd=2552280022-00&ServiceCd=220&Type=search", "url2": null }, "geometry": { "type": "Point", "coordinates": [ 136.045472, 35.3525186 ] } },
{ "type": "Feature", "properties": { "内容": "介護老人保健施設ケアセンター蒲生野【短期入所療養介護（介護老人保健施設）】東近江市桜川西町３４０", "url": "https://www.kaigokensaku.mhlw.go.jp/25/index.php?action_kouhyou_detail_004_kani=true&JigyosyoCd=2550580027-00&ServiceCd=220&Type=search", "url2": "https://yukinokai.com/" }, "geometry": { "type": "Point", "coordinates": [ 136.188193299999966, 35.0593614 ] } },
{ "type": "Feature", "properties": { "内容": "医療法人社団幸信会　介護老人保健施設ウェル青葉【短期入所療養介護（介護老人保健施設）】滋賀県東近江市青葉町1-46", "url": "https://www.kaigokensaku.mhlw.go.jp/25/index.php?action_kouhyou_detail_004_kani=true&JigyosyoCd=2550580043-00&ServiceCd=220&Type=search", "url2": "https://aoba-med.com" }, "geometry": { "type": "Point", "coordinates": [ 136.197524, 35.1060311 ] } },
{ "type": "Feature", "properties": { "内容": "リハビリセンターあゆみ【短期入所療養介護（介護老人保健施設）】東近江市新宮町５５８", "url": "https://www.kaigokensaku.mhlw.go.jp/25/index.php?action_kouhyou_detail_004_kani=true&JigyosyoCd=2550580035-00&ServiceCd=220&Type=search", "url2": "http://www.shiga-shinjyukai.or.jp/" }, "geometry": { "type": "Point", "coordinates": [ 136.149446799999964, 35.2009388 ] } },
{ "type": "Feature", "properties": { "内容": "介護老人保健施設　ここちの郷【短期入所療養介護（介護老人保健施設）】滋賀県東近江市五個荘山本町４６６", "url": "https://www.kaigokensaku.mhlw.go.jp/25/index.php?action_kouhyou_detail_004_kani=true&JigyosyoCd=2550580019-00&ServiceCd=220&Type=search", "url2": "https://www.rokushinkai.com/kokochi/" }, "geometry": { "type": "Point", "coordinates": [ 136.1805756, 35.140083 ] } },
{ "type": "Feature", "properties": { "内容": "ケアセンターいぶき介護老人保健施設【短期入所療養介護（介護老人保健施設）】滋賀県米原市春照58-1", "url": "https://www.kaigokensaku.mhlw.go.jp/25/index.php?action_kouhyou_detail_004_kani=true&JigyosyoCd=2572400246-00&ServiceCd=220&Type=search", "url2": "https://ibuki.jadecom.or.jp/" }, "geometry": { "type": "Point", "coordinates": [ 136.382650900000044, 35.3835069 ] } },
{ "type": "Feature", "properties": { "内容": "介護老人保健施設　坂田メディケアセンター【短期入所療養介護（介護老人保健施設）】滋賀県米原市野一色1136", "url": "https://www.kaigokensaku.mhlw.go.jp/25/index.php?action_kouhyou_detail_004_kani=true&JigyosyoCd=2552480010-00&ServiceCd=220&Type=search", "url2": "http://www.s.seishokai.jp/sakatamc" }, "geometry": { "type": "Point", "coordinates": [ 136.353926499999943, 35.3860764 ] } },
{ "type": "Feature", "properties": { "内容": "医療法人社団昴会　介護老人保健施設リスタあすなろ【短期入所療養介護（介護老人保健施設）】上野田２４６番地", "url": "https://www.kaigokensaku.mhlw.go.jp/25/index.php?action_kouhyou_detail_004_kani=true&JigyosyoCd=2551580059-00&ServiceCd=220&Type=search", "url2": "http://www.subarukai.jp/cms_asunaro/" }, "geometry": { "type": "Point", "coordinates": [ 136.2362693, 35.0181052 ] } },
{ "type": "Feature", "properties": { "内容": "介護老人保健施設　パストラールとよさと【短期入所療養介護（介護老人保健施設）】滋賀県犬上郡豊郷町石畑２１２", "url": "https://www.kaigokensaku.mhlw.go.jp/25/index.php?action_kouhyou_detail_004_kani=true&JigyosyoCd=2551880012-00&ServiceCd=220&Type=search", "url2": "http://www.toyosato.or.jp/" }, "geometry": { "type": "Point", "coordinates": [ 136.230062699999962, 35.1996542 ] } }
]
}
