{
"type": "FeatureCollection",
"name": "geo_25_福祉用具貸与",
"crs": { "type": "name", "properties": { "name": "urn:ogc:def:crs:OGC:1.3:CRS84" } },
"features": [
{ "type": "Feature", "properties": { "内容": "有限会社ほっと【福祉用具貸与】滋賀県大津市南郷1丁目20-19", "url": "https://www.kaigokensaku.mhlw.go.jp/25/index.php?action_kouhyou_detail_004_kani=true&JigyosyoCd=2570100814-00&ServiceCd=170&Type=search", "url2": null }, "geometry": { "type": "Point", "coordinates": [ 135.908941199999958, 34.9385521 ] } },
{ "type": "Feature", "properties": { "内容": "株式会社ヤマシタ　大津営業所【福祉用具貸与】大萱一丁目15-34くきのビル4階", "url": "https://www.kaigokensaku.mhlw.go.jp/25/index.php?action_kouhyou_detail_004_kani=true&JigyosyoCd=2570101135-00&ServiceCd=170&Type=search", "url2": "http://www.yco.co.jp" }, "geometry": { "type": "Point", "coordinates": [ 135.926659099192165, 34.985605021260319 ] } },
{ "type": "Feature", "properties": { "内容": "フランスベッド株式会社メディカル滋賀営業所【福祉用具貸与】滋賀県大津市逢坂1-9-11大津駅南ビル1Ｆ", "url": "https://www.kaigokensaku.mhlw.go.jp/25/index.php?action_kouhyou_detail_004_kani=true&JigyosyoCd=2570102489-00&ServiceCd=170&Type=search", "url2": "http://www.francebed.co.jp" }, "geometry": { "type": "Point", "coordinates": [ 135.862768494060902, 35.002367668758112 ] } },
{ "type": "Feature", "properties": { "内容": "株式会社Reach・Welfare【福祉用具貸与】滋賀県大津市御殿浜2-30", "url": "https://www.kaigokensaku.mhlw.go.jp/25/index.php?action_kouhyou_detail_004_kani=true&JigyosyoCd=2570105706-00&ServiceCd=170&Type=search", "url2": null }, "geometry": { "type": "Point", "coordinates": [ 135.8955953, 34.9876412 ] } },
{ "type": "Feature", "properties": { "内容": "株式会社　ウエルネット大津支店【福祉用具貸与】滋賀県大津市大江2丁目20-9サブライムビル1階102号室", "url": "https://www.kaigokensaku.mhlw.go.jp/25/index.php?action_kouhyou_detail_004_kani=true&JigyosyoCd=2570103115-00&ServiceCd=170&Type=search", "url2": "http://www.welnet.co.jp/" }, "geometry": { "type": "Point", "coordinates": [ 135.915895167552605, 34.979388450205207 ] } },
{ "type": "Feature", "properties": { "内容": "株式会社　三笑堂　大津営業所【福祉用具貸与】滋賀県大津市勧学二丁目3番9号", "url": "https://www.kaigokensaku.mhlw.go.jp/25/index.php?action_kouhyou_detail_004_kani=true&JigyosyoCd=2570104667-00&ServiceCd=170&Type=search", "url2": "http://www.sanshodoh.co.jp/" }, "geometry": { "type": "Point", "coordinates": [ 135.8625396, 35.0332912 ] } },
{ "type": "Feature", "properties": { "内容": "ケアサポートおうみ　大津店【福祉用具貸与】滋賀県大津市大江六丁目17番4号", "url": "https://www.kaigokensaku.mhlw.go.jp/25/index.php?action_kouhyou_detail_004_kani=true&JigyosyoCd=2570105201-00&ServiceCd=170&Type=search", "url2": "http://www.kaigo-oumi.co.jp" }, "geometry": { "type": "Point", "coordinates": [ 135.922526932022691, 34.972607989698943 ] } },
{ "type": "Feature", "properties": { "内容": "ローズライフ【福祉用具貸与】大津市皇子が丘一丁目1番30号", "url": "https://www.kaigokensaku.mhlw.go.jp/25/index.php?action_kouhyou_detail_004_kani=true&JigyosyoCd=2570104980-00&ServiceCd=170&Type=search", "url2": "https://rose-life.co.jp/" }, "geometry": { "type": "Point", "coordinates": [ 135.849693600000023, 35.0271416 ] } },
{ "type": "Feature", "properties": { "内容": "しみんふくし滋賀福祉用具事業所【福祉用具貸与】滋賀県大津市柳川2丁目11-25", "url": "https://www.kaigokensaku.mhlw.go.jp/25/index.php?action_kouhyou_detail_004_kani=true&JigyosyoCd=2570104766-00&ServiceCd=170&Type=search", "url2": "http://www.shiminfukushi-shiga.jp/" }, "geometry": { "type": "Point", "coordinates": [ 135.8616147, 35.0327341 ] } },
{ "type": "Feature", "properties": { "内容": "ダスキンヘルスレント大津ステーション【福祉用具貸与】滋賀県大津市真野2-28-3", "url": "https://www.kaigokensaku.mhlw.go.jp/25/index.php?action_kouhyou_detail_004_kani=true&JigyosyoCd=2570104337-00&ServiceCd=170&Type=search", "url2": "http://healthrent.duskin.jp/" }, "geometry": { "type": "Point", "coordinates": [ 135.919667682570179, 35.126698111753825 ] } },
{ "type": "Feature", "properties": { "内容": "コンソルテ福祉用具事業所【福祉用具貸与】滋賀県大津市瀬田4丁目1番3号", "url": "https://www.kaigokensaku.mhlw.go.jp/25/index.php?action_kouhyou_detail_004_kani=true&JigyosyoCd=2570104386-00&ServiceCd=170&Type=search", "url2": null }, "geometry": { "type": "Point", "coordinates": [ 135.907768703151874, 34.964026169276451 ] } },
{ "type": "Feature", "properties": { "内容": "アスケア福祉用具センター滋賀【福祉用具貸与】滋賀県大津市唐橋町8-8", "url": "https://www.kaigokensaku.mhlw.go.jp/25/index.php?action_kouhyou_detail_004_kani=true&JigyosyoCd=2570106340-00&ServiceCd=170&Type=search", "url2": "https://www.asahi-sun-clean.co.jp/search/fukusi_service/fukusi_service01/2571/" }, "geometry": { "type": "Point", "coordinates": [ 135.9049623, 34.9757916 ] } },
{ "type": "Feature", "properties": { "内容": "愛和ライフサポート【福祉用具貸与】大津市蓮池町10－20", "url": "https://www.kaigokensaku.mhlw.go.jp/25/index.php?action_kouhyou_detail_004_kani=true&JigyosyoCd=2570101507-00&ServiceCd=170&Type=search", "url2": "http://www.ai-wa.jp/" }, "geometry": { "type": "Point", "coordinates": [ 135.863508499999966, 35.046273 ] } },
{ "type": "Feature", "properties": { "内容": "株式会社ヤサカ　滋賀南支店【福祉用具貸与】滋賀県大津市月輪1-4-65", "url": "https://www.kaigokensaku.mhlw.go.jp/25/index.php?action_kouhyou_detail_004_kani=true&JigyosyoCd=2570103214-00&ServiceCd=170&Type=search", "url2": "http://daisuki-kaigo.com/" }, "geometry": { "type": "Point", "coordinates": [ 135.931400114288294, 34.988843345799488 ] } },
{ "type": "Feature", "properties": { "内容": "Social　Service　ー　ｿｰｼｬﾙｻｰﾋﾞｽ【福祉用具貸与】大津市唐崎一丁目19-7", "url": "https://www.kaigokensaku.mhlw.go.jp/25/index.php?action_kouhyou_detail_004_kani=true&JigyosyoCd=2570102497-00&ServiceCd=170&Type=search", "url2": "social-s.net" }, "geometry": { "type": "Point", "coordinates": [ 135.872875318524166, 35.047599956034183 ] } },
{ "type": "Feature", "properties": { "内容": "ＫＩＴホームケア【福祉用具貸与】唐橋町7番44号", "url": "https://www.kaigokensaku.mhlw.go.jp/25/index.php?action_kouhyou_detail_004_kani=true&JigyosyoCd=2570100178-00&ServiceCd=170&Type=search", "url2": null }, "geometry": { "type": "Point", "coordinates": [ 135.90531390000001, 34.9769261 ] } },
{ "type": "Feature", "properties": { "内容": "株式会社クラマツ福祉用具事業所【福祉用具貸与】滋賀県彦根市松原町3428-5ラフェスタ彦根1-F", "url": "https://www.kaigokensaku.mhlw.go.jp/25/index.php?action_kouhyou_detail_004_kani=true&JigyosyoCd=2570201240-00&ServiceCd=170&Type=search", "url2": "http://kuramatsu.co.jp/" }, "geometry": { "type": "Point", "coordinates": [ 136.26040850000004, 35.2797575 ] } },
{ "type": "Feature", "properties": { "内容": "株式会社ヤマシタ彦根営業所【福祉用具貸与】滋賀県彦根市後三条町134-1", "url": "https://www.kaigokensaku.mhlw.go.jp/25/index.php?action_kouhyou_detail_004_kani=true&JigyosyoCd=2570200150-00&ServiceCd=170&Type=search", "url2": "http://www.yco.co.jp" }, "geometry": { "type": "Point", "coordinates": [ 136.2516310861389, 35.260965430232737 ] } },
{ "type": "Feature", "properties": { "内容": "JA東びわこ愛あいステーション【福祉用具貸与】滋賀県彦根市賀田山町234-6", "url": "https://www.kaigokensaku.mhlw.go.jp/25/index.php?action_kouhyou_detail_004_kani=true&JigyosyoCd=2570200101-00&ServiceCd=170&Type=search", "url2": "http://www.east.jas.or.jp" }, "geometry": { "type": "Point", "coordinates": [ 136.213344799999959, 35.2204509 ] } },
{ "type": "Feature", "properties": { "内容": "ケアパートナーヨシイ彦根【福祉用具貸与】彦根市小泉町３８７－２", "url": "https://www.kaigokensaku.mhlw.go.jp/25/index.php?action_kouhyou_detail_004_kani=true&JigyosyoCd=2570200689-00&ServiceCd=170&Type=search", "url2": "https://cpsafa.com" }, "geometry": { "type": "Point", "coordinates": [ 136.249735800000053, 35.2502413 ] } },
{ "type": "Feature", "properties": { "内容": "ケアサポート　おうみ　彦根店【福祉用具貸与】彦根市西葛籠町３１２", "url": "https://www.kaigokensaku.mhlw.go.jp/25/index.php?action_kouhyou_detail_004_kani=true&JigyosyoCd=2570200895-00&ServiceCd=170&Type=search", "url2": "hppt://www.kaigo-oumi.co.jp" }, "geometry": { "type": "Point", "coordinates": [ 136.239913566146697, 35.225526221299475 ] } },
{ "type": "Feature", "properties": { "内容": "トヨタカローラ滋賀株式会社　介護福祉用具相談室【福祉用具貸与】滋賀県彦根市西沼波町256-1", "url": "https://www.kaigokensaku.mhlw.go.jp/25/index.php?action_kouhyou_detail_004_kani=true&JigyosyoCd=2570201026-00&ServiceCd=170&Type=search", "url2": null }, "geometry": { "type": "Point", "coordinates": [ 136.265506100000039, 35.2604436 ] } },
{ "type": "Feature", "properties": { "内容": "株式会社トーカイ　彦根営業所【福祉用具貸与】滋賀県彦根市小泉町78番地13", "url": "https://www.kaigokensaku.mhlw.go.jp/25/index.php?action_kouhyou_detail_004_kani=true&JigyosyoCd=2570200911-00&ServiceCd=170&Type=search", "url2": "http://www.tokai-corp.com" }, "geometry": { "type": "Point", "coordinates": [ 136.252063160713192, 35.248109914551605 ] } },
{ "type": "Feature", "properties": { "内容": "レンタルサービスひまわり【福祉用具貸与】滋賀県彦根市里根町191-1ハートフルヒルズ彦根", "url": "https://www.kaigokensaku.mhlw.go.jp/25/index.php?action_kouhyou_detail_004_kani=true&JigyosyoCd=2570201133-00&ServiceCd=170&Type=search", "url2": "http://shinai.jp.net" }, "geometry": { "type": "Point", "coordinates": [ 136.26785540000003, 35.2674261 ] } },
{ "type": "Feature", "properties": { "内容": "ふれんど【福祉用具貸与】滋賀県長浜市平方町８３０番地", "url": "https://www.kaigokensaku.mhlw.go.jp/25/index.php?action_kouhyou_detail_004_kani=true&JigyosyoCd=2570301594-00&ServiceCd=170&Type=search", "url2": "https://www.kyodoshiga.jp/index.php?/member/detail/2076" }, "geometry": { "type": "Point", "coordinates": [ 136.2708988, 35.3715787 ] } },
{ "type": "Feature", "properties": { "内容": "リーフル【福祉用具貸与】滋賀県長浜市勝町３７２－１", "url": "https://www.kaigokensaku.mhlw.go.jp/25/index.php?action_kouhyou_detail_004_kani=true&JigyosyoCd=2570300018-00&ServiceCd=170&Type=search", "url2": "https://leaful.jp/" }, "geometry": { "type": "Point", "coordinates": [ 136.286073900000019, 35.3748516 ] } },
{ "type": "Feature", "properties": { "内容": "ほっと住まいるケア【福祉用具貸与】滋賀県長浜市高月町西阿閉1414", "url": "https://www.kaigokensaku.mhlw.go.jp/25/index.php?action_kouhyou_detail_004_kani=true&JigyosyoCd=2570301438-00&ServiceCd=170&Type=search", "url2": "http://hotsmile-care.com/nisikawagiken.co.jp" }, "geometry": { "type": "Point", "coordinates": [ 136.216520599999967, 35.4518796 ] } },
{ "type": "Feature", "properties": { "内容": "ケアサポートおうみ【福祉用具貸与】長浜市本庄町700-1", "url": "https://www.kaigokensaku.mhlw.go.jp/25/index.php?action_kouhyou_detail_004_kani=true&JigyosyoCd=2570300638-00&ServiceCd=170&Type=search", "url2": "http://www.kaigo-oumi.co.jp" }, "geometry": { "type": "Point", "coordinates": [ 136.312979387017322, 35.371766466354224 ] } },
{ "type": "Feature", "properties": { "内容": "ケアパートナーヨシイ【福祉用具貸与】滋賀県長浜市八幡東町308-4", "url": "https://www.kaigokensaku.mhlw.go.jp/25/index.php?action_kouhyou_detail_004_kani=true&JigyosyoCd=2570301446-00&ServiceCd=170&Type=search", "url2": "http://www.cpsafa.com" }, "geometry": { "type": "Point", "coordinates": [ 136.280332610299212, 35.386573413906142 ] } },
{ "type": "Feature", "properties": { "内容": "株式会社ヤサカ　長浜営業所【福祉用具貸与】滋賀県長浜市高田町11-3", "url": "https://www.kaigokensaku.mhlw.go.jp/25/index.php?action_kouhyou_detail_004_kani=true&JigyosyoCd=2570301792-00&ServiceCd=170&Type=search", "url2": "https://www.daisuki-kaigo.com/" }, "geometry": { "type": "Point", "coordinates": [ 136.2761251, 35.381382500000022 ] } },
{ "type": "Feature", "properties": { "内容": "有限会社ふれあいサポート長浜展示場【福祉用具貸与】口分田町528-21", "url": "https://www.kaigokensaku.mhlw.go.jp/25/index.php?action_kouhyou_detail_004_kani=true&JigyosyoCd=2570300232-00&ServiceCd=170&Type=search", "url2": "http://www.fureai-s.jp/" }, "geometry": { "type": "Point", "coordinates": [ 136.290803899999986, 35.3977518 ] } },
{ "type": "Feature", "properties": { "内容": "田中ビジネスサポート株式会社　福祉事業部　湖北事業所【福祉用具貸与】滋賀県長浜市高月町柏原418-1", "url": "https://www.kaigokensaku.mhlw.go.jp/25/index.php?action_kouhyou_detail_004_kani=true&JigyosyoCd=2570300935-00&ServiceCd=170&Type=search", "url2": "http://tanakabs.com/" }, "geometry": { "type": "Point", "coordinates": [ 136.231447099999968, 35.4775834 ] } },
{ "type": "Feature", "properties": { "内容": "ヨコタ　ライフサービス【福祉用具貸与】滋賀県長浜市木之本町木之本７５０", "url": "https://www.kaigokensaku.mhlw.go.jp/25/index.php?action_kouhyou_detail_004_kani=true&JigyosyoCd=2570300844-00&ServiceCd=170&Type=search", "url2": null }, "geometry": { "type": "Point", "coordinates": [ 136.229166299999946, 35.5037476 ] } },
{ "type": "Feature", "properties": { "内容": "株式会社アクシア【福祉用具貸与】滋賀県長浜市祇園町939-1RFマンション祇園102", "url": "https://www.kaigokensaku.mhlw.go.jp/25/index.php?action_kouhyou_detail_004_kani=true&JigyosyoCd=2570300810-00&ServiceCd=170&Type=search", "url2": null }, "geometry": { "type": "Point", "coordinates": [ 136.252936399999953, 35.3837624 ] } },
{ "type": "Feature", "properties": { "内容": "有限会社　扇　屋【福祉用具貸与】滋賀県近江八幡市仲屋町上35－2", "url": "https://www.kaigokensaku.mhlw.go.jp/25/index.php?action_kouhyou_detail_004_kani=true&JigyosyoCd=2570400107-00&ServiceCd=170&Type=search", "url2": null }, "geometry": { "type": "Point", "coordinates": [ 136.093540500000017, 35.1369484 ] } },
{ "type": "Feature", "properties": { "内容": "株式会社近新福祉関連事業部【福祉用具貸与】滋賀県近江八幡市東川町２１４－１", "url": "https://www.kaigokensaku.mhlw.go.jp/25/index.php?action_kouhyou_detail_004_kani=true&JigyosyoCd=2570400305-00&ServiceCd=170&Type=search", "url2": null }, "geometry": { "type": "Point", "coordinates": [ 136.10219230000007, 35.0967458 ] } },
{ "type": "Feature", "properties": { "内容": "ライフパートナー【福祉用具貸与】滋賀県草津市若竹町7-10Act21　３F", "url": "https://www.kaigokensaku.mhlw.go.jp/25/index.php?action_kouhyou_detail_004_kani=true&JigyosyoCd=2570601423-00&ServiceCd=170&Type=search", "url2": "https://nextlife-care.com/" }, "geometry": { "type": "Point", "coordinates": [ 135.968055977497897, 35.021862949741127 ] } },
{ "type": "Feature", "properties": { "内容": "有限会社草津介護センター【福祉用具貸与】滋賀県草津市西渋川一丁目１５番１０号", "url": "https://www.kaigokensaku.mhlw.go.jp/25/index.php?action_kouhyou_detail_004_kani=true&JigyosyoCd=2570600045-00&ServiceCd=170&Type=search", "url2": "http://www.kusatsu-kaigo.co.jp" }, "geometry": { "type": "Point", "coordinates": [ 135.961427, 35.0292707 ] } },
{ "type": "Feature", "properties": { "内容": "デ・アルコ有限会社【福祉用具貸与】青地町１０２５番地の１４", "url": "https://www.kaigokensaku.mhlw.go.jp/25/index.php?action_kouhyou_detail_004_kani=true&JigyosyoCd=2570600367-00&ServiceCd=170&Type=search", "url2": "http://www.d-alko.co.jp/" }, "geometry": { "type": "Point", "coordinates": [ 135.9683354, 35.0063573 ] } },
{ "type": "Feature", "properties": { "内容": "ふくすけ【福祉用具貸与】草津市野路８丁目15-8-205クラージュ21", "url": "https://www.kaigokensaku.mhlw.go.jp/25/index.php?action_kouhyou_detail_004_kani=true&JigyosyoCd=2570601670-00&ServiceCd=170&Type=search", "url2": "http://hp.kaipoke.biz/xsb/index.html" }, "geometry": { "type": "Point", "coordinates": [ 135.95206630000007, 34.9973615 ] } },
{ "type": "Feature", "properties": { "内容": "有限会社びわこメディカル【福祉用具貸与】滋賀県守山市播磨田町107-1", "url": "https://www.kaigokensaku.mhlw.go.jp/25/index.php?action_kouhyou_detail_004_kani=true&JigyosyoCd=2570700100-00&ServiceCd=170&Type=search", "url2": "http://www.biwakomedical.com/" }, "geometry": { "type": "Point", "coordinates": [ 135.9979482, 35.0673448 ] } },
{ "type": "Feature", "properties": { "内容": "あいむ福祉用具【福祉用具貸与】滋賀県守山市守山四丁目6番11号", "url": "https://www.kaigokensaku.mhlw.go.jp/25/index.php?action_kouhyou_detail_004_kani=true&JigyosyoCd=2570700126-00&ServiceCd=170&Type=search", "url2": "http://k-aimu.co.jp" }, "geometry": { "type": "Point", "coordinates": [ 135.989577, 35.0608203 ] } },
{ "type": "Feature", "properties": { "内容": "株式会社たかはし　ライフサポート事業部【福祉用具貸与】滋賀県守山市川田町413番地の2", "url": "https://www.kaigokensaku.mhlw.go.jp/25/index.php?action_kouhyou_detail_004_kani=true&JigyosyoCd=2570700761-00&ServiceCd=170&Type=search", "url2": "https://www.teic.co.jp" }, "geometry": { "type": "Point", "coordinates": [ 136.0014059, 35.0811044 ] } },
{ "type": "Feature", "properties": { "内容": "株式会社　三笑堂　滋賀支店【福祉用具貸与】栗東市手原１丁目５番３６", "url": "https://www.kaigokensaku.mhlw.go.jp/25/index.php?action_kouhyou_detail_004_kani=true&JigyosyoCd=2571200076-00&ServiceCd=170&Type=search", "url2": "http://www.sanshodoh.co.jp" }, "geometry": { "type": "Point", "coordinates": [ 136.0045533, 35.0266523 ] } },
{ "type": "Feature", "properties": { "内容": "ダスキンヘルスレント栗東【福祉用具貸与】滋賀県栗東市手原7丁目6-4", "url": "https://www.kaigokensaku.mhlw.go.jp/25/index.php?action_kouhyou_detail_004_kani=true&JigyosyoCd=2571200415-00&ServiceCd=170&Type=search", "url2": "http://www.kokocare.co.jp" }, "geometry": { "type": "Point", "coordinates": [ 136.000884199999973, 35.0284243 ] } },
{ "type": "Feature", "properties": { "内容": "田中ビジネスサポート株式会社　福祉事業部　湖南事業所【福祉用具貸与】滋賀県栗東市大橋7丁目7-7", "url": "https://www.kaigokensaku.mhlw.go.jp/25/index.php?action_kouhyou_detail_004_kani=true&JigyosyoCd=2571200324-00&ServiceCd=170&Type=search", "url2": "http://tanakabs.com/" }, "geometry": { "type": "Point", "coordinates": [ 136.004747599999973, 35.0288298 ] } },
{ "type": "Feature", "properties": { "内容": "株式会社　三和【福祉用具貸与】水口町八光１番２３号", "url": "https://www.kaigokensaku.mhlw.go.jp/25/index.php?action_kouhyou_detail_004_kani=true&JigyosyoCd=2571400718-00&ServiceCd=170&Type=search", "url2": null }, "geometry": { "type": "Point", "coordinates": [ 136.171164776057338, 34.970231409330886 ] } },
{ "type": "Feature", "properties": { "内容": "ライフケアサービスまごころ【福祉用具貸与】滋賀県甲賀市水口町山3938番地36", "url": "https://www.kaigokensaku.mhlw.go.jp/25/index.php?action_kouhyou_detail_004_kani=true&JigyosyoCd=2571401104-00&ServiceCd=170&Type=search", "url2": "http//www.dayservice-magokoro.com/" }, "geometry": { "type": "Point", "coordinates": [ 136.174330356645584, 35.007425332987523 ] } },
{ "type": "Feature", "properties": { "内容": "有限会社ヒューマンケア【福祉用具貸与】滋賀県野洲市市三宅2661", "url": "https://www.kaigokensaku.mhlw.go.jp/25/index.php?action_kouhyou_detail_004_kani=true&JigyosyoCd=2571300074-00&ServiceCd=170&Type=search", "url2": "http://human-care.jp" }, "geometry": { "type": "Point", "coordinates": [ 136.017998600000084, 35.0705756 ] } },
{ "type": "Feature", "properties": { "内容": "株式会社ヤサカ　野洲営業所【福祉用具貸与】滋賀県野洲市小篠原880101棟", "url": "https://www.kaigokensaku.mhlw.go.jp/25/index.php?action_kouhyou_detail_004_kani=true&JigyosyoCd=2571300744-00&ServiceCd=170&Type=search", "url2": "https://www.daisuki-kaigo.com/" }, "geometry": { "type": "Point", "coordinates": [ 136.0287727, 35.0646654 ] } },
{ "type": "Feature", "properties": { "内容": "フラワーケア【福祉用具貸与】滋賀県野洲市三上１９３７－１８", "url": "https://www.kaigokensaku.mhlw.go.jp/25/index.php?action_kouhyou_detail_004_kani=true&JigyosyoCd=2571300793-00&ServiceCd=170&Type=search", "url2": null }, "geometry": { "type": "Point", "coordinates": [ 136.016193173051249, 35.059163072149715 ] } },
{ "type": "Feature", "properties": { "内容": "ふぇいす【福祉用具貸与】石部北３丁目1-18", "url": "https://www.kaigokensaku.mhlw.go.jp/25/index.php?action_kouhyou_detail_004_kani=true&JigyosyoCd=2572300230-00&ServiceCd=170&Type=search", "url2": "http://www.fukusifaith.jp/" }, "geometry": { "type": "Point", "coordinates": [ 136.0443641, 35.0229393 ] } },
{ "type": "Feature", "properties": { "内容": "さわいメディカル【福祉用具貸与】滋賀県高島市安曇川町末広３－３１", "url": "https://www.kaigokensaku.mhlw.go.jp/25/index.php?action_kouhyou_detail_004_kani=true&JigyosyoCd=2572200463-00&ServiceCd=170&Type=search", "url2": "https://swi-medical.amebaownd.com/" }, "geometry": { "type": "Point", "coordinates": [ 136.022183726983712, 35.325663591851246 ] } },
{ "type": "Feature", "properties": { "内容": "株式会社ヤサカ【福祉用具貸与】今津町弘川273-10", "url": "https://www.kaigokensaku.mhlw.go.jp/25/index.php?action_kouhyou_detail_004_kani=true&JigyosyoCd=2572200174-00&ServiceCd=170&Type=search", "url2": "http://www.daisuki-kaigo.com" }, "geometry": { "type": "Point", "coordinates": [ 136.026469237052424, 35.40823075424003 ] } },
{ "type": "Feature", "properties": { "内容": "株式会社ニッシン【福祉用具貸与】滋賀県高島市安曇川町西万木651-3", "url": "https://www.kaigokensaku.mhlw.go.jp/25/index.php?action_kouhyou_detail_004_kani=true&JigyosyoCd=2572200406-00&ServiceCd=170&Type=search", "url2": "https://kaigo-nissin.com/" }, "geometry": { "type": "Point", "coordinates": [ 136.020942699999978, 35.3300092 ] } },
{ "type": "Feature", "properties": { "内容": "介護福祉用具八日市合同会社【福祉用具貸与】滋賀県東近江市妙法寺町854-3Ｉ・Ｃビル１－Ａ号", "url": "https://www.kaigokensaku.mhlw.go.jp/25/index.php?action_kouhyou_detail_004_kani=true&JigyosyoCd=2570501128-00&ServiceCd=170&Type=search", "url2": "http://www.asahi-net.or.jp/~db7g-kjm/hanbai.html" }, "geometry": { "type": "Point", "coordinates": [ 136.2251695, 35.0996158 ] } },
{ "type": "Feature", "properties": { "内容": "ここいいなライフサポート【福祉用具貸与】滋賀県東近江市聖和町3-9", "url": "https://www.kaigokensaku.mhlw.go.jp/25/index.php?action_kouhyou_detail_004_kani=true&JigyosyoCd=2570501532-00&ServiceCd=170&Type=search", "url2": "https://cocoiina.com/" }, "geometry": { "type": "Point", "coordinates": [ 136.202993773016374, 35.100894500000017 ] } },
{ "type": "Feature", "properties": { "内容": "ダスキンヘルスレント八日市【福祉用具貸与】滋賀県東近江市八日市東本町３－１４", "url": "https://www.kaigokensaku.mhlw.go.jp/25/index.php?action_kouhyou_detail_004_kani=true&JigyosyoCd=2570501268-00&ServiceCd=170&Type=search", "url2": "http://kokocare.co.jp/" }, "geometry": { "type": "Point", "coordinates": [ 136.20442909999997, 35.1080061 ] } },
{ "type": "Feature", "properties": { "内容": "株式会社ライフ【福祉用具貸与】滋賀県米原市高溝236-8", "url": "https://www.kaigokensaku.mhlw.go.jp/25/index.php?action_kouhyou_detail_004_kani=true&JigyosyoCd=2572400139-00&ServiceCd=170&Type=search", "url2": "http:/www.lifewelfa.com" }, "geometry": { "type": "Point", "coordinates": [ 136.292387100000042, 35.3456365 ] } }
]
}
