{
"type": "FeatureCollection",
"name": "geo_25_訪問看護",
"crs": { "type": "name", "properties": { "name": "urn:ogc:def:crs:OGC:1.3:CRS84" } },
"features": [
{ "type": "Feature", "properties": { "内容": "琵琶湖中央病院　訪問看護センター【訪問看護】大津市御殿浜２２－３３", "url": "https://www.kaigokensaku.mhlw.go.jp/25/index.php?action_kouhyou_detail_004_kani=true&JigyosyoCd=2510104546-00&ServiceCd=130&Type=search", "url2": "http://www.kou-sei-kai.or.jp/" }, "geometry": { "type": "Point", "coordinates": [ 135.896065, 34.9893104 ] } },
{ "type": "Feature", "properties": { "内容": "医療法人社団山中医院【訪問看護】大津市里３－６－２２", "url": "https://www.kaigokensaku.mhlw.go.jp/25/index.php?action_kouhyou_detail_004_kani=true&JigyosyoCd=2510104504-00&ServiceCd=130&Type=search", "url2": null }, "geometry": { "type": "Point", "coordinates": [ 135.9287974, 34.9407245 ] } },
{ "type": "Feature", "properties": { "内容": "白櫻会訪問看護ステーションひなた【訪問看護】滋賀県大津市別保二丁目８番３３号", "url": "https://www.kaigokensaku.mhlw.go.jp/25/index.php?action_kouhyou_detail_004_kani=true&JigyosyoCd=2560190239-00&ServiceCd=130&Type=search", "url2": "http://hakuokai.jp/" }, "geometry": { "type": "Point", "coordinates": [ 135.892968200000041, 34.9823973 ] } },
{ "type": "Feature", "properties": { "内容": "訪問看護ステーション和顔【訪問看護】滋賀県大津市坂本４丁目12-32", "url": "https://www.kaigokensaku.mhlw.go.jp/25/index.php?action_kouhyou_detail_004_kani=true&JigyosyoCd=2560190163-00&ServiceCd=130&Type=search", "url2": null }, "geometry": { "type": "Point", "coordinates": [ 135.870921, 35.0709921 ] } },
{ "type": "Feature", "properties": { "内容": "南大津クリニック訪問看護【訪問看護】大石中一丁目6-6", "url": "https://www.kaigokensaku.mhlw.go.jp/25/index.php?action_kouhyou_detail_004_kani=true&JigyosyoCd=2510105170-00&ServiceCd=130&Type=search", "url2": "ｈｔｔｐ://ｗｗｗ.ｒｙｏｋｕｓｅｉｋａｉ.ｊｐ" }, "geometry": { "type": "Point", "coordinates": [ 135.9131774, 34.9107825 ] } },
{ "type": "Feature", "properties": { "内容": "訪問看護ステーションA・T・C【訪問看護】滋賀県大津市里五丁目4-24", "url": "https://www.kaigokensaku.mhlw.go.jp/25/index.php?action_kouhyou_detail_004_kani=true&JigyosyoCd=2560190312-00&ServiceCd=130&Type=search", "url2": "http://art-care-select.com" }, "geometry": { "type": "Point", "coordinates": [ 135.930407652964305, 34.93750352407001 ] } },
{ "type": "Feature", "properties": { "内容": "訪問看護ステーションひまり【訪問看護】滋賀県大津市坂本1丁目18-45", "url": "https://www.kaigokensaku.mhlw.go.jp/25/index.php?action_kouhyou_detail_004_kani=true&JigyosyoCd=2560190254-00&ServiceCd=130&Type=search", "url2": "http/ns-himari.com" }, "geometry": { "type": "Point", "coordinates": [ 135.867638172481463, 35.058939131119857 ] } },
{ "type": "Feature", "properties": { "内容": "訪問看護ステーションさくらんぼ【訪問看護】滋賀県大津市真野4丁目21-34", "url": "https://www.kaigokensaku.mhlw.go.jp/25/index.php?action_kouhyou_detail_004_kani=true&JigyosyoCd=2560190445-00&ServiceCd=130&Type=search", "url2": "https://www.sakuranbo-st.jp" }, "geometry": { "type": "Point", "coordinates": [ 135.9202932, 35.1336806 ] } },
{ "type": "Feature", "properties": { "内容": "大津市民病院訪問看護ステーション【訪問看護】滋賀県大津市本宮2－9－9", "url": "https://www.kaigokensaku.mhlw.go.jp/25/index.php?action_kouhyou_detail_004_kani=true&JigyosyoCd=2560190338-00&ServiceCd=130&Type=search", "url2": null }, "geometry": { "type": "Point", "coordinates": [ 135.876205900000059, 34.9997284 ] } },
{ "type": "Feature", "properties": { "内容": "訪問看護ステーション陽だまり【訪問看護】大津市昭和町8-15", "url": "https://www.kaigokensaku.mhlw.go.jp/25/index.php?action_kouhyou_detail_004_kani=true&JigyosyoCd=2560190049-00&ServiceCd=130&Type=search", "url2": null }, "geometry": { "type": "Point", "coordinates": [ 135.886279968122807, 34.997551879146961 ] } },
{ "type": "Feature", "properties": { "内容": "訪問看護ステーションビジット大津【訪問看護】滋賀県大津市大萱3丁目6-5ジュネス瀬田102", "url": "https://www.kaigokensaku.mhlw.go.jp/25/index.php?action_kouhyou_detail_004_kani=true&JigyosyoCd=2560190767-00&ServiceCd=130&Type=search", "url2": null }, "geometry": { "type": "Point", "coordinates": [ 135.9199534, 34.9910963 ] } },
{ "type": "Feature", "properties": { "内容": "訪問看護ステーション　フレンドリー大津【訪問看護】滋賀県大津市柳川1丁目2-18ハイツ柳川101号室", "url": "https://www.kaigokensaku.mhlw.go.jp/25/index.php?action_kouhyou_detail_004_kani=true&JigyosyoCd=2560190783-00&ServiceCd=130&Type=search", "url2": null }, "geometry": { "type": "Point", "coordinates": [ 135.859613700000011, 35.0316211 ] } },
{ "type": "Feature", "properties": { "内容": "訪問看護リハビリステーションSign【訪問看護】滋賀県大津市神領3-21-2上勘ビル2F", "url": "https://www.kaigokensaku.mhlw.go.jp/25/index.php?action_kouhyou_detail_004_kani=true&JigyosyoCd=2560190601-00&ServiceCd=130&Type=search", "url2": "sign-houkan.com" }, "geometry": { "type": "Point", "coordinates": [ 135.9099754, 34.9717174 ] } },
{ "type": "Feature", "properties": { "内容": "訪問看護ステーション　ユースフル滋賀【訪問看護】滋賀県大津市本堅田６丁目６番２号住宅型有料老人ホームCareVilla堅田", "url": "https://www.kaigokensaku.mhlw.go.jp/25/index.php?action_kouhyou_detail_004_kani=true&JigyosyoCd=2560190775-00&ServiceCd=130&Type=search", "url2": null }, "geometry": { "type": "Point", "coordinates": [ 135.909916917721546, 35.116427512897474 ] } },
{ "type": "Feature", "properties": { "内容": "なーすすてーしょんひよりまのてん【訪問看護】滋賀県大津市真野４丁目２１‐３０奥出ビル１F-B", "url": "https://www.kaigokensaku.mhlw.go.jp/25/index.php?action_kouhyou_detail_004_kani=true&JigyosyoCd=2560190825-00&ServiceCd=130&Type=search", "url2": null }, "geometry": { "type": "Point", "coordinates": [ 135.9195579, 35.1329163 ] } },
{ "type": "Feature", "properties": { "内容": "いろどり訪問看護ステーション【訪問看護】滋賀県大津市一里山3丁目21-18", "url": "https://www.kaigokensaku.mhlw.go.jp/25/index.php?action_kouhyou_detail_004_kani=true&JigyosyoCd=2560190734-00&ServiceCd=130&Type=search", "url2": "http://hp.kaipoke.biz/uw9/" }, "geometry": { "type": "Point", "coordinates": [ 135.9342819, 34.9840056 ] } },
{ "type": "Feature", "properties": { "内容": "訪問看護ステーション湯ず【訪問看護】滋賀県大津市稲津2丁目3-30", "url": "https://www.kaigokensaku.mhlw.go.jp/25/index.php?action_kouhyou_detail_004_kani=true&JigyosyoCd=2560190171-00&ServiceCd=130&Type=search", "url2": null }, "geometry": { "type": "Point", "coordinates": [ 135.914872458474747, 34.949639606640872 ] } },
{ "type": "Feature", "properties": { "内容": "ブリッジ訪問看護ステーション【訪問看護】滋賀県大津市追分町16-21", "url": "https://www.kaigokensaku.mhlw.go.jp/25/index.php?action_kouhyou_detail_004_kani=true&JigyosyoCd=2560190247-00&ServiceCd=130&Type=search", "url2": "http://bridge-nurse.com/" }, "geometry": { "type": "Point", "coordinates": [ 135.835342097775424, 34.993504860303275 ] } },
{ "type": "Feature", "properties": { "内容": "訪問看護ステーションつばめ【訪問看護】滋賀県大津市粟津町2-65第2久下ビル　2階", "url": "https://www.kaigokensaku.mhlw.go.jp/25/index.php?action_kouhyou_detail_004_kani=true&JigyosyoCd=2560190403-00&ServiceCd=130&Type=search", "url2": "https://tsubame-kango.sakurai-clinic.info/" }, "geometry": { "type": "Point", "coordinates": [ 135.89779539999995, 34.9797422 ] } },
{ "type": "Feature", "properties": { "内容": "訪問看護ステーションらっしゅナース【訪問看護】滋賀県大津市小関町7-33", "url": "https://www.kaigokensaku.mhlw.go.jp/25/index.php?action_kouhyou_detail_004_kani=true&JigyosyoCd=2560190528-00&ServiceCd=130&Type=search", "url2": "info@rush-ns.co.jp" }, "geometry": { "type": "Point", "coordinates": [ 135.853946543643559, 35.007462723160074 ] } },
{ "type": "Feature", "properties": { "内容": "訪問看護ステーションらしくる【訪問看護】滋賀県大津市本堅田5丁目12-11", "url": "https://www.kaigokensaku.mhlw.go.jp/25/index.php?action_kouhyou_detail_004_kani=true&JigyosyoCd=2560190833-00&ServiceCd=130&Type=search", "url2": "https://lifeshift.my.canva.site/rashikuru" }, "geometry": { "type": "Point", "coordinates": [ 135.9137275, 35.1167328 ] } },
{ "type": "Feature", "properties": { "内容": "独立行政法人医療機能推進機構滋賀病院附属訪問看護ステーション【訪問看護】滋賀県大津市富士見台16-1", "url": "https://www.kaigokensaku.mhlw.go.jp/25/index.php?action_kouhyou_detail_004_kani=true&JigyosyoCd=2560190346-00&ServiceCd=130&Type=search", "url2": "https://shiga.jcho.go.jp/" }, "geometry": { "type": "Point", "coordinates": [ 135.8844884, 34.9859189 ] } },
{ "type": "Feature", "properties": { "内容": "ツクイ大津訪問看護ステーション【訪問看護】中央3丁目1-8大津第一生命ビルディング1階", "url": "https://www.kaigokensaku.mhlw.go.jp/25/index.php?action_kouhyou_detail_004_kani=true&JigyosyoCd=2560190700-00&ServiceCd=130&Type=search", "url2": null }, "geometry": { "type": "Point", "coordinates": [ 140.8788262, 38.2602478 ] } },
{ "type": "Feature", "properties": { "内容": "華頂会訪問看護ステーション【訪問看護】大津市大萱七丁目７－２", "url": "https://www.kaigokensaku.mhlw.go.jp/25/index.php?action_kouhyou_detail_004_kani=true&JigyosyoCd=2560190064-00&ServiceCd=130&Type=search", "url2": "kachoukai@kachokai.or.jp" }, "geometry": { "type": "Point", "coordinates": [ 135.9157543, 34.9942021 ] } },
{ "type": "Feature", "properties": { "内容": "訪問看護ステーション志賀【訪問看護】大津市和邇中浜345番地１看護小規模多機能型居宅介護めぐり", "url": "https://www.kaigokensaku.mhlw.go.jp/25/index.php?action_kouhyou_detail_004_kani=true&JigyosyoCd=2560190148-00&ServiceCd=130&Type=search", "url2": "http://www.kosei-f.jp/" }, "geometry": { "type": "Point", "coordinates": [ 135.9195092, 35.1623488 ] } },
{ "type": "Feature", "properties": { "内容": "うさぎナースケア【訪問看護】滋賀県大津市松本2丁目8番10号", "url": "https://www.kaigokensaku.mhlw.go.jp/25/index.php?action_kouhyou_detail_004_kani=true&JigyosyoCd=2560190320-00&ServiceCd=130&Type=search", "url2": "http://www.big-advance.site/c/161/2700/top" }, "geometry": { "type": "Point", "coordinates": [ 135.87317280000002, 35.0051 ] } },
{ "type": "Feature", "properties": { "内容": "コンソルテ訪問看護ステーション【訪問看護】滋賀県大津市瀬田4丁目1-3", "url": "https://www.kaigokensaku.mhlw.go.jp/25/index.php?action_kouhyou_detail_004_kani=true&JigyosyoCd=2560190890-00&ServiceCd=130&Type=search", "url2": null }, "geometry": { "type": "Point", "coordinates": [ 135.907840357008354, 34.963973152285313 ] } },
{ "type": "Feature", "properties": { "内容": "訪問看護ステーションコスモス【訪問看護】大津市坂本6-6-31", "url": "https://www.kaigokensaku.mhlw.go.jp/25/index.php?action_kouhyou_detail_004_kani=true&JigyosyoCd=2560190031-00&ServiceCd=130&Type=search", "url2": null }, "geometry": { "type": "Point", "coordinates": [ 135.8719903, 35.0746361 ] } },
{ "type": "Feature", "properties": { "内容": "医療法人弘英会琵琶湖大橋病院訪問看護ステーション【訪問看護】滋賀県大津市本堅田5丁目20番10号アル・プラザ堅田　２階", "url": "https://www.kaigokensaku.mhlw.go.jp/25/index.php?action_kouhyou_detail_004_kani=true&JigyosyoCd=2560190080-00&ServiceCd=130&Type=search", "url2": "http://www.boh.or.jp/" }, "geometry": { "type": "Point", "coordinates": [ 135.915472319455347, 35.11916149087665 ] } },
{ "type": "Feature", "properties": { "内容": "洛和会訪問看護ステーション石山寺・サテライト瀬田【訪問看護】大津市平津１丁目１７番地３２", "url": "https://www.kaigokensaku.mhlw.go.jp/25/index.php?action_kouhyou_detail_004_kani=true&JigyosyoCd=2560190106-00&ServiceCd=130&Type=search", "url2": null }, "geometry": { "type": "Point", "coordinates": [ 135.909155357394411, 34.94871363333295 ] } },
{ "type": "Feature", "properties": { "内容": "日本リハビリ訪問看護ステーション【訪問看護】滋賀県大津市唐崎1丁目31-32大川プラザ3号館2階", "url": "https://www.kaigokensaku.mhlw.go.jp/25/index.php?action_kouhyou_detail_004_kani=true&JigyosyoCd=2560190262-00&ServiceCd=130&Type=search", "url2": "http://nichi-reha.jp/service/index.html" }, "geometry": { "type": "Point", "coordinates": [ 135.869696800000042, 35.04711469999998 ] } },
{ "type": "Feature", "properties": { "内容": "訪問看護リハビリステーション満月【訪問看護】滋賀県大津市朝日が丘1-1-6ラクラスコート１F", "url": "https://www.kaigokensaku.mhlw.go.jp/25/index.php?action_kouhyou_detail_004_kani=true&JigyosyoCd=2560190270-00&ServiceCd=130&Type=search", "url2": "http://www.mangetsu-rehabili.com/" }, "geometry": { "type": "Point", "coordinates": [ 135.866903900000011, 35.002130900000019 ] } },
{ "type": "Feature", "properties": { "内容": "ヴェール訪問看護ステーション【訪問看護】滋賀県大津市大将軍一丁目１０番２号ニュー大将軍松兼Ⅱ　１０３号室", "url": "https://www.kaigokensaku.mhlw.go.jp/25/index.php?action_kouhyou_detail_004_kani=true&JigyosyoCd=2560190296-00&ServiceCd=130&Type=search", "url2": "http://www.vert-hks.com/" }, "geometry": { "type": "Point", "coordinates": [ 135.9234229, 34.9938079 ] } },
{ "type": "Feature", "properties": { "内容": "ワンモア訪問看護リハビリセンター大津事業所【訪問看護】桜野町1-15-4コーポ協和201", "url": "https://www.kaigokensaku.mhlw.go.jp/25/index.php?action_kouhyou_detail_004_kani=true&JigyosyoCd=2560190510-00&ServiceCd=130&Type=search", "url2": "onemoreship.otsu@gmail.com" }, "geometry": { "type": "Point", "coordinates": [ 135.856083, 35.0275455 ] } },
{ "type": "Feature", "properties": { "内容": "訪問看護ステーション円【訪問看護】滋賀県大津市富士見台15-36", "url": "https://www.kaigokensaku.mhlw.go.jp/25/index.php?action_kouhyou_detail_004_kani=true&JigyosyoCd=2560190569-00&ServiceCd=130&Type=search", "url2": "https://houkan-madoka.com/" }, "geometry": { "type": "Point", "coordinates": [ 135.8855332, 34.9869228 ] } },
{ "type": "Feature", "properties": { "内容": "訪問看護ステーション　然【訪問看護】滋賀県大津市柳が崎9-17ルジェンテ大津１０１号", "url": "https://www.kaigokensaku.mhlw.go.jp/25/index.php?action_kouhyou_detail_004_kani=true&JigyosyoCd=2560190619-00&ServiceCd=130&Type=search", "url2": null }, "geometry": { "type": "Point", "coordinates": [ 135.866809499999988, 35.030655 ] } },
{ "type": "Feature", "properties": { "内容": "訪問看護ステーション　湖の癒【訪問看護】滋賀県大津市今堅田２丁目31番77号", "url": "https://www.kaigokensaku.mhlw.go.jp/25/index.php?action_kouhyou_detail_004_kani=true&JigyosyoCd=2560190627-00&ServiceCd=130&Type=search", "url2": null }, "geometry": { "type": "Point", "coordinates": [ 135.9249185, 35.1228485 ] } },
{ "type": "Feature", "properties": { "内容": "ミライリハ訪問看護リハビリステーション比叡【訪問看護】滋賀県大津市下阪本6丁目39-23セジュール日吉1階", "url": "https://www.kaigokensaku.mhlw.go.jp/25/index.php?action_kouhyou_detail_004_kani=true&JigyosyoCd=2560190650-00&ServiceCd=130&Type=search", "url2": "https://mirai-riha.com" }, "geometry": { "type": "Point", "coordinates": [ 135.880188800000013, 35.0705143 ] } },
{ "type": "Feature", "properties": { "内容": "香をり　訪問看護ステーション【訪問看護】滋賀県大津市大江4丁目16-11", "url": "https://www.kaigokensaku.mhlw.go.jp/25/index.php?action_kouhyou_detail_004_kani=true&JigyosyoCd=2560190668-00&ServiceCd=130&Type=search", "url2": null }, "geometry": { "type": "Point", "coordinates": [ 135.925231569311507, 34.982721542437247 ] } },
{ "type": "Feature", "properties": { "内容": "洛和会訪問看護ステーション大津【訪問看護】大津市大門通11-11", "url": "https://www.kaigokensaku.mhlw.go.jp/25/index.php?action_kouhyou_detail_004_kani=true&JigyosyoCd=2560190098-00&ServiceCd=130&Type=search", "url2": null }, "geometry": { "type": "Point", "coordinates": [ 135.855579700000021, 35.0140017 ] } },
{ "type": "Feature", "properties": { "内容": "洛和会訪問看護ステーション坂本【訪問看護】大津市下阪本６丁目１3番１1号", "url": "https://www.kaigokensaku.mhlw.go.jp/25/index.php?action_kouhyou_detail_004_kani=true&JigyosyoCd=2560190114-00&ServiceCd=130&Type=search", "url2": "http://www.rakuwa.or.jp" }, "geometry": { "type": "Point", "coordinates": [ 135.885236677933761, 35.068373809602875 ] } },
{ "type": "Feature", "properties": { "内容": "えがおの訪問看護ステーション勧学【訪問看護】滋賀県大津市勧学１－１３－８スリーハイム２０２", "url": "https://www.kaigokensaku.mhlw.go.jp/25/index.php?action_kouhyou_detail_004_kani=true&JigyosyoCd=2560190387-00&ServiceCd=130&Type=search", "url2": "https://info563902.wixsite.com/egaohoukan" }, "geometry": { "type": "Point", "coordinates": [ 135.859379826983655, 35.034018541837582 ] } },
{ "type": "Feature", "properties": { "内容": "ミライリハ訪問看護リハビリステーション【訪問看護】滋賀県大津市石山寺3丁目10-25", "url": "https://www.kaigokensaku.mhlw.go.jp/25/index.php?action_kouhyou_detail_004_kani=true&JigyosyoCd=2560190502-00&ServiceCd=130&Type=search", "url2": "https://mirai-riha.com/" }, "geometry": { "type": "Point", "coordinates": [ 135.909634542290263, 34.956073294261671 ] } },
{ "type": "Feature", "properties": { "内容": "ケアサポートリブ訪問看護【訪問看護】滋賀県大津市仰木の里東一丁目15-20", "url": "https://www.kaigokensaku.mhlw.go.jp/25/index.php?action_kouhyou_detail_004_kani=true&JigyosyoCd=2560190130-00&ServiceCd=130&Type=search", "url2": "http://carelive.jp" }, "geometry": { "type": "Point", "coordinates": [ 135.8933902, 35.1012025 ] } },
{ "type": "Feature", "properties": { "内容": "訪問看護リハビリステーションイーライフナーシング大津【訪問看護】大津市西の庄9－17", "url": "https://www.kaigokensaku.mhlw.go.jp/25/index.php?action_kouhyou_detail_004_kani=true&JigyosyoCd=2560190841-00&ServiceCd=130&Type=search", "url2": "https://elife-nursing.com/consultation/" }, "geometry": { "type": "Point", "coordinates": [ 135.8862226, 35.000991 ] } },
{ "type": "Feature", "properties": { "内容": "ハレレア訪問看護ステーション【訪問看護】滋賀県大津市今堅田２丁目２６番８号4A", "url": "https://www.kaigokensaku.mhlw.go.jp/25/index.php?action_kouhyou_detail_004_kani=true&JigyosyoCd=2560190882-00&ServiceCd=130&Type=search", "url2": "https://www.halelea-care.com" }, "geometry": { "type": "Point", "coordinates": [ 135.920784122967973, 35.121751114086322 ] } },
{ "type": "Feature", "properties": { "内容": "Nアートおおつ訪問看護ステーション【訪問看護】滋賀県大津市大江4丁目21－18", "url": "https://www.kaigokensaku.mhlw.go.jp/25/index.php?action_kouhyou_detail_004_kani=true&JigyosyoCd=2560190577-00&ServiceCd=130&Type=search", "url2": "https://jpkango.co.jp/otsu" }, "geometry": { "type": "Point", "coordinates": [ 135.925235, 34.9810928 ] } },
{ "type": "Feature", "properties": { "内容": "滋賀県大津市赤尾町17-3-2【訪問看護】滋賀県大津市赤尾町17-3-2", "url": "https://www.kaigokensaku.mhlw.go.jp/25/index.php?action_kouhyou_detail_004_kani=true&JigyosyoCd=2560190304-00&ServiceCd=130&Type=search", "url2": null }, "geometry": { "type": "Point", "coordinates": [ 135.904561199999989, 34.978162 ] } },
{ "type": "Feature", "properties": { "内容": "在宅リハビリテーション支援センター・訪問看護ステーション　リハビリパーク【訪問看護】滋賀県大津市雄琴北一丁目14番21号", "url": "https://www.kaigokensaku.mhlw.go.jp/25/index.php?action_kouhyou_detail_004_kani=true&JigyosyoCd=2560190460-00&ServiceCd=130&Type=search", "url2": "https://www.reha-park.co.jp/" }, "geometry": { "type": "Point", "coordinates": [ 135.897600399999988, 35.0982214 ] } },
{ "type": "Feature", "properties": { "内容": "訪問看護ステーションなごみ【訪問看護】滋賀県大津市下阪本４丁目５－２０", "url": "https://www.kaigokensaku.mhlw.go.jp/25/index.php?action_kouhyou_detail_004_kani=true&JigyosyoCd=2560190858-00&ServiceCd=130&Type=search", "url2": null }, "geometry": { "type": "Point", "coordinates": [ 135.8797319, 35.063858 ] } },
{ "type": "Feature", "properties": { "内容": "訪問看護ステーション春【訪問看護】滋賀県大津市大江四丁目１３番５号エスペール瀬田１０３", "url": "https://www.kaigokensaku.mhlw.go.jp/25/index.php?action_kouhyou_detail_004_kani=true&JigyosyoCd=2560190379-00&ServiceCd=130&Type=search", "url2": "https://www.fb.com/station.haru51" }, "geometry": { "type": "Point", "coordinates": [ 135.923843576057465, 34.982173861800661 ] } },
{ "type": "Feature", "properties": { "内容": "ライフサポート訪問看護【訪問看護】滋賀県大津市松山町11-18", "url": "https://www.kaigokensaku.mhlw.go.jp/25/index.php?action_kouhyou_detail_004_kani=true&JigyosyoCd=2560190411-00&ServiceCd=130&Type=search", "url2": "http:hp.kaipoke.biz/r79/" }, "geometry": { "type": "Point", "coordinates": [ 135.862598, 35.0271531 ] } },
{ "type": "Feature", "properties": { "内容": "サンウェルズ大津訪問看護ステーション【訪問看護】滋賀県大津市美崎町6-6", "url": "https://www.kaigokensaku.mhlw.go.jp/25/index.php?action_kouhyou_detail_004_kani=true&JigyosyoCd=2560190866-00&ServiceCd=130&Type=search", "url2": null }, "geometry": { "type": "Point", "coordinates": [ 135.8900075, 34.9819494 ] } },
{ "type": "Feature", "properties": { "内容": "訪問看護ステーションアークメディカル滋賀【訪問看護】京町4-5-10-101グランドアムール101号室", "url": "https://www.kaigokensaku.mhlw.go.jp/25/index.php?action_kouhyou_detail_004_kani=true&JigyosyoCd=2560190809-00&ServiceCd=130&Type=search", "url2": "https://ark-medical.jp/" }, "geometry": { "type": "Point", "coordinates": [ 135.871272, 35.0047511 ] } },
{ "type": "Feature", "properties": { "内容": "医療法人良善会訪問看護ステーションヴィーナス24【訪問看護】大津市際川3丁目35-1", "url": "https://www.kaigokensaku.mhlw.go.jp/25/index.php?action_kouhyou_detail_004_kani=true&JigyosyoCd=2560190023-00&ServiceCd=130&Type=search", "url2": "http://hikaribyouin.com/" }, "geometry": { "type": "Point", "coordinates": [ 135.8664556, 35.0439511 ] } },
{ "type": "Feature", "properties": { "内容": "株式会社LSH【訪問看護】月輪3丁目29-4", "url": "https://www.kaigokensaku.mhlw.go.jp/25/index.php?action_kouhyou_detail_004_kani=true&JigyosyoCd=2560690352-00&ServiceCd=130&Type=search", "url2": "https:www.love-smile-happiness.co.jp" }, "geometry": { "type": "Point", "coordinates": [ 135.94079450000001, 34.983732 ] } },
{ "type": "Feature", "properties": { "内容": "訪問看護ステーションそら【訪問看護】滋賀県大津市真野１丁目12-23", "url": "https://www.kaigokensaku.mhlw.go.jp/25/index.php?action_kouhyou_detail_004_kani=true&JigyosyoCd=2560190643-00&ServiceCd=130&Type=search", "url2": "https://jyoryoku.com/sora/" }, "geometry": { "type": "Point", "coordinates": [ 135.914713799999987, 35.1234045 ] } },
{ "type": "Feature", "properties": { "内容": "訪問看護ステーション彩【訪問看護】滋賀県大津市今堅田２－９－２クリアコンフォート305", "url": "https://www.kaigokensaku.mhlw.go.jp/25/index.php?action_kouhyou_detail_004_kani=true&JigyosyoCd=2560190585-00&ServiceCd=130&Type=search", "url2": "sai@newones.co.jp" }, "geometry": { "type": "Point", "coordinates": [ 135.9191044, 35.1217452 ] } },
{ "type": "Feature", "properties": { "内容": "訪問看護ステーション手とて【訪問看護】滋賀県大津市秋葉台26番17号", "url": "https://www.kaigokensaku.mhlw.go.jp/25/index.php?action_kouhyou_detail_004_kani=true&JigyosyoCd=2560190692-00&ServiceCd=130&Type=search", "url2": "info@tetote-jiyuu.com" }, "geometry": { "type": "Point", "coordinates": [ 135.879199699999987, 34.9894018 ] } },
{ "type": "Feature", "properties": { "内容": "NursingStationOHANA【訪問看護】衣川1丁目33-10", "url": "https://www.kaigokensaku.mhlw.go.jp/25/index.php?action_kouhyou_detail_004_kani=true&JigyosyoCd=2560190908-00&ServiceCd=130&Type=search", "url2": "https://locopilina.com" }, "geometry": { "type": "Point", "coordinates": [ 135.910811671163913, 35.113169311812115 ] } },
{ "type": "Feature", "properties": { "内容": "佐繕【訪問看護】滋賀県大津市高砂町26-65", "url": "https://www.kaigokensaku.mhlw.go.jp/25/index.php?action_kouhyou_detail_004_kani=true&JigyosyoCd=2560190486-00&ServiceCd=130&Type=search", "url2": "https://www.instagram.com/sazen.insta/" }, "geometry": { "type": "Point", "coordinates": [ 135.85443570000001, 35.0406652 ] } },
{ "type": "Feature", "properties": { "内容": "あろは訪問看護ステーション【訪問看護】滋賀県大津市月輪三丁目29番4号", "url": "https://www.kaigokensaku.mhlw.go.jp/25/index.php?action_kouhyou_detail_004_kani=true&JigyosyoCd=2560190759-00&ServiceCd=130&Type=search", "url2": null }, "geometry": { "type": "Point", "coordinates": [ 135.940810693254093, 34.983822607751648 ] } },
{ "type": "Feature", "properties": { "内容": "医療法人社団　五心会　ひらたクリニック【訪問看護】平田町448-1", "url": "https://www.kaigokensaku.mhlw.go.jp/25/index.php?action_kouhyou_detail_004_kani=true&JigyosyoCd=2510202712-00&ServiceCd=130&Type=search", "url2": null }, "geometry": { "type": "Point", "coordinates": [ 132.749596099999962, 33.8895654 ] } },
{ "type": "Feature", "properties": { "内容": "訪問看護じゅう楽【訪問看護】滋賀県彦根市稲部町100-4-4", "url": "https://www.kaigokensaku.mhlw.go.jp/25/index.php?action_kouhyou_detail_004_kani=true&JigyosyoCd=2560290120-00&ServiceCd=130&Type=search", "url2": "http://jyuraku-omi.localinfo.jp" }, "geometry": { "type": "Point", "coordinates": [ 136.177016399999957, 35.1529094 ] } },
{ "type": "Feature", "properties": { "内容": "医療法人恭昭会彦根中央病院　訪問看護室【訪問看護】滋賀県彦根市西今町421番地", "url": "https://www.kaigokensaku.mhlw.go.jp/25/index.php?action_kouhyou_detail_004_kani=true&JigyosyoCd=2510202357-00&ServiceCd=130&Type=search", "url2": "http://www.hikone.or.jp/" }, "geometry": { "type": "Point", "coordinates": [ 136.241433700000016, 35.2486883 ] } },
{ "type": "Feature", "properties": { "内容": "訪問看護ステーションココエル　滋賀【訪問看護】滋賀県彦根市小泉町333番地の1", "url": "https://www.kaigokensaku.mhlw.go.jp/25/index.php?action_kouhyou_detail_004_kani=true&JigyosyoCd=2560290302-00&ServiceCd=130&Type=search", "url2": "https://www.bihonest.com/" }, "geometry": { "type": "Point", "coordinates": [ 136.249515199999962, 35.2488333 ] } },
{ "type": "Feature", "properties": { "内容": "友仁訪問看護ステーションすずらん【訪問看護】滋賀県彦根市竹ヶ鼻町80番地", "url": "https://www.kaigokensaku.mhlw.go.jp/25/index.php?action_kouhyou_detail_004_kani=true&JigyosyoCd=2560290021-00&ServiceCd=130&Type=search", "url2": "https://yujin-kaigo.com/" }, "geometry": { "type": "Point", "coordinates": [ 136.248714100000029, 35.2411118 ] } },
{ "type": "Feature", "properties": { "内容": "アクア彦根訪問看護【訪問看護】滋賀県彦根市野田山町918-1", "url": "https://www.kaigokensaku.mhlw.go.jp/25/index.php?action_kouhyou_detail_004_kani=true&JigyosyoCd=2560290294-00&ServiceCd=130&Type=search", "url2": null }, "geometry": { "type": "Point", "coordinates": [ 136.275609980364976, 35.246923435238749 ] } },
{ "type": "Feature", "properties": { "内容": "訪問看護ステーション　オレンジ【訪問看護】滋賀県彦根市長曽根南町４８５の３ステップアップ３０６号室", "url": "https://www.kaigokensaku.mhlw.go.jp/25/index.php?action_kouhyou_detail_004_kani=true&JigyosyoCd=2560290328-00&ServiceCd=130&Type=search", "url2": null }, "geometry": { "type": "Point", "coordinates": [ 136.2423523, 35.2625005 ] } },
{ "type": "Feature", "properties": { "内容": "訪問看護ステーションあろえ【訪問看護】滋賀県彦根市野口町243", "url": "https://www.kaigokensaku.mhlw.go.jp/25/index.php?action_kouhyou_detail_004_kani=true&JigyosyoCd=2560290146-00&ServiceCd=130&Type=search", "url2": "http://vns-aroe.com/" }, "geometry": { "type": "Point", "coordinates": [ 136.23640739673985, 35.221478195520646 ] } },
{ "type": "Feature", "properties": { "内容": "訪問看護ステーション　ハート【訪問看護】滋賀県彦根市岡町109−10", "url": "https://www.kaigokensaku.mhlw.go.jp/25/index.php?action_kouhyou_detail_004_kani=true&JigyosyoCd=2560290336-00&ServiceCd=130&Type=search", "url2": "https://lieferoad66.com" }, "geometry": { "type": "Point", "coordinates": [ 136.255756520190516, 35.25422399146958 ] } },
{ "type": "Feature", "properties": { "内容": "訪問看護ステーションまほろば【訪問看護】滋賀県彦根市京町3丁目8-7", "url": "https://www.kaigokensaku.mhlw.go.jp/25/index.php?action_kouhyou_detail_004_kani=true&JigyosyoCd=2560290203-00&ServiceCd=130&Type=search", "url2": null }, "geometry": { "type": "Point", "coordinates": [ 136.2372129, 35.2608666 ] } },
{ "type": "Feature", "properties": { "内容": "訪問看護ステーションらく【訪問看護】滋賀県彦根市西今町138番地南彦根クリニック内", "url": "https://www.kaigokensaku.mhlw.go.jp/25/index.php?action_kouhyou_detail_004_kani=true&JigyosyoCd=2560290344-00&ServiceCd=130&Type=search", "url2": "https://youzankai-raku.net/" }, "geometry": { "type": "Point", "coordinates": [ 136.244244, 35.246108 ] } },
{ "type": "Feature", "properties": { "内容": "訪問看護ステーションケイパハウス【訪問看護】滋賀県彦根市極楽寺町596", "url": "https://www.kaigokensaku.mhlw.go.jp/25/index.php?action_kouhyou_detail_004_kani=true&JigyosyoCd=2560290112-00&ServiceCd=130&Type=search", "url2": "http://www.kisoukai.com/" }, "geometry": { "type": "Point", "coordinates": [ 136.234865623415317, 35.231039988427192 ] } },
{ "type": "Feature", "properties": { "内容": "訪問看護ステーションすずらん高宮【訪問看護】滋賀県彦根市高宮町1368-7", "url": "https://www.kaigokensaku.mhlw.go.jp/25/index.php?action_kouhyou_detail_004_kani=true&JigyosyoCd=2560290096-00&ServiceCd=130&Type=search", "url2": "https://yujin-kaigo.com/" }, "geometry": { "type": "Point", "coordinates": [ 136.2495308, 35.2410397 ] } },
{ "type": "Feature", "properties": { "内容": "訪問看護ステーション　ケアリー彦根宇尾【訪問看護】滋賀県彦根市宇尾町３１２番地", "url": "https://www.kaigokensaku.mhlw.go.jp/25/index.php?action_kouhyou_detail_004_kani=true&JigyosyoCd=2560290286-00&ServiceCd=130&Type=search", "url2": "https://carely-recruit.com/hikoneuo/" }, "geometry": { "type": "Point", "coordinates": [ 136.233907836719766, 35.244728640781375 ] } },
{ "type": "Feature", "properties": { "内容": "公益財団法人豊郷病院　訪問看護ステーションレインボウひこね【訪問看護】滋賀県彦根市後三条町520-1", "url": "https://www.kaigokensaku.mhlw.go.jp/25/index.php?action_kouhyou_detail_004_kani=true&JigyosyoCd=2560290054-00&ServiceCd=130&Type=search", "url2": "hikone.hns@vega.ocn.ne.jp" }, "geometry": { "type": "Point", "coordinates": [ 136.247207399999979, 35.2654588 ] } },
{ "type": "Feature", "properties": { "内容": "訪問看護ステーションかがやき彦根【訪問看護】滋賀県彦根市外町浄土129-2", "url": "https://www.kaigokensaku.mhlw.go.jp/25/index.php?action_kouhyou_detail_004_kani=true&JigyosyoCd=2560290252-00&ServiceCd=130&Type=search", "url2": null }, "geometry": { "type": "Point", "coordinates": [ 136.2653939, 35.2670422 ] } },
{ "type": "Feature", "properties": { "内容": "ぴあ野訪問看護ステーション【訪問看護】南川瀬町1516番地", "url": "https://www.kaigokensaku.mhlw.go.jp/25/index.php?action_kouhyou_detail_004_kani=true&JigyosyoCd=2560290138-00&ServiceCd=130&Type=search", "url2": null }, "geometry": { "type": "Point", "coordinates": [ 136.225027299999965, 35.2243484 ] } },
{ "type": "Feature", "properties": { "内容": "訪問看護ステーションえん【訪問看護】滋賀県彦根市野瀬町４７－１メゾンカルミア１０１", "url": "https://www.kaigokensaku.mhlw.go.jp/25/index.php?action_kouhyou_detail_004_kani=true&JigyosyoCd=2560290161-00&ServiceCd=130&Type=search", "url2": "https://www.houkan-en.info/" }, "geometry": { "type": "Point", "coordinates": [ 136.2360904, 35.250340100000017 ] } },
{ "type": "Feature", "properties": { "内容": "訪問看護ステーション　レイクナーシング【訪問看護】滋賀県彦根市新海浜1丁目9番5号　2階", "url": "https://www.kaigokensaku.mhlw.go.jp/25/index.php?action_kouhyou_detail_004_kani=true&JigyosyoCd=2560290278-00&ServiceCd=130&Type=search", "url2": "https://lake-nursing.jp/" }, "geometry": { "type": "Point", "coordinates": [ 136.119662799999986, 35.2160672 ] } },
{ "type": "Feature", "properties": { "内容": "友仁訪問看護ｽﾃｰｼｮﾝ河原町【訪問看護】滋賀県彦根市河原2丁目3-2", "url": "https://www.kaigokensaku.mhlw.go.jp/25/index.php?action_kouhyou_detail_004_kani=true&JigyosyoCd=2560290211-00&ServiceCd=130&Type=search", "url2": "https://www.yujin-yamazaki.co.jp" }, "geometry": { "type": "Point", "coordinates": [ 136.255192485319498, 35.265510657954401 ] } },
{ "type": "Feature", "properties": { "内容": "訪問看護ステーションふれんず【訪問看護】滋賀県彦根市高宮町907-1", "url": "https://www.kaigokensaku.mhlw.go.jp/25/index.php?action_kouhyou_detail_004_kani=true&JigyosyoCd=2560290195-00&ServiceCd=130&Type=search", "url2": "作成中" }, "geometry": { "type": "Point", "coordinates": [ 136.262468071391709, 35.238251073471808 ] } },
{ "type": "Feature", "properties": { "内容": "訪問看護ステーションさと　彦根【訪問看護】中央町3番73号", "url": "https://www.kaigokensaku.mhlw.go.jp/25/index.php?action_kouhyou_detail_004_kani=true&JigyosyoCd=2560290088-00&ServiceCd=130&Type=search", "url2": "www.aoba-sato.com" }, "geometry": { "type": "Point", "coordinates": [ 136.25532541569757, 35.270159872917674 ] } },
{ "type": "Feature", "properties": { "内容": "中之郷診療所【訪問看護】滋賀県長浜市余呉町中之郷2434", "url": "https://www.kaigokensaku.mhlw.go.jp/25/index.php?action_kouhyou_detail_004_kani=true&JigyosyoCd=2510301720-00&ServiceCd=130&Type=search", "url2": null }, "geometry": { "type": "Point", "coordinates": [ 136.2041372, 35.5423889 ] } },
{ "type": "Feature", "properties": { "内容": "おしたにクリニック【訪問看護】内保町１０３３", "url": "https://www.kaigokensaku.mhlw.go.jp/25/index.php?action_kouhyou_detail_004_kani=true&JigyosyoCd=2510301316-00&ServiceCd=130&Type=search", "url2": "https://www.facebook.com/oshitaniclinic/" }, "geometry": { "type": "Point", "coordinates": [ 136.293972199999985, 35.4294731 ] } },
{ "type": "Feature", "properties": { "内容": "訪問看護ステーションぐりーぶ【訪問看護】滋賀県長浜市月ヶ瀬町525番地湖北タウンホーム（内）", "url": "https://www.kaigokensaku.mhlw.go.jp/25/index.php?action_kouhyou_detail_004_kani=true&JigyosyoCd=2560390284-00&ServiceCd=130&Type=search", "url2": null }, "geometry": { "type": "Point", "coordinates": [ 136.2539089, 35.4261849 ] } },
{ "type": "Feature", "properties": { "内容": "近江幸楽会　訪問看護ステーション　きよら【訪問看護】滋賀県長浜市下坂中町200番地1", "url": "https://www.kaigokensaku.mhlw.go.jp/25/index.php?action_kouhyou_detail_004_kani=true&JigyosyoCd=2560390193-00&ServiceCd=130&Type=search", "url2": "http://o-kourakukai.or.jp/" }, "geometry": { "type": "Point", "coordinates": [ 136.2840519, 35.3650723 ] } },
{ "type": "Feature", "properties": { "内容": "医療法人　東川クリニック【訪問看護】滋賀県長浜市弓削町342", "url": "https://www.kaigokensaku.mhlw.go.jp/25/index.php?action_kouhyou_detail_004_kani=true&JigyosyoCd=2510301365-00&ServiceCd=130&Type=search", "url2": null }, "geometry": { "type": "Point", "coordinates": [ 136.2320263, 35.4193795 ] } },
{ "type": "Feature", "properties": { "内容": "にしあざい診療所【訪問看護】滋賀県長浜市西浅井町大浦2590", "url": "https://www.kaigokensaku.mhlw.go.jp/25/index.php?action_kouhyou_detail_004_kani=true&JigyosyoCd=2510302025-00&ServiceCd=130&Type=search", "url2": "https://nishiazai.jadecom.or.jp/" }, "geometry": { "type": "Point", "coordinates": [ 136.1235184, 35.4982559 ] } },
{ "type": "Feature", "properties": { "内容": "訪問看護ステーションれもん【訪問看護】滋賀県長浜市湖北町山本2638-2", "url": "https://www.kaigokensaku.mhlw.go.jp/25/index.php?action_kouhyou_detail_004_kani=true&JigyosyoCd=2560390235-00&ServiceCd=130&Type=search", "url2": null }, "geometry": { "type": "Point", "coordinates": [ 136.2140693, 35.4419397 ] } },
{ "type": "Feature", "properties": { "内容": "訪問看護ステーションつなぐ【訪問看護】滋賀県長浜市湖北町速水251-6", "url": "https://www.kaigokensaku.mhlw.go.jp/25/index.php?action_kouhyou_detail_004_kani=true&JigyosyoCd=2560390334-00&ServiceCd=130&Type=search", "url2": "medicalsupport-en.com" }, "geometry": { "type": "Point", "coordinates": [ 136.237606600000021, 35.4486114 ] } },
{ "type": "Feature", "properties": { "内容": "長浜赤十字訪問看護ステーション【訪問看護】滋賀県長浜市宮前町14番7号", "url": "https://www.kaigokensaku.mhlw.go.jp/25/index.php?action_kouhyou_detail_004_kani=true&JigyosyoCd=2560390037-00&ServiceCd=130&Type=search", "url2": "http://www.nagahama.jrc.or.jp/" }, "geometry": { "type": "Point", "coordinates": [ 136.2733306, 35.3834697 ] } },
{ "type": "Feature", "properties": { "内容": "訪問看護ステーション彩【訪問看護】月ヶ瀬町423", "url": "https://www.kaigokensaku.mhlw.go.jp/25/index.php?action_kouhyou_detail_004_kani=true&JigyosyoCd=2560390144-00&ServiceCd=130&Type=search", "url2": null }, "geometry": { "type": "Point", "coordinates": [ 136.249623735100073, 35.426478418259919 ] } },
{ "type": "Feature", "properties": { "内容": "訪問看護ステーションりぷる【訪問看護】滋賀県長浜市地福寺町8-32", "url": "https://www.kaigokensaku.mhlw.go.jp/25/index.php?action_kouhyou_detail_004_kani=true&JigyosyoCd=2560390227-00&ServiceCd=130&Type=search", "url2": "https://jpkango.co.jp/" }, "geometry": { "type": "Point", "coordinates": [ 136.2767433, 35.376048 ] } },
{ "type": "Feature", "properties": { "内容": "訪問看護ステーションレスプリれもん【訪問看護】滋賀県長浜市勝町137-12", "url": "https://www.kaigokensaku.mhlw.go.jp/25/index.php?action_kouhyou_detail_004_kani=true&JigyosyoCd=2560390292-00&ServiceCd=130&Type=search", "url2": null }, "geometry": { "type": "Point", "coordinates": [ 136.2841641, 35.3759789 ] } },
{ "type": "Feature", "properties": { "内容": "訪問看護ステーション　かがやき【訪問看護】滋賀県長浜市曽根町1248", "url": "https://www.kaigokensaku.mhlw.go.jp/25/index.php?action_kouhyou_detail_004_kani=true&JigyosyoCd=2560390110-00&ServiceCd=130&Type=search", "url2": "http://www.tanakacare.co.jp/" }, "geometry": { "type": "Point", "coordinates": [ 136.251443882089433, 35.403185463954266 ] } },
{ "type": "Feature", "properties": { "内容": "訪問看護ステーションまんてん高月【訪問看護】滋賀県長浜市高月町高月641-2", "url": "https://www.kaigokensaku.mhlw.go.jp/25/index.php?action_kouhyou_detail_004_kani=true&JigyosyoCd=2560390367-00&ServiceCd=130&Type=search", "url2": null }, "geometry": { "type": "Point", "coordinates": [ 136.2306903, 35.4732666 ] } },
{ "type": "Feature", "properties": { "内容": "長浜病院訪問看護ステーション【訪問看護】長浜市大戌亥町３１３番地", "url": "https://www.kaigokensaku.mhlw.go.jp/25/index.php?action_kouhyou_detail_004_kani=true&JigyosyoCd=2560390078-00&ServiceCd=130&Type=search", "url2": "http://www.biwa.ne.jp/~nch/" }, "geometry": { "type": "Point", "coordinates": [ 136.287082100000021, 35.3690607 ] } },
{ "type": "Feature", "properties": { "内容": "アンタレス訪問看護ステーション【訪問看護】滋賀県長浜市加田町3360", "url": "https://www.kaigokensaku.mhlw.go.jp/25/index.php?action_kouhyou_detail_004_kani=true&JigyosyoCd=2560390094-00&ServiceCd=130&Type=search", "url2": "https://www.seishoukai.jp/antares" }, "geometry": { "type": "Point", "coordinates": [ 136.304977300000019, 35.3610679 ] } },
{ "type": "Feature", "properties": { "内容": "湖北病院訪問看護ステーション【訪問看護】滋賀県長浜市木之本町黒田１２２１番地長浜市立湖北病院内", "url": "https://www.kaigokensaku.mhlw.go.jp/25/index.php?action_kouhyou_detail_004_kani=true&JigyosyoCd=2560390102-00&ServiceCd=130&Type=search", "url2": "http://www.ikbk.jp/" }, "geometry": { "type": "Point", "coordinates": [ 136.21271763624577, 35.504194462371331 ] } },
{ "type": "Feature", "properties": { "内容": "地域看護ステーション　ブルーバード　長浜事業所【訪問看護】高月町東物部37-1", "url": "https://www.kaigokensaku.mhlw.go.jp/25/index.php?action_kouhyou_detail_004_kani=true&JigyosyoCd=2560390342-00&ServiceCd=130&Type=search", "url2": "www.rehaplus.co.jp" }, "geometry": { "type": "Point", "coordinates": [ 136.2294799, 35.4821785 ] } },
{ "type": "Feature", "properties": { "内容": "訪問看護ステーションReafながはま【訪問看護】滋賀県長浜市末広町240-17ワイエフビル20　２階西号室", "url": "https://www.kaigokensaku.mhlw.go.jp/25/index.php?action_kouhyou_detail_004_kani=true&JigyosyoCd=2560390375-00&ServiceCd=130&Type=search", "url2": null }, "geometry": { "type": "Point", "coordinates": [ 136.2589155, 35.3838908 ] } },
{ "type": "Feature", "properties": { "内容": "アネラ訪問看護ステーション【訪問看護】滋賀県長浜市加納町４３０－１３", "url": "https://www.kaigokensaku.mhlw.go.jp/25/index.php?action_kouhyou_detail_004_kani=true&JigyosyoCd=2560390177-00&ServiceCd=130&Type=search", "url2": "http://anela-cn.co.jp" }, "geometry": { "type": "Point", "coordinates": [ 136.299058612612868, 35.396089142931935 ] } },
{ "type": "Feature", "properties": { "内容": "こころ訪問看護ステーション【訪問看護】宮司町２７４番１", "url": "https://www.kaigokensaku.mhlw.go.jp/25/index.php?action_kouhyou_detail_004_kani=true&JigyosyoCd=2560390219-00&ServiceCd=130&Type=search", "url2": "http://cocoro.o.oo7.jp" }, "geometry": { "type": "Point", "coordinates": [ 136.2952785, 35.3834283 ] } },
{ "type": "Feature", "properties": { "内容": "訪問看護ステーションそら【訪問看護】三ツ矢元町22-14AllureⅢ", "url": "https://www.kaigokensaku.mhlw.go.jp/25/index.php?action_kouhyou_detail_004_kani=true&JigyosyoCd=2560390268-00&ServiceCd=130&Type=search", "url2": "https://www.soranurse.com/" }, "geometry": { "type": "Point", "coordinates": [ 136.2662641, 35.3882461 ] } },
{ "type": "Feature", "properties": { "内容": "訪問看護ステーションファミリオ【訪問看護】滋賀県長浜市高田町61番地3F", "url": "https://www.kaigokensaku.mhlw.go.jp/25/index.php?action_kouhyou_detail_004_kani=true&JigyosyoCd=2560390359-00&ServiceCd=130&Type=search", "url2": "https://ns-familio.com/" }, "geometry": { "type": "Point", "coordinates": [ 136.271821920023626, 35.380100178406195 ] } },
{ "type": "Feature", "properties": { "内容": "ケアコネクション訪問看護事業所【訪問看護】滋賀県近江八幡市鷹飼町457-23-201", "url": "https://www.kaigokensaku.mhlw.go.jp/25/index.php?action_kouhyou_detail_004_kani=true&JigyosyoCd=2560490092-00&ServiceCd=130&Type=search", "url2": null }, "geometry": { "type": "Point", "coordinates": [ 136.099615304893518, 35.121041185584978 ] } },
{ "type": "Feature", "properties": { "内容": "まつおファミリークリニック訪問看護【訪問看護】滋賀県近江八幡市鷹飼町1485-6", "url": "https://www.kaigokensaku.mhlw.go.jp/25/index.php?action_kouhyou_detail_004_kani=true&JigyosyoCd=2510401496-00&ServiceCd=130&Type=search", "url2": null }, "geometry": { "type": "Point", "coordinates": [ 136.102364100000017, 35.1239785 ] } },
{ "type": "Feature", "properties": { "内容": "訪問看護ステーション　オリーブ【訪問看護】滋賀県近江八幡市長田町1268-1", "url": "https://www.kaigokensaku.mhlw.go.jp/25/index.php?action_kouhyou_detail_004_kani=true&JigyosyoCd=2560490068-00&ServiceCd=130&Type=search", "url2": "http://houkan-olive.shiga.jp" }, "geometry": { "type": "Point", "coordinates": [ 136.1185875, 35.1367825 ] } },
{ "type": "Feature", "properties": { "内容": "訪問看護ステーションとくさん【訪問看護】滋賀県近江八幡市安土町小中２０９－１シャトーサンク１１０号室", "url": "https://www.kaigokensaku.mhlw.go.jp/25/index.php?action_kouhyou_detail_004_kani=true&JigyosyoCd=2560490142-00&ServiceCd=130&Type=search", "url2": null }, "geometry": { "type": "Point", "coordinates": [ 136.1338905, 35.1386957 ] } },
{ "type": "Feature", "properties": { "内容": "訪問看護ステーション　おうみ【訪問看護】滋賀県近江八幡市鷹飼町７４４番地", "url": "https://www.kaigokensaku.mhlw.go.jp/25/index.php?action_kouhyou_detail_004_kani=true&JigyosyoCd=2560490027-00&ServiceCd=130&Type=search", "url2": "http//www.seijyukai.jp" }, "geometry": { "type": "Point", "coordinates": [ 136.103983699999958, 35.125067 ] } },
{ "type": "Feature", "properties": { "内容": "訪問看護ステーション　ハピネス【訪問看護】滋賀県近江八幡市安土町下豊浦2836-1ヌーベルパーク城南210", "url": "https://www.kaigokensaku.mhlw.go.jp/25/index.php?action_kouhyou_detail_004_kani=true&JigyosyoCd=2560490159-00&ServiceCd=130&Type=search", "url2": "happiness1616.wepage.com" }, "geometry": { "type": "Point", "coordinates": [ 136.1337599, 35.147252 ] } },
{ "type": "Feature", "properties": { "内容": "訪問看護ステーション　ヴォーリズ【訪問看護】近江八幡市北之庄町４９２", "url": "https://www.kaigokensaku.mhlw.go.jp/25/index.php?action_kouhyou_detail_004_kani=true&JigyosyoCd=2560490035-00&ServiceCd=130&Type=search", "url2": "http//www.vories.or.jp/" }, "geometry": { "type": "Point", "coordinates": [ 136.089671599999974, 35.1524025 ] } },
{ "type": "Feature", "properties": { "内容": "看護小規模多機能型居宅介護　友愛の家ヴォーリズ【訪問看護】滋賀県近江八幡市北之庄町492番地", "url": "https://www.kaigokensaku.mhlw.go.jp/25/index.php?action_kouhyou_detail_004_kani=true&JigyosyoCd=2560490084-00&ServiceCd=130&Type=search", "url2": "http://www.vories.or.jp" }, "geometry": { "type": "Point", "coordinates": [ 136.089977099999942, 35.1523136 ] } },
{ "type": "Feature", "properties": { "内容": "訪問看護ステーションあやめ近江八幡【訪問看護】滋賀県近江八幡市堀上町170-5イーグル103号室", "url": "https://www.kaigokensaku.mhlw.go.jp/25/index.php?action_kouhyou_detail_004_kani=true&JigyosyoCd=2560490175-00&ServiceCd=130&Type=search", "url2": "https://firstnurse.co.jp/" }, "geometry": { "type": "Point", "coordinates": [ 136.091368100000011, 35.117672 ] } },
{ "type": "Feature", "properties": { "内容": "Thanks訪問看護事業所【訪問看護】滋賀県近江八幡市堀上町210-122F", "url": "https://www.kaigokensaku.mhlw.go.jp/25/index.php?action_kouhyou_detail_004_kani=true&JigyosyoCd=2560490118-00&ServiceCd=130&Type=search", "url2": "https://thanks.shiga.jp" }, "geometry": { "type": "Point", "coordinates": [ 136.094674199999986, 35.119703 ] } },
{ "type": "Feature", "properties": { "内容": "COCOKARACARE訪問看護リハビリステーション【訪問看護】滋賀県近江八幡市鷹飼町５６４ー１０９", "url": "https://www.kaigokensaku.mhlw.go.jp/25/index.php?action_kouhyou_detail_004_kani=true&JigyosyoCd=2560490126-00&ServiceCd=130&Type=search", "url2": "https://www.cocokaracare-houkan.com" }, "geometry": { "type": "Point", "coordinates": [ 136.101460236770635, 35.123209490011924 ] } },
{ "type": "Feature", "properties": { "内容": "訪問看護ステーション　デューン草津【訪問看護】滋賀県草津市若竹町10番41号丸十ビル1階", "url": "https://www.kaigokensaku.mhlw.go.jp/25/index.php?action_kouhyou_detail_004_kani=true&JigyosyoCd=2560690071-00&ServiceCd=130&Type=search", "url2": "http://www.nfield.co.jp" }, "geometry": { "type": "Point", "coordinates": [ 135.968648799999983, 35.0203693 ] } },
{ "type": "Feature", "properties": { "内容": "訪問看護ステーションまむは～と【訪問看護】滋賀県草津市東矢倉２丁目１３－１", "url": "https://www.kaigokensaku.mhlw.go.jp/25/index.php?action_kouhyou_detail_004_kani=true&JigyosyoCd=2560690238-00&ServiceCd=130&Type=search", "url2": "http://hp.kaipoke.biz/2xk/" }, "geometry": { "type": "Point", "coordinates": [ 135.9541116, 35.0053846 ] } },
{ "type": "Feature", "properties": { "内容": "まごころ訪問看護ステーション【訪問看護】西渋川1丁目21‐14", "url": "https://www.kaigokensaku.mhlw.go.jp/25/index.php?action_kouhyou_detail_004_kani=true&JigyosyoCd=2560690261-00&ServiceCd=130&Type=search", "url2": null }, "geometry": { "type": "Point", "coordinates": [ 135.958717799999988, 35.0274104 ] } },
{ "type": "Feature", "properties": { "内容": "医心館訪問看護ステーション南草津【訪問看護】滋賀県草津市追分南二丁目3番17号", "url": "https://www.kaigokensaku.mhlw.go.jp/25/index.php?action_kouhyou_detail_004_kani=true&JigyosyoCd=2560690287-00&ServiceCd=130&Type=search", "url2": null }, "geometry": { "type": "Point", "coordinates": [ 135.964614, 34.9950067 ] } },
{ "type": "Feature", "properties": { "内容": "スフィーダ訪問看護ステーション【訪問看護】滋賀県草津市上笠3丁目25-31ハイツヒロノ2号　102号", "url": "https://www.kaigokensaku.mhlw.go.jp/25/index.php?action_kouhyou_detail_004_kani=true&JigyosyoCd=2560690295-00&ServiceCd=130&Type=search", "url2": null }, "geometry": { "type": "Point", "coordinates": [ 135.943317900000011, 35.0278463 ] } },
{ "type": "Feature", "properties": { "内容": "あっとほーむリハビリ訪問看護ステーション【訪問看護】滋賀県草津市矢橋町7-8", "url": "https://www.kaigokensaku.mhlw.go.jp/25/index.php?action_kouhyou_detail_004_kani=true&JigyosyoCd=2560690097-00&ServiceCd=130&Type=search", "url2": "info@reha-at-home.com" }, "geometry": { "type": "Point", "coordinates": [ 135.937538099999983, 35.00744 ] } },
{ "type": "Feature", "properties": { "内容": "いろは訪問ナースステーション【訪問看護】滋賀県草津市草津四丁目８番１３号", "url": "https://www.kaigokensaku.mhlw.go.jp/25/index.php?action_kouhyou_detail_004_kani=true&JigyosyoCd=2560690196-00&ServiceCd=130&Type=search", "url2": "https://citrus-shiga.com/" }, "geometry": { "type": "Point", "coordinates": [ 135.9599451, 35.0118673 ] } },
{ "type": "Feature", "properties": { "内容": "滋賀県済生会訪問看護ステーション草津【訪問看護】滋賀県草津市西渋川二丁目9番48-11号", "url": "https://www.kaigokensaku.mhlw.go.jp/25/index.php?action_kouhyou_detail_004_kani=true&JigyosyoCd=2560690089-00&ServiceCd=130&Type=search", "url2": "http://www.saiseikai-shiga.jp/hokan/" }, "geometry": { "type": "Point", "coordinates": [ 135.963896200000022, 35.0295262 ] } },
{ "type": "Feature", "properties": { "内容": "訪問看護　かえで【訪問看護】滋賀県草津市追分南1-8-34", "url": "https://www.kaigokensaku.mhlw.go.jp/25/index.php?action_kouhyou_detail_004_kani=true&JigyosyoCd=2560690113-00&ServiceCd=130&Type=search", "url2": "http://maple-kofu.com" }, "geometry": { "type": "Point", "coordinates": [ 135.9615651, 34.9993985 ] } },
{ "type": "Feature", "properties": { "内容": "近江草津徳洲会訪問看護ステーション【訪問看護】草津市東矢倉3丁目34番52号", "url": "https://www.kaigokensaku.mhlw.go.jp/25/index.php?action_kouhyou_detail_004_kani=true&JigyosyoCd=2560690121-00&ServiceCd=130&Type=search", "url2": "http://www.oimi.kusatsu.-hp.jp" }, "geometry": { "type": "Point", "coordinates": [ 135.957019400000036, 35.0013828 ] } },
{ "type": "Feature", "properties": { "内容": "ﾗｲﾌﾊﾟｰﾄﾅｰ訪問看護ｽﾃｰｼｮﾝ【訪問看護】滋賀県草津市若竹町7-10　Act21　3FHONDAﾋﾞﾙ1F", "url": "https://www.kaigokensaku.mhlw.go.jp/25/index.php?action_kouhyou_detail_004_kani=true&JigyosyoCd=2560690139-00&ServiceCd=130&Type=search", "url2": "http://nextlife-care.com/" }, "geometry": { "type": "Point", "coordinates": [ 135.968079300000028, 35.021889800000011 ] } },
{ "type": "Feature", "properties": { "内容": "訪問看護ハートケアしが【訪問看護】滋賀県草津市平井4丁目5－25", "url": "https://www.kaigokensaku.mhlw.go.jp/25/index.php?action_kouhyou_detail_004_kani=true&JigyosyoCd=2560690246-00&ServiceCd=130&Type=search", "url2": "https://heart-care-shiga.jimdofree.com/" }, "geometry": { "type": "Point", "coordinates": [ 135.962185, 35.0332833 ] } },
{ "type": "Feature", "properties": { "内容": "うさぎナースケア南草津【訪問看護】南笠東4-8-68　CASA岡田203号室CASA岡田203号室", "url": "https://www.kaigokensaku.mhlw.go.jp/25/index.php?action_kouhyou_detail_004_kani=true&JigyosyoCd=2560690253-00&ServiceCd=130&Type=search", "url2": "https://www.big-advance.site/c/161/2700" }, "geometry": { "type": "Point", "coordinates": [ 135.941835, 34.990303399999981 ] } },
{ "type": "Feature", "properties": { "内容": "訪問看護ステーション　アイリハ【訪問看護】草津3丁目13-13山田ビル301", "url": "https://www.kaigokensaku.mhlw.go.jp/25/index.php?action_kouhyou_detail_004_kani=true&JigyosyoCd=2560690279-00&ServiceCd=130&Type=search", "url2": "ireha.jp" }, "geometry": { "type": "Point", "coordinates": [ 135.9611793, 35.0147055 ] } },
{ "type": "Feature", "properties": { "内容": "洛和会訪問看護ステーション南草津【訪問看護】滋賀県草津市野路1丁目8番地22号", "url": "https://www.kaigokensaku.mhlw.go.jp/25/index.php?action_kouhyou_detail_004_kani=true&JigyosyoCd=2560690303-00&ServiceCd=130&Type=search", "url2": null }, "geometry": { "type": "Point", "coordinates": [ 135.9494805, 35.0039271 ] } },
{ "type": "Feature", "properties": { "内容": "社会医療法人誠光会草津市訪問看護ステーション【訪問看護】滋賀県草津市野村２丁目13－13", "url": "https://www.kaigokensaku.mhlw.go.jp/25/index.php?action_kouhyou_detail_004_kani=true&JigyosyoCd=2560690014-00&ServiceCd=130&Type=search", "url2": "https://www.seikoukai-sc.or.jp/care_center/facility/nurses-station" }, "geometry": { "type": "Point", "coordinates": [ 135.953325100000029, 35.0253266 ] } },
{ "type": "Feature", "properties": { "内容": "リニエ訪問看護ステーション草津【訪問看護】滋賀県草津市野村7-2-1ヴィラヤマナカ101", "url": "https://www.kaigokensaku.mhlw.go.jp/25/index.php?action_kouhyou_detail_004_kani=true&JigyosyoCd=2560690220-00&ServiceCd=130&Type=search", "url2": "https://linie-group.jp/office/houmonkango-kusatsu/" }, "geometry": { "type": "Point", "coordinates": [ 135.9557494, 35.0287807 ] } },
{ "type": "Feature", "properties": { "内容": "よつば訪問看護ステーション【訪問看護】矢橋町６２１番地", "url": "https://www.kaigokensaku.mhlw.go.jp/25/index.php?action_kouhyou_detail_004_kani=true&JigyosyoCd=2560690048-00&ServiceCd=130&Type=search", "url2": "caretown-nurse-st@yotsuba-lcn.or.jp" }, "geometry": { "type": "Point", "coordinates": [ 135.927025299999968, 35.0031347 ] } },
{ "type": "Feature", "properties": { "内容": "Nアート訪問看護ステーション【訪問看護】滋賀県草津市西草津1丁目7-55", "url": "https://www.kaigokensaku.mhlw.go.jp/25/index.php?action_kouhyou_detail_004_kani=true&JigyosyoCd=2560690063-00&ServiceCd=130&Type=search", "url2": "https://jpkango.co.jp/homecare" }, "geometry": { "type": "Point", "coordinates": [ 135.955388645260626, 35.018734948608873 ] } },
{ "type": "Feature", "properties": { "内容": "社会医療法人誠光会　淡海ふれあい病院訪問看護ステーション【訪問看護】滋賀県草津市矢橋町1629－5淡海ふれあい病院2階", "url": "https://www.kaigokensaku.mhlw.go.jp/25/index.php?action_kouhyou_detail_004_kani=true&JigyosyoCd=2560690311-00&ServiceCd=130&Type=search", "url2": "https://www.seikoukai-sc.or.jp/hureaihoukan" }, "geometry": { "type": "Point", "coordinates": [ 135.928228158860776, 35.011222421233335 ] } },
{ "type": "Feature", "properties": { "内容": "そるりも訪問看護ステーション【訪問看護】滋賀県草津市笠山1丁目8-35リバティヒルズ405-107号", "url": "https://www.kaigokensaku.mhlw.go.jp/25/index.php?action_kouhyou_detail_004_kani=true&JigyosyoCd=2560690345-00&ServiceCd=130&Type=search", "url2": "https://thought-ful.com" }, "geometry": { "type": "Point", "coordinates": [ 135.945409703075825, 34.987844584700404 ] } },
{ "type": "Feature", "properties": { "内容": "訪問看護ステーションシンプル【訪問看護】滋賀県守山市播磨田町47-5", "url": "https://www.kaigokensaku.mhlw.go.jp/25/index.php?action_kouhyou_detail_004_kani=true&JigyosyoCd=2560790095-00&ServiceCd=130&Type=search", "url2": "http://over-style.com/" }, "geometry": { "type": "Point", "coordinates": [ 135.998265363628548, 35.065481148512085 ] } },
{ "type": "Feature", "properties": { "内容": "訪問看護ステーションCras【訪問看護】滋賀県守山市守山３丁目17-3風の薫荘6号室", "url": "https://www.kaigokensaku.mhlw.go.jp/25/index.php?action_kouhyou_detail_004_kani=true&JigyosyoCd=2560790160-00&ServiceCd=130&Type=search", "url2": "https://cras-shiga.com/home_care/" }, "geometry": { "type": "Point", "coordinates": [ 135.9884638, 35.0583028 ] } },
{ "type": "Feature", "properties": { "内容": "アクア守山訪問看護【訪問看護】滋賀県守山市水保町2891-214", "url": "https://www.kaigokensaku.mhlw.go.jp/25/index.php?action_kouhyou_detail_004_kani=true&JigyosyoCd=2560790178-00&ServiceCd=130&Type=search", "url2": null }, "geometry": { "type": "Point", "coordinates": [ 135.9430525, 35.1113719 ] } },
{ "type": "Feature", "properties": { "内容": "おうみ在宅クリニック訪問看護ステーション【訪問看護】滋賀県守山市二町町195-4", "url": "https://www.kaigokensaku.mhlw.go.jp/25/index.php?action_kouhyou_detail_004_kani=true&JigyosyoCd=2560790244-00&ServiceCd=130&Type=search", "url2": "https://omi-home-clinic.jp/home-nursing/" }, "geometry": { "type": "Point", "coordinates": [ 135.979409258860784, 35.045150055545605 ] } },
{ "type": "Feature", "properties": { "内容": "訪問看護ステーションきあら．【訪問看護】滋賀県守山市吉身二丁目6番26号", "url": "https://www.kaigokensaku.mhlw.go.jp/25/index.php?action_kouhyou_detail_004_kani=true&JigyosyoCd=2560790210-00&ServiceCd=130&Type=search", "url2": "https://home-nursing-kiara1.jimdofree.com/" }, "geometry": { "type": "Point", "coordinates": [ 135.9953095, 35.0588898 ] } },
{ "type": "Feature", "properties": { "内容": "ゆいの里訪問看護ステーション【訪問看護】滋賀県守山市洲本町1ゆいの里　本部2階", "url": "https://www.kaigokensaku.mhlw.go.jp/25/index.php?action_kouhyou_detail_004_kani=true&JigyosyoCd=2560790129-00&ServiceCd=130&Type=search", "url2": "https://www.yuinosato.or.jp" }, "geometry": { "type": "Point", "coordinates": [ 135.9907983, 35.0603459 ] } },
{ "type": "Feature", "properties": { "内容": "ゆうらいふナースステーション【訪問看護】守山市石田町735-3", "url": "https://www.kaigokensaku.mhlw.go.jp/25/index.php?action_kouhyou_detail_004_kani=true&JigyosyoCd=2560790061-00&ServiceCd=130&Type=search", "url2": "http://www.youlife.ne.jp" }, "geometry": { "type": "Point", "coordinates": [ 135.972553400000038, 35.0748549 ] } },
{ "type": "Feature", "properties": { "内容": "社会福祉法人守山市社会福祉協議会訪問看護事業所【訪問看護】滋賀県守山市石田町422番地社協石田ケアセンター内", "url": "https://www.kaigokensaku.mhlw.go.jp/25/index.php?action_kouhyou_detail_004_kani=true&JigyosyoCd=2560790020-00&ServiceCd=130&Type=search", "url2": null }, "geometry": { "type": "Point", "coordinates": [ 135.979090511794993, 35.069385322600574 ] } },
{ "type": "Feature", "properties": { "内容": "訪問看護なかさとCCS【訪問看護】滋賀県守山市浮気町３２１番地１６サンシャインビル101", "url": "https://www.kaigokensaku.mhlw.go.jp/25/index.php?action_kouhyou_detail_004_kani=true&JigyosyoCd=2560790103-00&ServiceCd=130&Type=search", "url2": "http://www.konan-psy.or.jp" }, "geometry": { "type": "Point", "coordinates": [ 135.999309199999971, 35.05098 ] } },
{ "type": "Feature", "properties": { "内容": "アクア水保訪問看護【訪問看護】滋賀県守山市水保町2892-2琵琶湖プラザ806号室", "url": "https://www.kaigokensaku.mhlw.go.jp/25/index.php?action_kouhyou_detail_004_kani=true&JigyosyoCd=2560790277-00&ServiceCd=130&Type=search", "url2": null }, "geometry": { "type": "Point", "coordinates": [ 135.944013786508208, 35.114667555211376 ] } },
{ "type": "Feature", "properties": { "内容": "大宝リハビリセンター【訪問看護】滋賀県守山市守山3-7-5", "url": "https://www.kaigokensaku.mhlw.go.jp/25/index.php?action_kouhyou_detail_004_kani=true&JigyosyoCd=2560790079-00&ServiceCd=130&Type=search", "url2": null }, "geometry": { "type": "Point", "coordinates": [ 135.9883549, 35.0565208 ] } },
{ "type": "Feature", "properties": { "内容": "あいむ訪問看護ステーション【訪問看護】勝部二丁目4-12", "url": "https://www.kaigokensaku.mhlw.go.jp/25/index.php?action_kouhyou_detail_004_kani=true&JigyosyoCd=2560790087-00&ServiceCd=130&Type=search", "url2": "http://k-aimu.co.jp/" }, "geometry": { "type": "Point", "coordinates": [ 135.989138128328705, 35.047636118299458 ] } },
{ "type": "Feature", "properties": { "内容": "訪問看護ステーションみつばち【訪問看護】滋賀県守山市水保町2892-2琵琶湖プラザ1019号室", "url": "https://www.kaigokensaku.mhlw.go.jp/25/index.php?action_kouhyou_detail_004_kani=true&JigyosyoCd=2560790285-00&ServiceCd=130&Type=search", "url2": null }, "geometry": { "type": "Point", "coordinates": [ 135.9439816, 35.1145403 ] } },
{ "type": "Feature", "properties": { "内容": "訪問看護ステーションこすもす【訪問看護】滋賀県守山市播磨田町３１５番地の５旭ビル403号室", "url": "https://www.kaigokensaku.mhlw.go.jp/25/index.php?action_kouhyou_detail_004_kani=true&JigyosyoCd=2560790111-00&ServiceCd=130&Type=search", "url2": "https://www.rehanurse.com" }, "geometry": { "type": "Point", "coordinates": [ 135.994987499999979, 35.0683001 ] } },
{ "type": "Feature", "properties": { "内容": "訪問看護ステーションリヤンド栗東【訪問看護】滋賀県栗東市野尻121－2", "url": "https://www.kaigokensaku.mhlw.go.jp/25/index.php?action_kouhyou_detail_004_kani=true&JigyosyoCd=2561290111-00&ServiceCd=130&Type=search", "url2": "https://www.liende-kizuna.jp/recruit/facility-list/ritto/" }, "geometry": { "type": "Point", "coordinates": [ 135.991151, 35.0377707 ] } },
{ "type": "Feature", "properties": { "内容": "訪問看護ステーションよりみち【訪問看護】滋賀県栗東市川辺620井口ハイツ１号", "url": "https://www.kaigokensaku.mhlw.go.jp/25/index.php?action_kouhyou_detail_004_kani=true&JigyosyoCd=2561290137-00&ServiceCd=130&Type=search", "url2": "https://www.yorimichi.biz/" }, "geometry": { "type": "Point", "coordinates": [ 135.986995900000011, 35.0186323 ] } },
{ "type": "Feature", "properties": { "内容": "訪問看護ステーションリハビリラボ【訪問看護】高野335サンワード101", "url": "https://www.kaigokensaku.mhlw.go.jp/25/index.php?action_kouhyou_detail_004_kani=true&JigyosyoCd=2561290129-00&ServiceCd=130&Type=search", "url2": "https://www.solaremedical.com" }, "geometry": { "type": "Point", "coordinates": [ 135.99805, 35.022926 ] } },
{ "type": "Feature", "properties": { "内容": "栗東市訪問看護ステーション【訪問看護】栗東市安養寺190番地", "url": "https://www.kaigokensaku.mhlw.go.jp/25/index.php?action_kouhyou_detail_004_kani=true&JigyosyoCd=2561290038-00&ServiceCd=130&Type=search", "url2": "http://www.saiseikai-shiga.jp/hokan/" }, "geometry": { "type": "Point", "coordinates": [ 136.004084199999966, 35.0175813 ] } },
{ "type": "Feature", "properties": { "内容": "あうん訪問看護栗東【訪問看護】滋賀県栗東市手原5丁目3-24", "url": "https://www.kaigokensaku.mhlw.go.jp/25/index.php?action_kouhyou_detail_004_kani=true&JigyosyoCd=2561290053-00&ServiceCd=130&Type=search", "url2": "aun-shiga.co.jp" }, "geometry": { "type": "Point", "coordinates": [ 135.996239549290522, 35.026349606343771 ] } },
{ "type": "Feature", "properties": { "内容": "訪問看護ステーションゆうき【訪問看護】滋賀県栗東市下鈎477-1アラモードK　A号室", "url": "https://www.kaigokensaku.mhlw.go.jp/25/index.php?action_kouhyou_detail_004_kani=true&JigyosyoCd=2561290061-00&ServiceCd=130&Type=search", "url2": "https://nurse-station-yuuki.jimdofree.com/" }, "geometry": { "type": "Point", "coordinates": [ 135.981669900000014, 35.0241385 ] } },
{ "type": "Feature", "properties": { "内容": "Nアートりっとう訪問看護ステーション【訪問看護】滋賀県栗東市手原2丁目2-1ベルヴィ栗東106", "url": "https://www.kaigokensaku.mhlw.go.jp/25/index.php?action_kouhyou_detail_004_kani=true&JigyosyoCd=2561290103-00&ServiceCd=130&Type=search", "url2": "http://www.jpkango.co.jp" }, "geometry": { "type": "Point", "coordinates": [ 135.9970277, 35.0244049 ] } },
{ "type": "Feature", "properties": { "内容": "滋賀県済生会訪問看護ステーション【訪問看護】滋賀県栗東市小柿四丁目1-1", "url": "https://www.kaigokensaku.mhlw.go.jp/25/index.php?action_kouhyou_detail_004_kani=true&JigyosyoCd=2561290012-00&ServiceCd=130&Type=search", "url2": "http://www.saiseikai-shiga.jp/houkan/" }, "geometry": { "type": "Point", "coordinates": [ 135.975663456933631, 35.024465777074496 ] } },
{ "type": "Feature", "properties": { "内容": "訪問看護なかさとプラス【訪問看護】北中小路20−72F", "url": "https://www.kaigokensaku.mhlw.go.jp/25/index.php?action_kouhyou_detail_004_kani=true&JigyosyoCd=2561290095-00&ServiceCd=130&Type=search", "url2": null }, "geometry": { "type": "Point", "coordinates": [ 135.9764257, 35.0419883 ] } },
{ "type": "Feature", "properties": { "内容": "オリーブ・草津訪問看護ステーション【訪問看護】滋賀県栗東市小柿8丁目５－８", "url": "https://www.kaigokensaku.mhlw.go.jp/25/index.php?action_kouhyou_detail_004_kani=true&JigyosyoCd=2561290152-00&ServiceCd=130&Type=search", "url2": null }, "geometry": { "type": "Point", "coordinates": [ 135.9712331, 35.0191019 ] } },
{ "type": "Feature", "properties": { "内容": "訪問看護ステーションなないろ【訪問看護】滋賀県栗東市小平井3丁目2番27号GREENAWAY　１F", "url": "https://www.kaigokensaku.mhlw.go.jp/25/index.php?action_kouhyou_detail_004_kani=true&JigyosyoCd=2561290020-00&ServiceCd=130&Type=search", "url2": null }, "geometry": { "type": "Point", "coordinates": [ 135.965057, 35.0372169 ] } },
{ "type": "Feature", "properties": { "内容": "訪問看護ステーションかたつむり【訪問看護】滋賀県栗東市下鈎870−11ローレル双樹301", "url": "https://www.kaigokensaku.mhlw.go.jp/25/index.php?action_kouhyou_detail_004_kani=true&JigyosyoCd=2561290087-00&ServiceCd=130&Type=search", "url2": "https://katatsumuri-nursing.jimdofree.com/" }, "geometry": { "type": "Point", "coordinates": [ 135.9853522, 35.0337156 ] } },
{ "type": "Feature", "properties": { "内容": "医療法人　岩谷医院【訪問看護】甲賀市水口町中邸2番10号", "url": "https://www.kaigokensaku.mhlw.go.jp/25/index.php?action_kouhyou_detail_004_kani=true&JigyosyoCd=2511401214-00&ServiceCd=130&Type=search", "url2": "http://www.myclinic.ne.jp/iwayaiin/" }, "geometry": { "type": "Point", "coordinates": [ 136.161831, 34.9730912 ] } },
{ "type": "Feature", "properties": { "内容": "医療法人　　今村医院【訪問看護】滋賀県甲賀市甲南町深川2201番地", "url": "https://www.kaigokensaku.mhlw.go.jp/25/index.php?action_kouhyou_detail_004_kani=true&JigyosyoCd=2511401545-00&ServiceCd=130&Type=search", "url2": "imamuraiin.byoinnavi.jp" }, "geometry": { "type": "Point", "coordinates": [ 136.164434799999981, 34.9293351 ] } },
{ "type": "Feature", "properties": { "内容": "訪問看護ステーションまごころ【訪問看護】滋賀県甲賀市水口町山3938-41", "url": "https://www.kaigokensaku.mhlw.go.jp/25/index.php?action_kouhyou_detail_004_kani=true&JigyosyoCd=2561490125-00&ServiceCd=130&Type=search", "url2": "http://www.dayservice-magokoro.com/." }, "geometry": { "type": "Point", "coordinates": [ 136.174168799999961, 35.0068199 ] } },
{ "type": "Feature", "properties": { "内容": "訪問看護ステーションオリーブのさと【訪問看護】甲賀市水口町八坂２－５２", "url": "https://www.kaigokensaku.mhlw.go.jp/25/index.php?action_kouhyou_detail_004_kani=true&JigyosyoCd=2561490190-00&ServiceCd=130&Type=search", "url2": "houkan-olive.shiga.jp" }, "geometry": { "type": "Point", "coordinates": [ 136.1734109, 34.973595 ] } },
{ "type": "Feature", "properties": { "内容": "甲賀市社協訪問看護ステーション【訪問看護】滋賀県甲賀市水口町水口5609番地", "url": "https://www.kaigokensaku.mhlw.go.jp/25/index.php?action_kouhyou_detail_004_kani=true&JigyosyoCd=2561490075-00&ServiceCd=130&Type=search", "url2": null }, "geometry": { "type": "Point", "coordinates": [ 136.168079430619059, 34.966468522198113 ] } },
{ "type": "Feature", "properties": { "内容": "公立甲賀病院訪問看護ステーション【訪問看護】滋賀県甲賀市水口町松尾1256番地", "url": "https://www.kaigokensaku.mhlw.go.jp/25/index.php?action_kouhyou_detail_004_kani=true&JigyosyoCd=2561490141-00&ServiceCd=130&Type=search", "url2": "https://www.kohka-hp.or.jp/" }, "geometry": { "type": "Point", "coordinates": [ 136.177922099999932, 34.9826835 ] } },
{ "type": "Feature", "properties": { "内容": "甲南病院訪問看護ステーション【訪問看護】滋賀県甲賀市甲南町葛木958番地", "url": "https://www.kaigokensaku.mhlw.go.jp/25/index.php?action_kouhyou_detail_004_kani=true&JigyosyoCd=2561490067-00&ServiceCd=130&Type=search", "url2": "http://www.kohnan-shiga.or.jp" }, "geometry": { "type": "Point", "coordinates": [ 136.175272088169095, 34.929026224872366 ] } },
{ "type": "Feature", "properties": { "内容": "訪問看護ステーション和来　やす【訪問看護】滋賀県野洲市行畑1丁目12−3", "url": "https://www.kaigokensaku.mhlw.go.jp/25/index.php?action_kouhyou_detail_004_kani=true&JigyosyoCd=2561390085-00&ServiceCd=130&Type=search", "url2": "https://warai.life" }, "geometry": { "type": "Point", "coordinates": [ 136.0182996, 35.0626375 ] } },
{ "type": "Feature", "properties": { "内容": "訪問看護ステーションなかさと【訪問看護】滋賀県野洲市八夫2077", "url": "https://www.kaigokensaku.mhlw.go.jp/25/index.php?action_kouhyou_detail_004_kani=true&JigyosyoCd=2561390028-00&ServiceCd=130&Type=search", "url2": "http://www.konan-psy.or.jp" }, "geometry": { "type": "Point", "coordinates": [ 136.021453699999938, 35.0887735 ] } },
{ "type": "Feature", "properties": { "内容": "ラステイト野洲訪問看護ステーション【訪問看護】滋賀県野洲市野洲2053-1", "url": "https://www.kaigokensaku.mhlw.go.jp/25/index.php?action_kouhyou_detail_004_kani=true&JigyosyoCd=2561390101-00&ServiceCd=130&Type=search", "url2": "www.lastatejp" }, "geometry": { "type": "Point", "coordinates": [ 136.00627750000001, 35.0640353 ] } },
{ "type": "Feature", "properties": { "内容": "市立野洲病院訪問看護ステーション【訪問看護】滋賀県野洲市吉地１１２７番地", "url": "https://www.kaigokensaku.mhlw.go.jp/25/index.php?action_kouhyou_detail_004_kani=true&JigyosyoCd=2561390077-00&ServiceCd=130&Type=search", "url2": "https://www.yasu-hp.jp" }, "geometry": { "type": "Point", "coordinates": [ 136.016328700000031, 35.1097482 ] } },
{ "type": "Feature", "properties": { "内容": "訪問看護ステーション和来　こなん【訪問看護】滋賀県湖南市中央5丁目168甲西中央ビル203", "url": "https://www.kaigokensaku.mhlw.go.jp/25/index.php?action_kouhyou_detail_004_kani=true&JigyosyoCd=2562390092-00&ServiceCd=130&Type=search", "url2": "https://warai.life/" }, "geometry": { "type": "Point", "coordinates": [ 136.087662099999989, 35.0031116 ] } },
{ "type": "Feature", "properties": { "内容": "こうせい訪問看護ステーション【訪問看護】滋賀県湖南市菩提寺104-14", "url": "https://www.kaigokensaku.mhlw.go.jp/25/index.php?action_kouhyou_detail_004_kani=true&JigyosyoCd=2562390019-00&ServiceCd=130&Type=search", "url2": "http://ikuta-hospital.com" }, "geometry": { "type": "Point", "coordinates": [ 136.072988200000026, 35.0221787 ] } },
{ "type": "Feature", "properties": { "内容": "ぼだいじ訪問看護ステーション【訪問看護】湖南市菩提寺３２７番地４", "url": "https://www.kaigokensaku.mhlw.go.jp/25/index.php?action_kouhyou_detail_004_kani=true&JigyosyoCd=2562390043-00&ServiceCd=130&Type=search", "url2": "houmonkango@chiiroba.jp" }, "geometry": { "type": "Point", "coordinates": [ 136.070379699999989, 35.0404571 ] } },
{ "type": "Feature", "properties": { "内容": "湖南市訪問看護ステーション【訪問看護】滋賀県湖南市石部東５丁目３番１号", "url": "https://www.kaigokensaku.mhlw.go.jp/25/index.php?action_kouhyou_detail_004_kani=true&JigyosyoCd=2562390027-00&ServiceCd=130&Type=search", "url2": null }, "geometry": { "type": "Point", "coordinates": [ 136.064461700000038, 35.0034032 ] } },
{ "type": "Feature", "properties": { "内容": "訪問看護ステーション　つむぎ【訪問看護】高松町9-2", "url": "https://www.kaigokensaku.mhlw.go.jp/25/index.php?action_kouhyou_detail_004_kani=true&JigyosyoCd=2562390050-00&ServiceCd=130&Type=search", "url2": null }, "geometry": { "type": "Point", "coordinates": [ 136.128721300000052, 35.0203744 ] } },
{ "type": "Feature", "properties": { "内容": "リハビリ訪問看護ステーションWalk【訪問看護】25花寿文化教室１階", "url": "https://www.kaigokensaku.mhlw.go.jp/25/index.php?action_kouhyou_detail_004_kani=true&JigyosyoCd=2562290086-00&ServiceCd=130&Type=search", "url2": "https://walk-ynwa.com/" }, "geometry": { "type": "Point", "coordinates": [ 137.966109, 36.199199 ] } },
{ "type": "Feature", "properties": { "内容": "あいりん訪問看護ステーション【訪問看護】滋賀県高島市今津町南新保87番地1", "url": "https://www.kaigokensaku.mhlw.go.jp/25/index.php?action_kouhyou_detail_004_kani=true&JigyosyoCd=2562290011-00&ServiceCd=130&Type=search", "url2": "www.oumiairinen.org" }, "geometry": { "type": "Point", "coordinates": [ 136.043042381193914, 35.407336030402675 ] } },
{ "type": "Feature", "properties": { "内容": "Ｎアートくつき訪問看護ステーション【訪問看護】滋賀県高島市朽木宮前坊476", "url": "https://www.kaigokensaku.mhlw.go.jp/25/index.php?action_kouhyou_detail_004_kani=true&JigyosyoCd=2562290060-00&ServiceCd=130&Type=search", "url2": null }, "geometry": { "type": "Point", "coordinates": [ 135.9277386, 35.3514615 ] } },
{ "type": "Feature", "properties": { "内容": "ナースステーションひより【訪問看護】滋賀県高島市新旭町旭1-7-1北棟1階部1-1A", "url": "https://www.kaigokensaku.mhlw.go.jp/25/index.php?action_kouhyou_detail_004_kani=true&JigyosyoCd=2562290102-00&ServiceCd=130&Type=search", "url2": "https://logic-shiga.com/" }, "geometry": { "type": "Point", "coordinates": [ 136.03468095106507, 35.355088176096324 ] } },
{ "type": "Feature", "properties": { "内容": "高島市訪問看護ステーション【訪問看護】滋賀県高島市勝野680高島総合健康福祉センター", "url": "https://www.kaigokensaku.mhlw.go.jp/25/index.php?action_kouhyou_detail_004_kani=true&JigyosyoCd=2562290029-00&ServiceCd=130&Type=search", "url2": "http://www.city.takashima.lｇ.jp" }, "geometry": { "type": "Point", "coordinates": [ 136.010577, 35.2998787 ] } },
{ "type": "Feature", "properties": { "内容": "マキノ病院訪問看護ステーション【訪問看護】滋賀県高島市マキノ町新保1097", "url": "https://www.kaigokensaku.mhlw.go.jp/25/index.php?action_kouhyou_detail_004_kani=true&JigyosyoCd=2562290037-00&ServiceCd=130&Type=search", "url2": "http//www.makino-hosp.or.jp" }, "geometry": { "type": "Point", "coordinates": [ 136.032842036756847, 35.445833126087742 ] } },
{ "type": "Feature", "properties": { "内容": "夢の木訪問看護ステーション【訪問看護】滋賀県高島市勝野１６３８番地ガリバーハウス１０２号", "url": "https://www.kaigokensaku.mhlw.go.jp/25/index.php?action_kouhyou_detail_004_kani=true&JigyosyoCd=2562290045-00&ServiceCd=130&Type=search", "url2": "http://yumenoki.wp.xdomain.jp/" }, "geometry": { "type": "Point", "coordinates": [ 136.013218700000039, 35.2933307 ] } },
{ "type": "Feature", "properties": { "内容": "ワンモア訪問看護リハビリセンター【訪問看護】滋賀県東近江市佐野町569-2", "url": "https://www.kaigokensaku.mhlw.go.jp/25/index.php?action_kouhyou_detail_004_kani=true&JigyosyoCd=2560590107-00&ServiceCd=130&Type=search", "url2": "http://www.onemoreship.com/" }, "geometry": { "type": "Point", "coordinates": [ 136.172152500000038, 35.1809612 ] } },
{ "type": "Feature", "properties": { "内容": "訪問看護ステーションえだまめ【訪問看護】滋賀県東近江市百済寺本町1504-2", "url": "https://www.kaigokensaku.mhlw.go.jp/25/index.php?action_kouhyou_detail_004_kani=true&JigyosyoCd=2560590156-00&ServiceCd=130&Type=search", "url2": null }, "geometry": { "type": "Point", "coordinates": [ 136.2764602, 35.1204483 ] } },
{ "type": "Feature", "properties": { "内容": "株式会社　サクセス近江　ひいらぎの里訪問看護ステーション【訪問看護】滋賀県東近江市山路町323-1東陽ハイツ206", "url": "https://www.kaigokensaku.mhlw.go.jp/25/index.php?action_kouhyou_detail_004_kani=true&JigyosyoCd=2560590172-00&ServiceCd=130&Type=search", "url2": null }, "geometry": { "type": "Point", "coordinates": [ 136.159449818338487, 35.179271875237042 ] } },
{ "type": "Feature", "properties": { "内容": "公益社団法人滋賀県看護協会訪問看護ステーション【訪問看護】滋賀県東近江市八日市上之町1-39公益社団法人滋賀県看護協会在宅ケアセンターみのり", "url": "https://www.kaigokensaku.mhlw.go.jp/25/index.php?action_kouhyou_detail_004_kani=true&JigyosyoCd=2560590016-00&ServiceCd=130&Type=search", "url2": null }, "geometry": { "type": "Point", "coordinates": [ 136.204476200000045, 35.1140001 ] } },
{ "type": "Feature", "properties": { "内容": "結の家訪問看護ステーション【訪問看護】小倉町1975番地2", "url": "https://www.kaigokensaku.mhlw.go.jp/25/index.php?action_kouhyou_detail_004_kani=true&JigyosyoCd=2560590099-00&ServiceCd=130&Type=search", "url2": "http://www.fukushi-mall.com" }, "geometry": { "type": "Point", "coordinates": [ 136.280931038424626, 35.090764349118238 ] } },
{ "type": "Feature", "properties": { "内容": "あおぞら訪問看護ステーション【訪問看護】滋賀県東近江市平松町498番地", "url": "https://www.kaigokensaku.mhlw.go.jp/25/index.php?action_kouhyou_detail_004_kani=true&JigyosyoCd=2560590073-00&ServiceCd=130&Type=search", "url2": "https://aozora-lake-east.com/" }, "geometry": { "type": "Point", "coordinates": [ 136.250072600000067, 35.1444905 ] } },
{ "type": "Feature", "properties": { "内容": "訪問看護リハビリステーションまごころ東近江【訪問看護】滋賀県東近江市東沖野2丁目4‐3ナーシングホームまごころ内", "url": "https://www.kaigokensaku.mhlw.go.jp/25/index.php?action_kouhyou_detail_004_kani=true&JigyosyoCd=2560590206-00&ServiceCd=130&Type=search", "url2": "https://www.dayservice-magokoro.com/" }, "geometry": { "type": "Point", "coordinates": [ 136.2093291, 35.1041086 ] } },
{ "type": "Feature", "properties": { "内容": "訪問看護ステーションすいれん【訪問看護】滋賀県東近江市妙法寺町794", "url": "https://www.kaigokensaku.mhlw.go.jp/25/index.php?action_kouhyou_detail_004_kani=true&JigyosyoCd=2560590065-00&ServiceCd=130&Type=search", "url2": null }, "geometry": { "type": "Point", "coordinates": [ 136.2249584, 35.0968189 ] } },
{ "type": "Feature", "properties": { "内容": "訪問看護ステーションあすか【訪問看護】顔戸1411-50", "url": "https://www.kaigokensaku.mhlw.go.jp/25/index.php?action_kouhyou_detail_004_kani=true&JigyosyoCd=2562490041-00&ServiceCd=130&Type=search", "url2": "https://askacare.com/" }, "geometry": { "type": "Point", "coordinates": [ 136.295933900000023, 35.3410039 ] } },
{ "type": "Feature", "properties": { "内容": "訪問看護ステーション　ひだまり【訪問看護】滋賀県米原市能登瀬1322-1", "url": "https://www.kaigokensaku.mhlw.go.jp/25/index.php?action_kouhyou_detail_004_kani=true&JigyosyoCd=2562490074-00&ServiceCd=130&Type=search", "url2": "www.hidamari-shiga.jp" }, "geometry": { "type": "Point", "coordinates": [ 136.315836303460287, 35.332190203231541 ] } },
{ "type": "Feature", "properties": { "内容": "訪問看護ステーションみしま池【訪問看護】滋賀県米原市池下563-1", "url": "https://www.kaigokensaku.mhlw.go.jp/25/index.php?action_kouhyou_detail_004_kani=true&JigyosyoCd=2562490082-00&ServiceCd=130&Type=search", "url2": "https://www.cs-mishimaike.com/" }, "geometry": { "type": "Point", "coordinates": [ 136.3557406, 35.371667 ] } },
{ "type": "Feature", "properties": { "内容": "地域包括ケアセンターいぶき【訪問看護】滋賀県米原市春照58-1", "url": "https://www.kaigokensaku.mhlw.go.jp/25/index.php?action_kouhyou_detail_004_kani=true&JigyosyoCd=2512400264-00&ServiceCd=130&Type=search", "url2": "https://www.jadecom.or.jp/jadecomhp/ibuki" }, "geometry": { "type": "Point", "coordinates": [ 136.382650900000044, 35.383506899999986 ] } },
{ "type": "Feature", "properties": { "内容": "訪問看護ステーションライフ【訪問看護】滋賀県米原市高溝636-6http://www.lifewelfa.com", "url": "https://www.kaigokensaku.mhlw.go.jp/25/index.php?action_kouhyou_detail_004_kani=true&JigyosyoCd=2562490058-00&ServiceCd=130&Type=search", "url2": "http://www.lifewelfa.com" }, "geometry": { "type": "Point", "coordinates": [ 136.294128738098181, 35.347797614532432 ] } },
{ "type": "Feature", "properties": { "内容": "こむぎ訪問看護ステーション【訪問看護】滋賀県米原市多和田1031-3", "url": "https://www.kaigokensaku.mhlw.go.jp/25/index.php?action_kouhyou_detail_004_kani=true&JigyosyoCd=2562490090-00&ServiceCd=130&Type=search", "url2": "http://www.sinca100.biz/" }, "geometry": { "type": "Point", "coordinates": [ 136.3320933, 35.336283 ] } },
{ "type": "Feature", "properties": { "内容": "医療法人社団朝日医院【訪問看護】滋賀県蒲生郡日野町大窪1010-1", "url": "https://www.kaigokensaku.mhlw.go.jp/25/index.php?action_kouhyou_detail_004_kani=true&JigyosyoCd=2511500593-00&ServiceCd=130&Type=search", "url2": "http://shigaken-asahi-iin.jp/" }, "geometry": { "type": "Point", "coordinates": [ 136.2472644, 35.0111958 ] } },
{ "type": "Feature", "properties": { "内容": "訪問看護ステーションすばる【訪問看護】蒲生郡日野町上野田246番地", "url": "https://www.kaigokensaku.mhlw.go.jp/25/index.php?action_kouhyou_detail_004_kani=true&JigyosyoCd=2561590015-00&ServiceCd=130&Type=search", "url2": "http://www.subarukai.jp/sthino" }, "geometry": { "type": "Point", "coordinates": [ 136.23614361136174, 35.017870492599407 ] } },
{ "type": "Feature", "properties": { "内容": "医療法人社団弓削メディカルクリニック在宅医療部【訪問看護】滋賀県蒲生郡竜王町弓削1825", "url": "https://www.kaigokensaku.mhlw.go.jp/25/index.php?action_kouhyou_detail_004_kani=true&JigyosyoCd=2511500650-00&ServiceCd=130&Type=search", "url2": "http//www.biwa.ne.jp/~masa-ame" }, "geometry": { "type": "Point", "coordinates": [ 136.11966, 35.0882634 ] } },
{ "type": "Feature", "properties": { "内容": "訪問看護ステーション　ゆげ【訪問看護】滋賀県蒲生郡竜王町弓削1825", "url": "https://www.kaigokensaku.mhlw.go.jp/25/index.php?action_kouhyou_detail_004_kani=true&JigyosyoCd=2561590049-00&ServiceCd=130&Type=search", "url2": "https://www.yugemed.com" }, "geometry": { "type": "Point", "coordinates": [ 136.11966, 35.0882634 ] } },
{ "type": "Feature", "properties": { "内容": "訪問看護ステーション輝₋ひかり‐【訪問看護】滋賀県愛知郡愛荘町長野2124－3", "url": "https://www.kaigokensaku.mhlw.go.jp/25/index.php?action_kouhyou_detail_004_kani=true&JigyosyoCd=2561790037-00&ServiceCd=130&Type=search", "url2": "https://www.houmonkangohikari.com/" }, "geometry": { "type": "Point", "coordinates": [ 136.204240600000048, 35.1826075 ] } },
{ "type": "Feature", "properties": { "内容": "訪問看護ステーション　ままのて【訪問看護】滋賀県愛知郡愛荘町南野々目１１６-１", "url": "https://www.kaigokensaku.mhlw.go.jp/25/index.php?action_kouhyou_detail_004_kani=true&JigyosyoCd=2561790045-00&ServiceCd=130&Type=search", "url2": null }, "geometry": { "type": "Point", "coordinates": [ 136.223974699999985, 35.165951 ] } },
{ "type": "Feature", "properties": { "内容": "(公財)豊郷病院　訪問看護ステーションレインボウとよさと【訪問看護】滋賀県犬上郡豊郷町石畑199-7", "url": "https://www.kaigokensaku.mhlw.go.jp/25/index.php?action_kouhyou_detail_004_kani=true&JigyosyoCd=2561890019-00&ServiceCd=130&Type=search", "url2": "http://www.toyosato.or.jp" }, "geometry": { "type": "Point", "coordinates": [ 136.2311654, 35.2003125 ] } },
{ "type": "Feature", "properties": { "内容": "リーチ訪問看護ステーション【訪問看護】滋賀県犬上郡豊郷町石畑１８７－６みかんなカボス１０２", "url": "https://www.kaigokensaku.mhlw.go.jp/25/index.php?action_kouhyou_detail_004_kani=true&JigyosyoCd=2561890035-00&ServiceCd=130&Type=search", "url2": "reach-iris@reach-green.com" }, "geometry": { "type": "Point", "coordinates": [ 136.2322486, 35.2002744 ] } },
{ "type": "Feature", "properties": { "内容": "訪問看護ステーション　ここあ【訪問看護】滋賀県犬上郡甲良町大字北落400番地", "url": "https://www.kaigokensaku.mhlw.go.jp/25/index.php?action_kouhyou_detail_004_kani=true&JigyosyoCd=2561890027-00&ServiceCd=130&Type=search", "url2": "https://houmonkango-cocoa.amebaownd.com" }, "geometry": { "type": "Point", "coordinates": [ 136.269790853049756, 35.207465800771175 ] } }
]
}
