{
"type": "FeatureCollection",
"name": "geo_25_特定福祉用具販売",
"crs": { "type": "name", "properties": { "name": "urn:ogc:def:crs:OGC:1.3:CRS84" } },
"features": [
{ "type": "Feature", "properties": { "内容": "株式会社ヤマシタ　大津営業所【特定福祉用具販売】大萱一丁目15-34瀬田畑中ビル4階", "url": "https://www.kaigokensaku.mhlw.go.jp/25/index.php?action_kouhyou_detail_004_kani=true&JigyosyoCd=2570101135-00&ServiceCd=410&Type=search", "url2": "http://www.ycota.jp/" }, "geometry": { "type": "Point", "coordinates": [ 135.926605784231725, 34.985566485137497 ] } },
{ "type": "Feature", "properties": { "内容": "有限会社ほっと【特定福祉用具販売】滋賀県大津市南郷1丁目20-19", "url": "https://www.kaigokensaku.mhlw.go.jp/25/index.php?action_kouhyou_detail_004_kani=true&JigyosyoCd=2570100814-00&ServiceCd=410&Type=search", "url2": null }, "geometry": { "type": "Point", "coordinates": [ 135.908941199999958, 34.9385521 ] } },
{ "type": "Feature", "properties": { "内容": "SocialService－ソーシャルサービス－【特定福祉用具販売】大津市唐崎一丁目19-7", "url": "https://www.kaigokensaku.mhlw.go.jp/25/index.php?action_kouhyou_detail_004_kani=true&JigyosyoCd=2570102497-00&ServiceCd=410&Type=search", "url2": null }, "geometry": { "type": "Point", "coordinates": [ 135.872918233868404, 35.047582389168284 ] } },
{ "type": "Feature", "properties": { "内容": "株式会社Reach・Welfare【特定福祉用具販売】滋賀県大津市御殿浜2-30", "url": "https://www.kaigokensaku.mhlw.go.jp/25/index.php?action_kouhyou_detail_004_kani=true&JigyosyoCd=2570105706-00&ServiceCd=410&Type=search", "url2": null }, "geometry": { "type": "Point", "coordinates": [ 135.8955953, 34.9876412 ] } },
{ "type": "Feature", "properties": { "内容": "フランスベッド株式会社メディカル滋賀営業所【特定福祉用具販売】滋賀県大津市逢坂1-9-11大津駅南ビル1Ｆ", "url": "https://www.kaigokensaku.mhlw.go.jp/25/index.php?action_kouhyou_detail_004_kani=true&JigyosyoCd=2570102489-00&ServiceCd=410&Type=search", "url2": "http://www.francebed.co.jp" }, "geometry": { "type": "Point", "coordinates": [ 135.862796828130712, 35.002356847694983 ] } },
{ "type": "Feature", "properties": { "内容": "株式会社　ウエルネット　大津支店【特定福祉用具販売】滋賀県大津市大江2丁目20-9サブライムビル1階102号室", "url": "https://www.kaigokensaku.mhlw.go.jp/25/index.php?action_kouhyou_detail_004_kani=true&JigyosyoCd=2570103115-00&ServiceCd=410&Type=search", "url2": "http://www.welnet.co.jp/" }, "geometry": { "type": "Point", "coordinates": [ 135.915894846371714, 34.979382787244418 ] } },
{ "type": "Feature", "properties": { "内容": "株式会社　三笑堂　大津営業所【特定福祉用具販売】滋賀県大津市勧学2丁目3番9号", "url": "https://www.kaigokensaku.mhlw.go.jp/25/index.php?action_kouhyou_detail_004_kani=true&JigyosyoCd=2570104667-00&ServiceCd=410&Type=search", "url2": "http://www.sanshodoh.co.jp/" }, "geometry": { "type": "Point", "coordinates": [ 135.8625396, 35.0332912 ] } },
{ "type": "Feature", "properties": { "内容": "ケアサポートおうみ　大津店【特定福祉用具販売】滋賀県大津市大江6-17-4", "url": "https://www.kaigokensaku.mhlw.go.jp/25/index.php?action_kouhyou_detail_004_kani=true&JigyosyoCd=2570105201-00&ServiceCd=410&Type=search", "url2": "http://www.kaigo-oumi.co.jp" }, "geometry": { "type": "Point", "coordinates": [ 135.922600800000026, 34.9726221 ] } },
{ "type": "Feature", "properties": { "内容": "ローズライフ【特定福祉用具販売】滋賀県大津市皇子が丘1番30号", "url": "https://www.kaigokensaku.mhlw.go.jp/25/index.php?action_kouhyou_detail_004_kani=true&JigyosyoCd=2570104980-00&ServiceCd=410&Type=search", "url2": "https://rose-life.co.jp/" }, "geometry": { "type": "Point", "coordinates": [ 135.849618372769214, 35.027092223161851 ] } },
{ "type": "Feature", "properties": { "内容": "しみんふくし滋賀福祉用具事業所【特定福祉用具販売】滋賀県大津市柳川2丁目11-25", "url": "https://www.kaigokensaku.mhlw.go.jp/25/index.php?action_kouhyou_detail_004_kani=true&JigyosyoCd=2570104766-00&ServiceCd=410&Type=search", "url2": null }, "geometry": { "type": "Point", "coordinates": [ 135.8616147, 35.0327341 ] } },
{ "type": "Feature", "properties": { "内容": "ダスキンヘルスレント大津ステーション【特定福祉用具販売】滋賀県大津市真野2-28-3", "url": "https://www.kaigokensaku.mhlw.go.jp/25/index.php?action_kouhyou_detail_004_kani=true&JigyosyoCd=2570104337-00&ServiceCd=410&Type=search", "url2": "http://healthrent.duskin.jp/" }, "geometry": { "type": "Point", "coordinates": [ 135.919645306420733, 35.12671890856921 ] } },
{ "type": "Feature", "properties": { "内容": "アスケア福祉用具センター滋賀【特定福祉用具販売】大津市唐橋町8-8", "url": "https://www.kaigokensaku.mhlw.go.jp/25/index.php?action_kouhyou_detail_004_kani=true&JigyosyoCd=2570106340-00&ServiceCd=410&Type=search", "url2": "https://www.as-care.co.jp/" }, "geometry": { "type": "Point", "coordinates": [ 135.9049623, 34.9757916 ] } },
{ "type": "Feature", "properties": { "内容": "愛和ライフサポート【特定福祉用具販売】大津市蓮池町10－20", "url": "https://www.kaigokensaku.mhlw.go.jp/25/index.php?action_kouhyou_detail_004_kani=true&JigyosyoCd=2570101507-00&ServiceCd=410&Type=search", "url2": "http://www.ai-wa.jp/" }, "geometry": { "type": "Point", "coordinates": [ 135.863508499999966, 35.046273 ] } },
{ "type": "Feature", "properties": { "内容": "株式会社ヤサカ　滋賀南支店【特定福祉用具販売】滋賀県大津市月輪1-4-65", "url": "https://www.kaigokensaku.mhlw.go.jp/25/index.php?action_kouhyou_detail_004_kani=true&JigyosyoCd=2570103214-00&ServiceCd=410&Type=search", "url2": "http://daisuki-kaigo.com/" }, "geometry": { "type": "Point", "coordinates": [ 135.931419378706352, 34.988849267189714 ] } },
{ "type": "Feature", "properties": { "内容": "コンソルテ福祉用具事業所【特定福祉用具販売】滋賀県大津市瀬田4丁目1番3号", "url": "https://www.kaigokensaku.mhlw.go.jp/25/index.php?action_kouhyou_detail_004_kani=true&JigyosyoCd=2570104386-00&ServiceCd=410&Type=search", "url2": null }, "geometry": { "type": "Point", "coordinates": [ 135.908071899999982, 34.9637165 ] } },
{ "type": "Feature", "properties": { "内容": "ＫＩＴホームケア【特定福祉用具販売】唐橋町7番44号", "url": "https://www.kaigokensaku.mhlw.go.jp/25/index.php?action_kouhyou_detail_004_kani=true&JigyosyoCd=2570100178-00&ServiceCd=410&Type=search", "url2": null }, "geometry": { "type": "Point", "coordinates": [ 135.90531390000001, 34.9769261 ] } },
{ "type": "Feature", "properties": { "内容": "株式会社クラマツ福祉用具事業所【特定福祉用具販売】滋賀県彦根市松原町3428-5ラフェスタ彦根1-F", "url": "https://www.kaigokensaku.mhlw.go.jp/25/index.php?action_kouhyou_detail_004_kani=true&JigyosyoCd=2570201240-00&ServiceCd=410&Type=search", "url2": "http://kuramatsu.co.jp/" }, "geometry": { "type": "Point", "coordinates": [ 136.255784371658365, 35.285704232669815 ] } },
{ "type": "Feature", "properties": { "内容": "レンタルサービスひまわり【特定福祉用具販売】滋賀県彦根市里根町191-1ハートフルヒルズ彦根", "url": "https://www.kaigokensaku.mhlw.go.jp/25/index.php?action_kouhyou_detail_004_kani=true&JigyosyoCd=2570201133-00&ServiceCd=410&Type=search", "url2": "http://www.soin-vie.co.jp" }, "geometry": { "type": "Point", "coordinates": [ 136.26785540000003, 35.2674261 ] } },
{ "type": "Feature", "properties": { "内容": "ケアサポート　おうみ　彦根店【特定福祉用具販売】彦根市西葛籠町３１２", "url": "https://www.kaigokensaku.mhlw.go.jp/25/index.php?action_kouhyou_detail_004_kani=true&JigyosyoCd=2570200895-00&ServiceCd=410&Type=search", "url2": "http://www.kaigo-oumi.co.jp" }, "geometry": { "type": "Point", "coordinates": [ 136.239961255819708, 35.225526221299546 ] } },
{ "type": "Feature", "properties": { "内容": "株式会社ヤマシタ　彦根営業所【特定福祉用具販売】滋賀県彦根市後三条町134-1", "url": "https://www.kaigokensaku.mhlw.go.jp/25/index.php?action_kouhyou_detail_004_kani=true&JigyosyoCd=2570200150-00&ServiceCd=410&Type=search", "url2": "http://www.yco.co.jp" }, "geometry": { "type": "Point", "coordinates": [ 136.25162572172087, 35.260965430232353 ] } },
{ "type": "Feature", "properties": { "内容": "ＪＡ東びわこ愛あいステーション【特定福祉用具販売】滋賀県彦根市賀田山町234-6", "url": "https://www.kaigokensaku.mhlw.go.jp/25/index.php?action_kouhyou_detail_004_kani=true&JigyosyoCd=2570200101-00&ServiceCd=410&Type=search", "url2": "http://www.east.jas.or.jp" }, "geometry": { "type": "Point", "coordinates": [ 136.213344799999959, 35.2204509 ] } },
{ "type": "Feature", "properties": { "内容": "ケアパートナーヨシイ彦根【特定福祉用具販売】彦根市小泉町３８７－２", "url": "https://www.kaigokensaku.mhlw.go.jp/25/index.php?action_kouhyou_detail_004_kani=true&JigyosyoCd=2570200689-00&ServiceCd=410&Type=search", "url2": null }, "geometry": { "type": "Point", "coordinates": [ 136.249735800000053, 35.2502413 ] } },
{ "type": "Feature", "properties": { "内容": "トヨタカローラ滋賀株式会社【特定福祉用具販売】滋賀県彦根市西沼波町256-1", "url": "https://www.kaigokensaku.mhlw.go.jp/25/index.php?action_kouhyou_detail_004_kani=true&JigyosyoCd=2570201026-00&ServiceCd=410&Type=search", "url2": null }, "geometry": { "type": "Point", "coordinates": [ 136.265506100000039, 35.2604436 ] } },
{ "type": "Feature", "properties": { "内容": "株式会社トーカイ　彦根営業所【特定福祉用具販売】滋賀県彦根市小泉町78番地13", "url": "https://www.kaigokensaku.mhlw.go.jp/25/index.php?action_kouhyou_detail_004_kani=true&JigyosyoCd=2570200911-00&ServiceCd=410&Type=search", "url2": "htpp：//www.tokai-corp.com" }, "geometry": { "type": "Point", "coordinates": [ 136.252208, 35.2481362 ] } },
{ "type": "Feature", "properties": { "内容": "ほっと住まいるケア【特定福祉用具販売】滋賀県長浜市高月町西阿閉1414", "url": "https://www.kaigokensaku.mhlw.go.jp/25/index.php?action_kouhyou_detail_004_kani=true&JigyosyoCd=2570301438-00&ServiceCd=410&Type=search", "url2": "http://hotsmile-care.com/" }, "geometry": { "type": "Point", "coordinates": [ 136.216520599999967, 35.4518796 ] } },
{ "type": "Feature", "properties": { "内容": "ふれんど【特定福祉用具販売】滋賀県長浜市平方町８３０番地", "url": "https://www.kaigokensaku.mhlw.go.jp/25/index.php?action_kouhyou_detail_004_kani=true&JigyosyoCd=2570301594-00&ServiceCd=410&Type=search", "url2": "https://www.kyodoshiga.jp/index.php?/member/detail/2076" }, "geometry": { "type": "Point", "coordinates": [ 136.270902799999988, 35.3715777 ] } },
{ "type": "Feature", "properties": { "内容": "リーフル【特定福祉用具販売】滋賀県長浜市勝町３７２－１", "url": "https://www.kaigokensaku.mhlw.go.jp/25/index.php?action_kouhyou_detail_004_kani=true&JigyosyoCd=2570300018-00&ServiceCd=410&Type=search", "url2": "https://leaful.jp/" }, "geometry": { "type": "Point", "coordinates": [ 136.286073900000019, 35.3748516 ] } },
{ "type": "Feature", "properties": { "内容": "ケアサポートおうみ【特定福祉用具販売】長浜市本庄町700-1", "url": "https://www.kaigokensaku.mhlw.go.jp/25/index.php?action_kouhyou_detail_004_kani=true&JigyosyoCd=2570300638-00&ServiceCd=410&Type=search", "url2": "http://www.kaigo-oumi.co.jp" }, "geometry": { "type": "Point", "coordinates": [ 136.312966646496392, 35.371749954544114 ] } },
{ "type": "Feature", "properties": { "内容": "ケアパートナーヨシイ【特定福祉用具販売】八幡東町308-4", "url": "https://www.kaigokensaku.mhlw.go.jp/25/index.php?action_kouhyou_detail_004_kani=true&JigyosyoCd=2570301446-00&ServiceCd=410&Type=search", "url2": "https://www.cpsafa.com" }, "geometry": { "type": "Point", "coordinates": [ 138.252924, 36.204824 ] } },
{ "type": "Feature", "properties": { "内容": "株式会社ヤサカ　長浜営業所【特定福祉用具販売】滋賀県長浜市高田町11-3", "url": "https://www.kaigokensaku.mhlw.go.jp/25/index.php?action_kouhyou_detail_004_kani=true&JigyosyoCd=2570301792-00&ServiceCd=410&Type=search", "url2": "https://www.daisuki-kaigo.com/" }, "geometry": { "type": "Point", "coordinates": [ 136.2761251, 35.381382500000022 ] } },
{ "type": "Feature", "properties": { "内容": "有限会社ふれあいサポート長浜展示場【特定福祉用具販売】口分田町528-21", "url": "https://www.kaigokensaku.mhlw.go.jp/25/index.php?action_kouhyou_detail_004_kani=true&JigyosyoCd=2570300232-00&ServiceCd=410&Type=search", "url2": "http://www.fureai-s.jp/" }, "geometry": { "type": "Point", "coordinates": [ 136.290803899999986, 35.3977518 ] } },
{ "type": "Feature", "properties": { "内容": "田中ビジネスサポート株式会社　福祉事業部　湖北事業所【特定福祉用具販売】滋賀県長浜市高月町柏原418-1", "url": "https://www.kaigokensaku.mhlw.go.jp/25/index.php?action_kouhyou_detail_004_kani=true&JigyosyoCd=2570300935-00&ServiceCd=410&Type=search", "url2": "http://tanakabs.com/" }, "geometry": { "type": "Point", "coordinates": [ 136.231447099999968, 35.4775834 ] } },
{ "type": "Feature", "properties": { "内容": "ヨコタ　ライフサービス【特定福祉用具販売】滋賀県長浜市木之本町木之本750", "url": "https://www.kaigokensaku.mhlw.go.jp/25/index.php?action_kouhyou_detail_004_kani=true&JigyosyoCd=2570300844-00&ServiceCd=410&Type=search", "url2": null }, "geometry": { "type": "Point", "coordinates": [ 136.229169100000036, 35.5037448 ] } },
{ "type": "Feature", "properties": { "内容": "株式会社アクシア【特定福祉用具販売】滋賀県長浜市祇園町939-1RFマンション祇園102", "url": "https://www.kaigokensaku.mhlw.go.jp/25/index.php?action_kouhyou_detail_004_kani=true&JigyosyoCd=2570300810-00&ServiceCd=410&Type=search", "url2": null }, "geometry": { "type": "Point", "coordinates": [ 136.252936399999953, 35.3837624 ] } },
{ "type": "Feature", "properties": { "内容": "有限会社　扇　屋【特定福祉用具販売】滋賀県近江八幡市仲屋町上35-2", "url": "https://www.kaigokensaku.mhlw.go.jp/25/index.php?action_kouhyou_detail_004_kani=true&JigyosyoCd=2570400107-00&ServiceCd=410&Type=search", "url2": null }, "geometry": { "type": "Point", "coordinates": [ 136.093540500000017, 35.1369484 ] } },
{ "type": "Feature", "properties": { "内容": "株式会社近新福祉関連事業部【特定福祉用具販売】滋賀県近江八幡市東川町２１４－１", "url": "https://www.kaigokensaku.mhlw.go.jp/25/index.php?action_kouhyou_detail_004_kani=true&JigyosyoCd=2570400305-00&ServiceCd=410&Type=search", "url2": null }, "geometry": { "type": "Point", "coordinates": [ 136.102060793887318, 35.096828043206237 ] } },
{ "type": "Feature", "properties": { "内容": "ライフパートナー【特定福祉用具販売】東草津1丁目4-53ビワコホンダビル1階D号室", "url": "https://www.kaigokensaku.mhlw.go.jp/25/index.php?action_kouhyou_detail_004_kani=true&JigyosyoCd=2570601423-00&ServiceCd=410&Type=search", "url2": "https://nextlife-care.com/" }, "geometry": { "type": "Point", "coordinates": [ 135.965231128680756, 35.014278765171966 ] } },
{ "type": "Feature", "properties": { "内容": "ふくすけ【特定福祉用具販売】野路8丁目15-8-205クラージュ21", "url": "https://www.kaigokensaku.mhlw.go.jp/25/index.php?action_kouhyou_detail_004_kani=true&JigyosyoCd=2570601670-00&ServiceCd=410&Type=search", "url2": "http://hp.kaipoke.biz/xsb/index.html" }, "geometry": { "type": "Point", "coordinates": [ 135.952084799999966, 34.997352600000035 ] } },
{ "type": "Feature", "properties": { "内容": "有限会社草津介護センター【特定福祉用具販売】滋賀県草津市西渋川一丁目１５番１０号", "url": "https://www.kaigokensaku.mhlw.go.jp/25/index.php?action_kouhyou_detail_004_kani=true&JigyosyoCd=2570600045-00&ServiceCd=410&Type=search", "url2": "http://www.kusatsu-kaigo.co.jp" }, "geometry": { "type": "Point", "coordinates": [ 135.961427, 35.0292707 ] } },
{ "type": "Feature", "properties": { "内容": "デ・アルコ有限会社【特定福祉用具販売】青地町１０２５番地の１４", "url": "https://www.kaigokensaku.mhlw.go.jp/25/index.php?action_kouhyou_detail_004_kani=true&JigyosyoCd=2570600367-00&ServiceCd=410&Type=search", "url2": "http//www.d-alko.co.jp/" }, "geometry": { "type": "Point", "coordinates": [ 135.9683354, 35.0063573 ] } },
{ "type": "Feature", "properties": { "内容": "株式会社たかはし　ライフサポート事業部【特定福祉用具販売】滋賀県守山市川田町413-2", "url": "https://www.kaigokensaku.mhlw.go.jp/25/index.php?action_kouhyou_detail_004_kani=true&JigyosyoCd=2570700761-00&ServiceCd=410&Type=search", "url2": "http://www.teic.co.jp" }, "geometry": { "type": "Point", "coordinates": [ 136.0014059, 35.0811044 ] } },
{ "type": "Feature", "properties": { "内容": "あいむ福祉用具【特定福祉用具販売】滋賀県守山市守山四丁目6番11号", "url": "https://www.kaigokensaku.mhlw.go.jp/25/index.php?action_kouhyou_detail_004_kani=true&JigyosyoCd=2570700126-00&ServiceCd=410&Type=search", "url2": "http://k-aimu.co.jp" }, "geometry": { "type": "Point", "coordinates": [ 135.989577, 35.0608203 ] } },
{ "type": "Feature", "properties": { "内容": "有限会社びわこメディカル【特定福祉用具販売】滋賀県守山市播磨田町107-1", "url": "https://www.kaigokensaku.mhlw.go.jp/25/index.php?action_kouhyou_detail_004_kani=true&JigyosyoCd=2570700100-00&ServiceCd=410&Type=search", "url2": "http://www.biwakomedical.com/" }, "geometry": { "type": "Point", "coordinates": [ 135.9979482, 35.0673448 ] } },
{ "type": "Feature", "properties": { "内容": "株式会社　三笑堂　滋賀支店【特定福祉用具販売】栗東市手原1丁目5番36", "url": "https://www.kaigokensaku.mhlw.go.jp/25/index.php?action_kouhyou_detail_004_kani=true&JigyosyoCd=2571200076-00&ServiceCd=410&Type=search", "url2": "http://www.sanshodoh.co.jp" }, "geometry": { "type": "Point", "coordinates": [ 136.0045533, 35.0266523 ] } },
{ "type": "Feature", "properties": { "内容": "ダスキンヘルスレント栗東【特定福祉用具販売】滋賀県栗東市手原7丁目4-14", "url": "https://www.kaigokensaku.mhlw.go.jp/25/index.php?action_kouhyou_detail_004_kani=true&JigyosyoCd=2571200415-00&ServiceCd=410&Type=search", "url2": "http://koko-shiga.co.jp" }, "geometry": { "type": "Point", "coordinates": [ 136.000358487033054, 35.027914739758579 ] } },
{ "type": "Feature", "properties": { "内容": "田中ビジネスサポート株式会社　福祉事業部　湖南事業所【特定福祉用具販売】滋賀県栗東市大橋7丁目7-7", "url": "https://www.kaigokensaku.mhlw.go.jp/25/index.php?action_kouhyou_detail_004_kani=true&JigyosyoCd=2571200324-00&ServiceCd=410&Type=search", "url2": "http://tanakabs.com/" }, "geometry": { "type": "Point", "coordinates": [ 136.004747599999973, 35.0288298 ] } },
{ "type": "Feature", "properties": { "内容": "株式会社三和【特定福祉用具販売】滋賀県甲賀市水口町八光１－２３", "url": "https://www.kaigokensaku.mhlw.go.jp/25/index.php?action_kouhyou_detail_004_kani=true&JigyosyoCd=2571400718-00&ServiceCd=410&Type=search", "url2": null }, "geometry": { "type": "Point", "coordinates": [ 136.1711917, 34.9702304 ] } },
{ "type": "Feature", "properties": { "内容": "ライフケアサービスまごころ【特定福祉用具販売】滋賀県甲賀市水口町山3938-36", "url": "https://www.kaigokensaku.mhlw.go.jp/25/index.php?action_kouhyou_detail_004_kani=true&JigyosyoCd=2571401104-00&ServiceCd=410&Type=search", "url2": "http//www.dayservice-magokoro.com/" }, "geometry": { "type": "Point", "coordinates": [ 136.174334695106523, 35.007441878812109 ] } },
{ "type": "Feature", "properties": { "内容": "有限会社ヒューマンケア【特定福祉用具販売】滋賀県野洲市市三宅2661", "url": "https://www.kaigokensaku.mhlw.go.jp/25/index.php?action_kouhyou_detail_004_kani=true&JigyosyoCd=2571300074-00&ServiceCd=410&Type=search", "url2": "http://human-care.jp" }, "geometry": { "type": "Point", "coordinates": [ 136.017998600000027, 35.0705756 ] } },
{ "type": "Feature", "properties": { "内容": "株式会社ヤサカ　野洲営業所【特定福祉用具販売】滋賀県野洲市小篠原880101棟", "url": "https://www.kaigokensaku.mhlw.go.jp/25/index.php?action_kouhyou_detail_004_kani=true&JigyosyoCd=2571300744-00&ServiceCd=410&Type=search", "url2": "https://www.daisuki-kaigo.com/" }, "geometry": { "type": "Point", "coordinates": [ 136.0287796, 35.0646607 ] } },
{ "type": "Feature", "properties": { "内容": "特定福祉用具販売事業所フラワーケア【特定福祉用具販売】滋賀県野洲市冨波乙798番地5", "url": "https://www.kaigokensaku.mhlw.go.jp/25/index.php?action_kouhyou_detail_004_kani=true&JigyosyoCd=2571300793-00&ServiceCd=410&Type=search", "url2": null }, "geometry": { "type": "Point", "coordinates": [ 136.016223507306279, 35.059137946335603 ] } },
{ "type": "Feature", "properties": { "内容": "ふぇいす【特定福祉用具販売】滋賀県湖南市石部３丁目1-18", "url": "https://www.kaigokensaku.mhlw.go.jp/25/index.php?action_kouhyou_detail_004_kani=true&JigyosyoCd=2572300230-00&ServiceCd=410&Type=search", "url2": "http://www.fukushifaith.jp/" }, "geometry": { "type": "Point", "coordinates": [ 136.044369578561486, 35.022965811561861 ] } },
{ "type": "Feature", "properties": { "内容": "さわいメディカル【特定福祉用具販売】滋賀県高島市安曇川町末広３－３１", "url": "https://www.kaigokensaku.mhlw.go.jp/25/index.php?action_kouhyou_detail_004_kani=true&JigyosyoCd=2572200463-00&ServiceCd=410&Type=search", "url2": "https://swi-medical.amebaownd.com/" }, "geometry": { "type": "Point", "coordinates": [ 136.02224810000007, 35.3258124 ] } },
{ "type": "Feature", "properties": { "内容": "株式会社ヤサカ【特定福祉用具販売】今津町弘川273-10", "url": "https://www.kaigokensaku.mhlw.go.jp/25/index.php?action_kouhyou_detail_004_kani=true&JigyosyoCd=2572200174-00&ServiceCd=410&Type=search", "url2": "http://www.daisuki-kaigo.com" }, "geometry": { "type": "Point", "coordinates": [ 136.026480135282327, 35.408232388980515 ] } },
{ "type": "Feature", "properties": { "内容": "株式会社ニッシン【特定福祉用具販売】滋賀県高島市安曇川町西万木651-3", "url": "https://www.kaigokensaku.mhlw.go.jp/25/index.php?action_kouhyou_detail_004_kani=true&JigyosyoCd=2572200406-00&ServiceCd=410&Type=search", "url2": "https://kaigo-nissin.com/" }, "geometry": { "type": "Point", "coordinates": [ 136.020942699999978, 35.3300092 ] } },
{ "type": "Feature", "properties": { "内容": "だすきんへるすれんとようかいち【特定福祉用具販売】滋賀県東近江市八日市東本町3-14", "url": "https://www.kaigokensaku.mhlw.go.jp/25/index.php?action_kouhyou_detail_004_kani=true&JigyosyoCd=2570501268-00&ServiceCd=410&Type=search", "url2": "https://kokoshiga.xsrv.jp/care/" }, "geometry": { "type": "Point", "coordinates": [ 136.204434600000013, 35.1080311 ] } },
{ "type": "Feature", "properties": { "内容": "介護福祉用具八日市合同会社【特定福祉用具販売】滋賀県東近江市妙法寺町854-3Ｉ・Ｃビル１－Ａ号", "url": "https://www.kaigokensaku.mhlw.go.jp/25/index.php?action_kouhyou_detail_004_kani=true&JigyosyoCd=2570501128-00&ServiceCd=410&Type=search", "url2": "http://www.asahi-net.or.jp/~db7g-kjm/" }, "geometry": { "type": "Point", "coordinates": [ 136.2251695, 35.0996158 ] } },
{ "type": "Feature", "properties": { "内容": "株式会社ライフ【特定福祉用具販売】滋賀県米原市高溝２３６－８", "url": "https://www.kaigokensaku.mhlw.go.jp/25/index.php?action_kouhyou_detail_004_kani=true&JigyosyoCd=2572400139-00&ServiceCd=410&Type=search", "url2": "http:/www.lifewelfa.com" }, "geometry": { "type": "Point", "coordinates": [ 136.292387100000042, 35.3456365 ] } },
{ "type": "Feature", "properties": { "内容": "ゆめさと福祉用具貸与販売事業所【特定福祉用具販売】滋賀県蒲生郡日野町松尾５丁目１３番地１", "url": "https://www.kaigokensaku.mhlw.go.jp/25/index.php?action_kouhyou_detail_004_kani=true&JigyosyoCd=2571500491-00&ServiceCd=410&Type=search", "url2": null }, "geometry": { "type": "Point", "coordinates": [ 136.240475003862116, 35.020128787562442 ] } }
]
}
