{
"type": "FeatureCollection",
"name": "geo_25_介護老人福祉施設",
"crs": { "type": "name", "properties": { "name": "urn:ogc:def:crs:OGC:1.3:CRS84" } },
"features": [
{ "type": "Feature", "properties": { "内容": "特別養護老人ホーム　千寿の郷【介護老人福祉施設】滋賀県大津市石山千町276-1", "url": "https://www.kaigokensaku.mhlw.go.jp/25/index.php?action_kouhyou_detail_004_kani=true&JigyosyoCd=2570100640-00&ServiceCd=510&Type=search", "url2": "http://senjyunosato.or.jp/" }, "geometry": { "type": "Point", "coordinates": [ 135.885366100000056, 34.9494088 ] } },
{ "type": "Feature", "properties": { "内容": "特別養護老人ホーム真盛園【介護老人福祉施設】滋賀県大津市坂本５丁目１３番１号", "url": "https://www.kaigokensaku.mhlw.go.jp/25/index.php?action_kouhyou_detail_004_kani=true&JigyosyoCd=2570100046-00&ServiceCd=510&Type=search", "url2": "https://www.sinseien.jp/" }, "geometry": { "type": "Point", "coordinates": [ 135.86760460000005, 35.0808103 ] } },
{ "type": "Feature", "properties": { "内容": "特別養護老人ホーム松の浦湯治の郷【介護老人福祉施設】滋賀県大津市大物668番地", "url": "https://www.kaigokensaku.mhlw.go.jp/25/index.php?action_kouhyou_detail_004_kani=true&JigyosyoCd=2570104014-00&ServiceCd=510&Type=search", "url2": "https://biwakoaiwakai.com" }, "geometry": { "type": "Point", "coordinates": [ 135.933807783467017, 35.209467001600153 ] } },
{ "type": "Feature", "properties": { "内容": "特別養護老人ホーム　真野しょうぶ苑【介護老人福祉施設】滋賀県大津市真野4-2-1", "url": "https://www.kaigokensaku.mhlw.go.jp/25/index.php?action_kouhyou_detail_004_kani=true&JigyosyoCd=2570104972-00&ServiceCd=510&Type=search", "url2": "shiga-f.com" }, "geometry": { "type": "Point", "coordinates": [ 135.915722772542154, 35.12913834928758 ] } },
{ "type": "Feature", "properties": { "内容": "特別養護老人ホームリバプール【介護老人福祉施設】大津市大石中1丁目5番14号", "url": "https://www.kaigokensaku.mhlw.go.jp/25/index.php?action_kouhyou_detail_004_kani=true&JigyosyoCd=2570101630-00&ServiceCd=510&Type=search", "url2": "http://www.liverpool.or.jp" }, "geometry": { "type": "Point", "coordinates": [ 135.911716500000011, 34.9099853 ] } },
{ "type": "Feature", "properties": { "内容": "近江舞子しょうぶ苑【介護老人福祉施設】滋賀県大津市南小松90番地", "url": "https://www.kaigokensaku.mhlw.go.jp/25/index.php?action_kouhyou_detail_004_kani=true&JigyosyoCd=2570101721-00&ServiceCd=510&Type=search", "url2": "shiga-f.com" }, "geometry": { "type": "Point", "coordinates": [ 135.958846499999936, 35.2386972 ] } },
{ "type": "Feature", "properties": { "内容": "特別養護老人ホーム　近江舞子しょうぶ苑（ユニット型）【介護老人福祉施設】滋賀県大津市南小松90番地", "url": "https://www.kaigokensaku.mhlw.go.jp/25/index.php?action_kouhyou_detail_004_kani=true&JigyosyoCd=2570103917-00&ServiceCd=510&Type=search", "url2": "shiga-f.com" }, "geometry": { "type": "Point", "coordinates": [ 135.958846499999936, 35.2386972 ] } },
{ "type": "Feature", "properties": { "内容": "特別養護老人ホーム夕照たまのうら【介護老人福祉施設】滋賀県大津市玉野浦15-1", "url": "https://www.kaigokensaku.mhlw.go.jp/25/index.php?action_kouhyou_detail_004_kani=true&JigyosyoCd=2570104964-00&ServiceCd=510&Type=search", "url2": "https://www.kiryukai.net/" }, "geometry": { "type": "Point", "coordinates": [ 135.9107282, 34.9817116 ] } },
{ "type": "Feature", "properties": { "内容": "特別養護老人ホームあすは【介護老人福祉施設】滋賀県大津市瀬田5丁目1-55", "url": "https://www.kaigokensaku.mhlw.go.jp/25/index.php?action_kouhyou_detail_004_kani=true&JigyosyoCd=2570105847-00&ServiceCd=510&Type=search", "url2": "https://428kai.or.jp/" }, "geometry": { "type": "Point", "coordinates": [ 135.913033749351541, 34.964340584118176 ] } },
{ "type": "Feature", "properties": { "内容": "特別養護老人ホーム　長等の里【介護老人福祉施設】大津市神出開町字徴妙寺２６０番９号", "url": "https://www.kaigokensaku.mhlw.go.jp/25/index.php?action_kouhyou_detail_004_kani=true&JigyosyoCd=2570100327-00&ServiceCd=510&Type=search", "url2": "http://koujyukai-otsu.com" }, "geometry": { "type": "Point", "coordinates": [ 135.853610600000025, 35.0054388 ] } },
{ "type": "Feature", "properties": { "内容": "ケアタウンからさき　介護老人福祉施設【介護老人福祉施設】滋賀県大津市見世一丁目17番1号", "url": "https://www.kaigokensaku.mhlw.go.jp/25/index.php?action_kouhyou_detail_004_kani=true&JigyosyoCd=2570100970-00&ServiceCd=510&Type=search", "url2": "http://www.kosei-f.jp/" }, "geometry": { "type": "Point", "coordinates": [ 135.859631300000046, 35.0406486 ] } },
{ "type": "Feature", "properties": { "内容": "特別養護老人ホーム風流里【介護老人福祉施設】滋賀県大津市相模町10番1号", "url": "https://www.kaigokensaku.mhlw.go.jp/25/index.php?action_kouhyou_detail_004_kani=true&JigyosyoCd=2570104162-00&ServiceCd=510&Type=search", "url2": "https://428kai.or.jp/" }, "geometry": { "type": "Point", "coordinates": [ 135.885180100000071, 34.9954678 ] } },
{ "type": "Feature", "properties": { "内容": "特別養護老人ホーム榛原の里【介護老人福祉施設】滋賀県大津市真野普門三丁目1120番地", "url": "https://www.kaigokensaku.mhlw.go.jp/25/index.php?action_kouhyou_detail_004_kani=true&JigyosyoCd=2570100061-00&ServiceCd=510&Type=search", "url2": "http://www.fukusi-otsu.or.jp/" }, "geometry": { "type": "Point", "coordinates": [ 135.900600299999951, 35.1472502 ] } },
{ "type": "Feature", "properties": { "内容": "特別養護老人ホーム　湖の花【介護老人福祉施設】滋賀県大津市衣川二丁目２７番１号", "url": "https://www.kaigokensaku.mhlw.go.jp/25/index.php?action_kouhyou_detail_004_kani=true&JigyosyoCd=2570102182-00&ServiceCd=510&Type=search", "url2": "http://rakujyu-konohana.com" }, "geometry": { "type": "Point", "coordinates": [ 135.905024799999978, 35.1143485 ] } },
{ "type": "Feature", "properties": { "内容": "特別養護老人ホーム　ひかりの里【介護老人福祉施設】滋賀県大津市錦織3丁目10番27号", "url": "https://www.kaigokensaku.mhlw.go.jp/25/index.php?action_kouhyou_detail_004_kani=true&JigyosyoCd=2570106209-00&ServiceCd=510&Type=search", "url2": "https://hikarinosato.org/" }, "geometry": { "type": "Point", "coordinates": [ 135.8585723, 35.0303038 ] } },
{ "type": "Feature", "properties": { "内容": "特別養護老人ホーム　桐生園【介護老人福祉施設】大津市桐生一丁目26番7号", "url": "https://www.kaigokensaku.mhlw.go.jp/25/index.php?action_kouhyou_detail_004_kani=true&JigyosyoCd=2570101127-00&ServiceCd=510&Type=search", "url2": "http://www.kiryuen.jp/" }, "geometry": { "type": "Point", "coordinates": [ 135.991728400000056, 34.9708678 ] } },
{ "type": "Feature", "properties": { "内容": "特別養護老人ホーム　カーサ月の輪【介護老人福祉施設】滋賀県大津市月輪１丁目１２番８号", "url": "https://www.kaigokensaku.mhlw.go.jp/25/index.php?action_kouhyou_detail_004_kani=true&JigyosyoCd=2570103008-00&ServiceCd=510&Type=search", "url2": "http://koujyukai-otsu.com/casa/" }, "geometry": { "type": "Point", "coordinates": [ 135.93500789999996, 34.9922918 ] } },
{ "type": "Feature", "properties": { "内容": "介護老人福祉施設桐生園【介護老人福祉施設】滋賀県大津市桐生一丁目２６番７号", "url": "https://www.kaigokensaku.mhlw.go.jp/25/index.php?action_kouhyou_detail_004_kani=true&JigyosyoCd=2570104477-00&ServiceCd=510&Type=search", "url2": "http://www.kiryuen.jp/" }, "geometry": { "type": "Point", "coordinates": [ 135.991462, 34.9709673 ] } },
{ "type": "Feature", "properties": { "内容": "特別養護老人ホーム　なつめ【介護老人福祉施設】大津市一里山7丁目17番2号", "url": "https://www.kaigokensaku.mhlw.go.jp/25/index.php?action_kouhyou_detail_004_kani=true&JigyosyoCd=2570106357-00&ServiceCd=510&Type=search", "url2": null }, "geometry": { "type": "Point", "coordinates": [ 135.9323496, 34.9743583 ] } },
{ "type": "Feature", "properties": { "内容": "特別養護老人ホーム福寿荘【介護老人福祉施設】大津市大萱七丁目7番1号特別養護老人ホーム", "url": "https://www.kaigokensaku.mhlw.go.jp/25/index.php?action_kouhyou_detail_004_kani=true&JigyosyoCd=2570100087-00&ServiceCd=510&Type=search", "url2": "https://fukuju-sou.com/fukuju/" }, "geometry": { "type": "Point", "coordinates": [ 135.915676500000018, 34.9948826 ] } },
{ "type": "Feature", "properties": { "内容": "特別養護老人ホーム　千松の郷【介護老人福祉施設】滋賀県彦根市松原町520-1", "url": "https://www.kaigokensaku.mhlw.go.jp/25/index.php?action_kouhyou_detail_004_kani=true&JigyosyoCd=2570200887-00&ServiceCd=510&Type=search", "url2": "http:/www.homare.or.jp" }, "geometry": { "type": "Point", "coordinates": [ 136.251023, 35.2874559 ] } },
{ "type": "Feature", "properties": { "内容": "特別養護老人ホームサニープレイス彦根【介護老人福祉施設】滋賀県彦根市三津町４４６番地１特別養護老人ホームサニープレイス彦根", "url": "https://www.kaigokensaku.mhlw.go.jp/25/index.php?action_kouhyou_detail_004_kani=true&JigyosyoCd=2570201380-00&ServiceCd=510&Type=search", "url2": "https://sunnyplace.or.jp/" }, "geometry": { "type": "Point", "coordinates": [ 136.210794615066561, 35.202937126811683 ] } },
{ "type": "Feature", "properties": { "内容": "特別養護老人ホーム近江ふるさと園【介護老人福祉施設】滋賀県彦根市石寺町713番地", "url": "https://www.kaigokensaku.mhlw.go.jp/25/index.php?action_kouhyou_detail_004_kani=true&JigyosyoCd=2570200119-00&ServiceCd=510&Type=search", "url2": "http://www.omi-furusato.jp" }, "geometry": { "type": "Point", "coordinates": [ 136.185470099999947, 35.244033 ] } },
{ "type": "Feature", "properties": { "内容": "特別養護老人ホーム　さざなみ苑【介護老人福祉施設】滋賀県彦根市城町２丁目１３番３号", "url": "https://www.kaigokensaku.mhlw.go.jp/25/index.php?action_kouhyou_detail_004_kani=true&JigyosyoCd=2570200341-00&ServiceCd=510&Type=search", "url2": "https://sazanamikai1411.com" }, "geometry": { "type": "Point", "coordinates": [ 136.241813099999945, 35.2771931 ] } },
{ "type": "Feature", "properties": { "内容": "特別養護老人ホーム近江ふるさと園【介護老人福祉施設】滋賀県彦根市石寺町713番地", "url": "https://www.kaigokensaku.mhlw.go.jp/25/index.php?action_kouhyou_detail_004_kani=true&JigyosyoCd=2570200952-00&ServiceCd=510&Type=search", "url2": "http://www.omi-furusato.jp" }, "geometry": { "type": "Point", "coordinates": [ 136.185470099999947, 35.244033 ] } },
{ "type": "Feature", "properties": { "内容": "特別養護老人ホームさざなみ苑【介護老人福祉施設】滋賀県彦根市城町２丁目13番3号", "url": "https://www.kaigokensaku.mhlw.go.jp/25/index.php?action_kouhyou_detail_004_kani=true&JigyosyoCd=2570201091-00&ServiceCd=510&Type=search", "url2": "http://www.sazanamien.com" }, "geometry": { "type": "Point", "coordinates": [ 136.241813099999945, 35.2771931 ] } },
{ "type": "Feature", "properties": { "内容": "特別養護老人ホーム　近江第二ふるさと園【介護老人福祉施設】開出今町1343-3", "url": "https://www.kaigokensaku.mhlw.go.jp/25/index.php?action_kouhyou_detail_004_kani=true&JigyosyoCd=2570200036-00&ServiceCd=510&Type=search", "url2": "http://www.omi-furusato.jp" }, "geometry": { "type": "Point", "coordinates": [ 136.230064699999957, 35.2583503 ] } },
{ "type": "Feature", "properties": { "内容": "滋賀県立特別養護老人ホーム福良荘【介護老人福祉施設】長浜市内保町４８０番地", "url": "https://www.kaigokensaku.mhlw.go.jp/25/index.php?action_kouhyou_detail_004_kani=true&JigyosyoCd=2570300539-00&ServiceCd=510&Type=search", "url2": null }, "geometry": { "type": "Point", "coordinates": [ 136.3014518, 35.4319508 ] } },
{ "type": "Feature", "properties": { "内容": "とくべつようごろうじんほーむ　こほくあさひのさと【介護老人福祉施設】滋賀県長浜市湖北町延勝寺２９７－１", "url": "https://www.kaigokensaku.mhlw.go.jp/25/index.php?action_kouhyou_detail_004_kani=true&JigyosyoCd=2570301164-00&ServiceCd=510&Type=search", "url2": "http://kohokushinkoukai.net/" }, "geometry": { "type": "Point", "coordinates": [ 136.198989, 35.4309229 ] } },
{ "type": "Feature", "properties": { "内容": "特別養護老人ホーム　けやきの杜【介護老人福祉施設】滋賀県長浜市高月町柏原1055番地", "url": "https://www.kaigokensaku.mhlw.go.jp/25/index.php?action_kouhyou_detail_004_kani=true&JigyosyoCd=2570300901-00&ServiceCd=510&Type=search", "url2": "http://tashinkai.jp/" }, "geometry": { "type": "Point", "coordinates": [ 136.2445318, 35.4787947 ] } },
{ "type": "Feature", "properties": { "内容": "特別養護老人ホーム　奥びわこ【介護老人福祉施設】滋賀県長浜市西浅井町大浦１７８８－３", "url": "https://www.kaigokensaku.mhlw.go.jp/25/index.php?action_kouhyou_detail_004_kani=true&JigyosyoCd=2570300877-00&ServiceCd=510&Type=search", "url2": "http://sontokukai.com/" }, "geometry": { "type": "Point", "coordinates": [ 136.112601899999959, 35.4801667 ] } },
{ "type": "Feature", "properties": { "内容": "特別養護老人ホーム伊香の里【介護老人福祉施設】滋賀県長浜市木之本町黒田1221", "url": "https://www.kaigokensaku.mhlw.go.jp/25/index.php?action_kouhyou_detail_004_kani=true&JigyosyoCd=2570301339-00&ServiceCd=510&Type=search", "url2": "http://www.nagahama-shakyo.or.jp/" }, "geometry": { "type": "Point", "coordinates": [ 136.212406500000043, 35.5046661 ] } },
{ "type": "Feature", "properties": { "内容": "特別養護老人ホーム青浄苑【介護老人福祉施設】滋賀県長浜市加田町２９９５", "url": "https://www.kaigokensaku.mhlw.go.jp/25/index.php?action_kouhyou_detail_004_kani=true&JigyosyoCd=2570300067-00&ServiceCd=510&Type=search", "url2": "http://www.seishokai.jp/seijoen" }, "geometry": { "type": "Point", "coordinates": [ 136.305757699999958, 35.3602319 ] } },
{ "type": "Feature", "properties": { "内容": "特別養護老人ホーム　アンタレス【介護老人福祉施設】滋賀県長浜市加田町3360", "url": "https://www.kaigokensaku.mhlw.go.jp/25/index.php?action_kouhyou_detail_004_kani=true&JigyosyoCd=2570300661-00&ServiceCd=510&Type=search", "url2": "https://www.seishokai.jp/antares" }, "geometry": { "type": "Point", "coordinates": [ 136.304977300000019, 35.3610679 ] } },
{ "type": "Feature", "properties": { "内容": "特別養護老人ホーム青芳【介護老人福祉施設】滋賀県長浜市川道町2572", "url": "https://www.kaigokensaku.mhlw.go.jp/25/index.php?action_kouhyou_detail_004_kani=true&JigyosyoCd=2570300372-00&ServiceCd=510&Type=search", "url2": "http://www.seishokai.jp/seiho" }, "geometry": { "type": "Point", "coordinates": [ 136.2353402, 35.4030773 ] } },
{ "type": "Feature", "properties": { "内容": "特別養護老人ホームふくら【介護老人福祉施設】長浜市内保町４８０", "url": "https://www.kaigokensaku.mhlw.go.jp/25/index.php?action_kouhyou_detail_004_kani=true&JigyosyoCd=2570301065-00&ServiceCd=510&Type=search", "url2": "http//www.glow.or.jp/" }, "geometry": { "type": "Point", "coordinates": [ 136.3014518, 35.4319508 ] } },
{ "type": "Feature", "properties": { "内容": "社会福祉法人さざなみ会　特別養護老人ホーム姉川の里【介護老人福祉施設】滋賀県長浜市大井町９７３－１", "url": "https://www.kaigokensaku.mhlw.go.jp/25/index.php?action_kouhyou_detail_004_kani=true&JigyosyoCd=2570301248-00&ServiceCd=510&Type=search", "url2": "http://www.sazanamien.com/" }, "geometry": { "type": "Point", "coordinates": [ 136.261414899999977, 35.4169653 ] } },
{ "type": "Feature", "properties": { "内容": "特別養護老人ホーム　湖北水鳥の里【介護老人福祉施設】滋賀県長浜市湖北町延勝寺1844番地", "url": "https://www.kaigokensaku.mhlw.go.jp/25/index.php?action_kouhyou_detail_004_kani=true&JigyosyoCd=2570300786-00&ServiceCd=510&Type=search", "url2": "http://www18.ocn.ne.jp/~mizudori/" }, "geometry": { "type": "Point", "coordinates": [ 136.197739100000035, 35.4316088 ] } },
{ "type": "Feature", "properties": { "内容": "特別養護老人ホーム　今浜の郷【介護老人福祉施設】滋賀県長浜市下坂中町200番地1", "url": "https://www.kaigokensaku.mhlw.go.jp/25/index.php?action_kouhyou_detail_004_kani=true&JigyosyoCd=2570301297-00&ServiceCd=510&Type=search", "url2": "http://o-kourakukai.or.jp" }, "geometry": { "type": "Point", "coordinates": [ 136.283910200000037, 35.3647057 ] } },
{ "type": "Feature", "properties": { "内容": "特別養護老人ホーム　安土やすらぎの郷【介護老人福祉施設】滋賀県近江八幡市安土町下豊浦4141", "url": "https://www.kaigokensaku.mhlw.go.jp/25/index.php?action_kouhyou_detail_004_kani=true&JigyosyoCd=2570400479-00&ServiceCd=510&Type=search", "url2": "https://ichizenkai.com" }, "geometry": { "type": "Point", "coordinates": [ 136.129728699999987, 35.1569635 ] } },
{ "type": "Feature", "properties": { "内容": "特別養護老人ホーム水茎の里【介護老人福祉施設】滋賀県近江八幡市牧町１８８５", "url": "https://www.kaigokensaku.mhlw.go.jp/25/index.php?action_kouhyou_detail_004_kani=true&JigyosyoCd=2570400073-00&ServiceCd=510&Type=search", "url2": "http://www.ii-kaigo.or.jp" }, "geometry": { "type": "Point", "coordinates": [ 136.048592099999951, 35.1400755 ] } },
{ "type": "Feature", "properties": { "内容": "特別養護老人ホーム水茎の里個室ユニット棟【介護老人福祉施設】滋賀県近江八幡市牧町１８８５", "url": "https://www.kaigokensaku.mhlw.go.jp/25/index.php?action_kouhyou_detail_004_kani=true&JigyosyoCd=2570400735-00&ServiceCd=510&Type=search", "url2": "http://www.ii-kaigo.or.jp/" }, "geometry": { "type": "Point", "coordinates": [ 136.048592099999979, 35.1400755 ] } },
{ "type": "Feature", "properties": { "内容": "特別養護老人ホーム　赤煉瓦の郷【介護老人福祉施設】滋賀県近江八幡市船木町５９番地３", "url": "https://www.kaigokensaku.mhlw.go.jp/25/index.php?action_kouhyou_detail_004_kani=true&JigyosyoCd=2570400016-00&ServiceCd=510&Type=search", "url2": "https://ichizenkai.com" }, "geometry": { "type": "Point", "coordinates": [ 136.080450199999973, 35.137826 ] } },
{ "type": "Feature", "properties": { "内容": "特別養護老人ホームふれあい【介護老人福祉施設】滋賀県近江八幡市上田町1315-1", "url": "https://www.kaigokensaku.mhlw.go.jp/25/index.php?action_kouhyou_detail_004_kani=true&JigyosyoCd=2570400263-00&ServiceCd=510&Type=search", "url2": "https://www.honobonokai.com" }, "geometry": { "type": "Point", "coordinates": [ 136.1116439, 35.1168849 ] } },
{ "type": "Feature", "properties": { "内容": "特別養護老人ホーム四季の郷【介護老人福祉施設】滋賀県近江八幡市十王町1061", "url": "https://www.kaigokensaku.mhlw.go.jp/25/index.php?action_kouhyou_detail_004_kani=true&JigyosyoCd=2570401030-00&ServiceCd=510&Type=search", "url2": "http://www.houjyu-kai.or.jp/" }, "geometry": { "type": "Point", "coordinates": [ 136.0527449, 35.1107273 ] } },
{ "type": "Feature", "properties": { "内容": "社会福祉法人　よつば会　特別養護老人ホーム　風和里【介護老人福祉施設】岡本町２１７", "url": "https://www.kaigokensaku.mhlw.go.jp/25/index.php?action_kouhyou_detail_004_kani=true&JigyosyoCd=2570600995-00&ServiceCd=510&Type=search", "url2": "http://www.yotsuba-lcn.or.jp/" }, "geometry": { "type": "Point", "coordinates": [ 135.9826342, 35.0016913 ] } },
{ "type": "Feature", "properties": { "内容": "特別養護老人ホーム　やわらぎ苑【介護老人福祉施設】滋賀県草津市南笠町891番地", "url": "https://www.kaigokensaku.mhlw.go.jp/25/index.php?action_kouhyou_detail_004_kani=true&JigyosyoCd=2570600086-00&ServiceCd=510&Type=search", "url2": "https://428kai.or.jp/facility/yawaragi/" }, "geometry": { "type": "Point", "coordinates": [ 135.934481543427864, 35.001809068573046 ] } },
{ "type": "Feature", "properties": { "内容": "特別養護老人ホーム茜の郷【介護老人福祉施設】滋賀県草津市下笠町733-1", "url": "https://www.kaigokensaku.mhlw.go.jp/25/index.php?action_kouhyou_detail_004_kani=true&JigyosyoCd=2570601779-00&ServiceCd=510&Type=search", "url2": "http://shoubunosato.jp" }, "geometry": { "type": "Point", "coordinates": [ 135.9289329, 35.0391902 ] } },
{ "type": "Feature", "properties": { "内容": "特別養護老人ホーム　萩の里【介護老人福祉施設】滋賀県草津市野路東２丁目４番１０号", "url": "https://www.kaigokensaku.mhlw.go.jp/25/index.php?action_kouhyou_detail_004_kani=true&JigyosyoCd=2570601415-00&ServiceCd=510&Type=search", "url2": "http://yotsuba-lcn.or.jp" }, "geometry": { "type": "Point", "coordinates": [ 135.954403400000047, 34.9936339 ] } },
{ "type": "Feature", "properties": { "内容": "特別養護老人ホームぽぷら【介護老人福祉施設】滋賀県草津市上笠1丁目1-22", "url": "https://www.kaigokensaku.mhlw.go.jp/25/index.php?action_kouhyou_detail_004_kani=true&JigyosyoCd=2570600474-00&ServiceCd=510&Type=search", "url2": "http://www.popura.or.jp" }, "geometry": { "type": "Point", "coordinates": [ 135.951138899999933, 35.0333505 ] } },
{ "type": "Feature", "properties": { "内容": "特別養護老人ホーム　えんゆうの郷【介護老人福祉施設】滋賀県草津市南山田町761", "url": "https://www.kaigokensaku.mhlw.go.jp/25/index.php?action_kouhyou_detail_004_kani=true&JigyosyoCd=2570601464-00&ServiceCd=510&Type=search", "url2": "http://kaigo-nagisa.com/" }, "geometry": { "type": "Point", "coordinates": [ 135.92635, 35.0176357 ] } },
{ "type": "Feature", "properties": { "内容": "特別養護老人ホーム菖蒲の郷【介護老人福祉施設】滋賀県草津市山寺町837番地", "url": "https://www.kaigokensaku.mhlw.go.jp/25/index.php?action_kouhyou_detail_004_kani=true&JigyosyoCd=2570600029-00&ServiceCd=510&Type=search", "url2": "http://shoubunosato.jp" }, "geometry": { "type": "Point", "coordinates": [ 135.9922391, 34.9919287 ] } },
{ "type": "Feature", "properties": { "内容": "特別養護老人ホーム第二菖蒲の郷【介護老人福祉施設】滋賀県草津市追分南5丁目18番8号", "url": "https://www.kaigokensaku.mhlw.go.jp/25/index.php?action_kouhyou_detail_004_kani=true&JigyosyoCd=2570600748-00&ServiceCd=510&Type=search", "url2": "http://shoubunosato.jp" }, "geometry": { "type": "Point", "coordinates": [ 135.967649599999959, 34.9925091 ] } },
{ "type": "Feature", "properties": { "内容": "特別養護老人ホームゆいの里　別館【介護老人福祉施設】滋賀県守山市笠原町1313-3", "url": "https://www.kaigokensaku.mhlw.go.jp/25/index.php?action_kouhyou_detail_004_kani=true&JigyosyoCd=2570700829-00&ServiceCd=510&Type=search", "url2": "http://www.yuinosato.or.jp" }, "geometry": { "type": "Point", "coordinates": [ 135.988356899999985, 35.094644 ] } },
{ "type": "Feature", "properties": { "内容": "特別養護老人ホーム　ゆいの里【介護老人福祉施設】笠原町1313-3", "url": "https://www.kaigokensaku.mhlw.go.jp/25/index.php?action_kouhyou_detail_004_kani=true&JigyosyoCd=2570700043-00&ServiceCd=510&Type=search", "url2": "http://www.yuinosato.or.jp/" }, "geometry": { "type": "Point", "coordinates": [ 135.98672369999997, 35.0951578 ] } },
{ "type": "Feature", "properties": { "内容": "特別養護老人ホームサクラベル守山【介護老人福祉施設】滋賀県守山市石田町424-1", "url": "https://www.kaigokensaku.mhlw.go.jp/25/index.php?action_kouhyou_detail_004_kani=true&JigyosyoCd=2570701207-00&ServiceCd=510&Type=search", "url2": "http://www.edeitutiyama.net" }, "geometry": { "type": "Point", "coordinates": [ 135.9765142, 35.0716647 ] } },
{ "type": "Feature", "properties": { "内容": "特別養護老人ホーム　しがそせい苑【介護老人福祉施設】守山市水保町２６５０－１", "url": "https://www.kaigokensaku.mhlw.go.jp/25/index.php?action_kouhyou_detail_004_kani=true&JigyosyoCd=2570700282-00&ServiceCd=510&Type=search", "url2": "http://www.soseien.jp/shiga/" }, "geometry": { "type": "Point", "coordinates": [ 135.961909200000036, 35.0979095 ] } },
{ "type": "Feature", "properties": { "内容": "特別養護老人ホームはなえみ【介護老人福祉施設】滋賀県栗東市上鈎265-1", "url": "https://www.kaigokensaku.mhlw.go.jp/25/index.php?action_kouhyou_detail_004_kani=true&JigyosyoCd=2571200894-00&ServiceCd=510&Type=search", "url2": "https://428kai.or.jp/" }, "geometry": { "type": "Point", "coordinates": [ 135.9907983, 35.0247164 ] } },
{ "type": "Feature", "properties": { "内容": "特別養護老人ホーム淡海荘【介護老人福祉施設】滋賀県栗東市出庭697-1", "url": "https://www.kaigokensaku.mhlw.go.jp/25/index.php?action_kouhyou_detail_004_kani=true&JigyosyoCd=2571200027-00&ServiceCd=510&Type=search", "url2": "https://tankaisou.jp/" }, "geometry": { "type": "Point", "coordinates": [ 136.0034726, 35.0362732 ] } },
{ "type": "Feature", "properties": { "内容": "特別養護老人ホーム　栗東すみれ園【介護老人福祉施設】滋賀県栗東市小野３６３番地", "url": "https://www.kaigokensaku.mhlw.go.jp/25/index.php?action_kouhyou_detail_004_kani=true&JigyosyoCd=2571200175-00&ServiceCd=510&Type=search", "url2": "http://www.ritto-sumire-en.jp/" }, "geometry": { "type": "Point", "coordinates": [ 136.010942577909873, 35.020166543046763 ] } },
{ "type": "Feature", "properties": { "内容": "特別養護老人ホームせせらぎ苑【介護老人福祉施設】滋賀県甲賀市甲南町葛木855番地", "url": "https://www.kaigokensaku.mhlw.go.jp/25/index.php?action_kouhyou_detail_004_kani=true&JigyosyoCd=2571400015-00&ServiceCd=510&Type=search", "url2": "http://kohnankai.jp" }, "geometry": { "type": "Point", "coordinates": [ 136.179133399999955, 34.9321544 ] } },
{ "type": "Feature", "properties": { "内容": "特別養護老人ホーム　エーデル土山【介護老人福祉施設】甲賀市土山町北土山2062", "url": "https://www.kaigokensaku.mhlw.go.jp/25/index.php?action_kouhyou_detail_004_kani=true&JigyosyoCd=2571400148-00&ServiceCd=510&Type=search", "url2": "http://www.edeltutiyama.com" }, "geometry": { "type": "Point", "coordinates": [ 136.28116030000001, 34.9388304 ] } },
{ "type": "Feature", "properties": { "内容": "特別養護老人ホーム甲賀荘【介護老人福祉施設】滋賀県甲賀市甲賀町大原中９０４", "url": "https://www.kaigokensaku.mhlw.go.jp/25/index.php?action_kouhyou_detail_004_kani=true&JigyosyoCd=2571400155-00&ServiceCd=510&Type=search", "url2": "https://kougakai.org/" }, "geometry": { "type": "Point", "coordinates": [ 136.227393900000038, 34.9009445 ] } },
{ "type": "Feature", "properties": { "内容": "特別養護老人ホーム　ユニット型　エーデル土山【介護老人福祉施設】滋賀県甲賀市土山町北土山2062", "url": "https://www.kaigokensaku.mhlw.go.jp/25/index.php?action_kouhyou_detail_004_kani=true&JigyosyoCd=2571400908-00&ServiceCd=510&Type=search", "url2": "http://www.edeltutiyama.jp/" }, "geometry": { "type": "Point", "coordinates": [ 136.28116030000001, 34.9388304 ] } },
{ "type": "Feature", "properties": { "内容": "社会福祉法人近江和順会　特別養護老人ホームレーベンはとがひら【介護老人福祉施設】滋賀県甲賀市水口町水口6837-5", "url": "https://www.kaigokensaku.mhlw.go.jp/25/index.php?action_kouhyou_detail_004_kani=true&JigyosyoCd=2571401013-00&ServiceCd=510&Type=search", "url2": "http://www.ohmiwajunkai.or.jp/" }, "geometry": { "type": "Point", "coordinates": [ 136.180660405001845, 34.961755470622869 ] } },
{ "type": "Feature", "properties": { "内容": "社会福祉法人近江和順会　特別養護老人ホームレーベンはとがひら（従来型）【介護老人福祉施設】滋賀県甲賀市水口町水口6837-5", "url": "https://www.kaigokensaku.mhlw.go.jp/25/index.php?action_kouhyou_detail_004_kani=true&JigyosyoCd=2571401237-00&ServiceCd=510&Type=search", "url2": "http://www.ohmiwajunkai.or.jp/" }, "geometry": { "type": "Point", "coordinates": [ 136.1839598, 34.9617855 ] } },
{ "type": "Feature", "properties": { "内容": "特別養護老人ホーム　樹の郷【介護老人福祉施設】甲賀市水口町山3309", "url": "https://www.kaigokensaku.mhlw.go.jp/25/index.php?action_kouhyou_detail_004_kani=true&JigyosyoCd=2571400833-00&ServiceCd=510&Type=search", "url2": "http://www.shigaraki-itsuki.com/" }, "geometry": { "type": "Point", "coordinates": [ 136.1752371, 35.0041208 ] } },
{ "type": "Feature", "properties": { "内容": "特別養護老人ホーム甲賀シルバーケア豊壽園【介護老人福祉施設】滋賀県甲賀市土山町北土山479番地", "url": "https://www.kaigokensaku.mhlw.go.jp/25/index.php?action_kouhyou_detail_004_kani=true&JigyosyoCd=2571401070-00&ServiceCd=510&Type=search", "url2": "http://www.sensin.or.jp" }, "geometry": { "type": "Point", "coordinates": [ 136.289623200000051, 34.9363587 ] } },
{ "type": "Feature", "properties": { "内容": "特別養護老人ホーム　信楽荘【介護老人福祉施設】滋賀県甲賀市信楽町牧１１５９", "url": "https://www.kaigokensaku.mhlw.go.jp/25/index.php?action_kouhyou_detail_004_kani=true&JigyosyoCd=2571400031-00&ServiceCd=510&Type=search", "url2": "http://www.shigaraki-itsuki.com" }, "geometry": { "type": "Point", "coordinates": [ 136.075395500000013, 34.9151572 ] } },
{ "type": "Feature", "properties": { "内容": "特別養護老人ホーム信楽荘【介護老人福祉施設】滋賀県甲賀市信楽町牧１１５９番地", "url": "https://www.kaigokensaku.mhlw.go.jp/25/index.php?action_kouhyou_detail_004_kani=true&JigyosyoCd=2571400890-00&ServiceCd=510&Type=search", "url2": "http://www.shigaraki-itsuki.com" }, "geometry": { "type": "Point", "coordinates": [ 136.075395500000013, 34.9151572 ] } },
{ "type": "Feature", "properties": { "内容": "特別養護老人ホーム兆生園【介護老人福祉施設】滋賀県甲賀市水口町今郷1032番地の25", "url": "https://www.kaigokensaku.mhlw.go.jp/25/index.php?action_kouhyou_detail_004_kani=true&JigyosyoCd=2571400049-00&ServiceCd=510&Type=search", "url2": "https://choseien.com" }, "geometry": { "type": "Point", "coordinates": [ 136.2024391, 34.9623372 ] } },
{ "type": "Feature", "properties": { "内容": "特別養護老人ホーム悠紀の里【介護老人福祉施設】野洲市南桜2131番地1", "url": "https://www.kaigokensaku.mhlw.go.jp/25/index.php?action_kouhyou_detail_004_kani=true&JigyosyoCd=2571300033-00&ServiceCd=510&Type=search", "url2": "https://yasujikeikai.jp/" }, "geometry": { "type": "Point", "coordinates": [ 136.041747699999974, 35.0336355 ] } },
{ "type": "Feature", "properties": { "内容": "特別養護老人ホーム野洲篠原すみれ園【介護老人福祉施設】滋賀県野洲市大篠原951番地1", "url": "https://www.kaigokensaku.mhlw.go.jp/25/index.php?action_kouhyou_detail_004_kani=true&JigyosyoCd=2571300751-00&ServiceCd=510&Type=search", "url2": "https://www.shinohara-sumire.jp/" }, "geometry": { "type": "Point", "coordinates": [ 136.058919139286786, 35.090143804858378 ] } },
{ "type": "Feature", "properties": { "内容": "特別養護老人ホームあやめの里【介護老人福祉施設】滋賀県野洲市吉川3854番地1", "url": "https://www.kaigokensaku.mhlw.go.jp/25/index.php?action_kouhyou_detail_004_kani=true&JigyosyoCd=2571300090-00&ServiceCd=510&Type=search", "url2": "http://yasujikeikai/.jp/" }, "geometry": { "type": "Point", "coordinates": [ 135.9929452, 35.1282789 ] } },
{ "type": "Feature", "properties": { "内容": "特別養護老人ホームあぼし【介護老人福祉施設】滋賀県湖南市丸山四丁目５番１号", "url": "https://www.kaigokensaku.mhlw.go.jp/25/index.php?action_kouhyou_detail_004_kani=true&JigyosyoCd=2572300149-00&ServiceCd=510&Type=search", "url2": "http://www.hachikikai.com" }, "geometry": { "type": "Point", "coordinates": [ 136.04611639999996, 34.9987899 ] } },
{ "type": "Feature", "properties": { "内容": "特別養護老人ホーム美松苑【介護老人福祉施設】滋賀県湖南市針１３２５番地", "url": "https://www.kaigokensaku.mhlw.go.jp/25/index.php?action_kouhyou_detail_004_kani=true&JigyosyoCd=2572300016-00&ServiceCd=510&Type=search", "url2": "http://www.ohmiwajunkai.or.jp/" }, "geometry": { "type": "Point", "coordinates": [ 136.077591, 34.9883772 ] } },
{ "type": "Feature", "properties": { "内容": "特別養護老人ホームヴィラ十二坊【介護老人福祉施設】湖南市岩根690-4", "url": "https://www.kaigokensaku.mhlw.go.jp/25/index.php?action_kouhyou_detail_004_kani=true&JigyosyoCd=2572300180-00&ServiceCd=510&Type=search", "url2": null }, "geometry": { "type": "Point", "coordinates": [ 136.116228299999989, 35.0100615 ] } },
{ "type": "Feature", "properties": { "内容": "朽木小規模特別養護老人ホームやまゆりの里【介護老人福祉施設】滋賀県高島市朽木市場656", "url": "https://www.kaigokensaku.mhlw.go.jp/25/index.php?action_kouhyou_detail_004_kani=true&JigyosyoCd=2572200794-00&ServiceCd=510&Type=search", "url2": "http://hatsuho-yamayuri.com" }, "geometry": { "type": "Point", "coordinates": [ 135.9187018, 35.3540509 ] } },
{ "type": "Feature", "properties": { "内容": "社会福祉法人　ゆたか会　特別養護老人ホーム　清風荘【介護老人福祉施設】滋賀県高島市今津町南新保87番地15", "url": "https://www.kaigokensaku.mhlw.go.jp/25/index.php?action_kouhyou_detail_004_kani=true&JigyosyoCd=2572200059-00&ServiceCd=510&Type=search", "url2": "http://yutakakai.jp/" }, "geometry": { "type": "Point", "coordinates": [ 136.043352300000038, 35.4070013 ] } },
{ "type": "Feature", "properties": { "内容": "特別養護老人ホームふじの里なごみの家【介護老人福祉施設】滋賀県高島市安曇川町下小川3220番地1", "url": "https://www.kaigokensaku.mhlw.go.jp/25/index.php?action_kouhyou_detail_004_kani=true&JigyosyoCd=2572200596-00&ServiceCd=510&Type=search", "url2": "www.kouyoukai-fujinosato.jp" }, "geometry": { "type": "Point", "coordinates": [ 136.033122300000059, 35.3200494 ] } },
{ "type": "Feature", "properties": { "内容": "特別養護老人ホームふじの里【介護老人福祉施設】滋賀県高島市安曇川町下小川3220番地1", "url": "https://www.kaigokensaku.mhlw.go.jp/25/index.php?action_kouhyou_detail_004_kani=true&JigyosyoCd=2572200042-00&ServiceCd=510&Type=search", "url2": "www.kouyoukai-fujinosato.jp" }, "geometry": { "type": "Point", "coordinates": [ 136.033122300000059, 35.3200494 ] } },
{ "type": "Feature", "properties": { "内容": "特別養護老人ホームニューサンライズ【介護老人福祉施設】滋賀県高島市新旭町藁園2603番地", "url": "https://www.kaigokensaku.mhlw.go.jp/25/index.php?action_kouhyou_detail_004_kani=true&JigyosyoCd=2572200166-00&ServiceCd=510&Type=search", "url2": "http://shinasahi-minorikai.or.jp/" }, "geometry": { "type": "Point", "coordinates": [ 136.046242799999959, 35.3497412 ] } },
{ "type": "Feature", "properties": { "内容": "特別養護老人ホーム藤のれん【介護老人福祉施設】滋賀県高島市安曇川町下小川127番地1", "url": "https://www.kaigokensaku.mhlw.go.jp/25/index.php?action_kouhyou_detail_004_kani=true&JigyosyoCd=2572200828-00&ServiceCd=510&Type=search", "url2": "www.kouyoukai-fujinosato.jp" }, "geometry": { "type": "Point", "coordinates": [ 136.0365229, 35.3110355 ] } },
{ "type": "Feature", "properties": { "内容": "特別養護老人ホーム　清水苑【介護老人福祉施設】滋賀県東近江市五個荘川並町268番地", "url": "https://www.kaigokensaku.mhlw.go.jp/25/index.php?action_kouhyou_detail_004_kani=true&JigyosyoCd=2570500211-00&ServiceCd=510&Type=search", "url2": "https://rokushinkai.com" }, "geometry": { "type": "Point", "coordinates": [ 136.175973027647387, 35.147182804579963 ] } },
{ "type": "Feature", "properties": { "内容": "特別養護老人ホーム　玉園ハイム【介護老人福祉施設】滋賀県東近江市尻無町字山ノ間１１７０番地の３", "url": "https://www.kaigokensaku.mhlw.go.jp/25/index.php?action_kouhyou_detail_004_kani=true&JigyosyoCd=2570500013-00&ServiceCd=510&Type=search", "url2": "http://tama-zono.com/" }, "geometry": { "type": "Point", "coordinates": [ 136.221144900000013, 35.081784 ] } },
{ "type": "Feature", "properties": { "内容": "介護老人福祉施設　もみじ【介護老人福祉施設】滋賀県東近江市永源寺高野町431-2", "url": "https://www.kaigokensaku.mhlw.go.jp/25/index.php?action_kouhyou_detail_004_kani=true&JigyosyoCd=2570500237-00&ServiceCd=510&Type=search", "url2": "http//www.hachikikai.com" }, "geometry": { "type": "Point", "coordinates": [ 136.309898500000031, 35.0777865 ] } },
{ "type": "Feature", "properties": { "内容": "介護老人福祉施設こぼしの家【介護老人福祉施設】滋賀県東近江市市辺町3477", "url": "https://www.kaigokensaku.mhlw.go.jp/25/index.php?action_kouhyou_detail_004_kani=true&JigyosyoCd=2570500179-00&ServiceCd=510&Type=search", "url2": "https://koboshi.p-kit.com/" }, "geometry": { "type": "Point", "coordinates": [ 136.172781699999973, 35.0991871 ] } },
{ "type": "Feature", "properties": { "内容": "特別養護老人ホーム菊水園【介護老人福祉施設】東近江市下里町789", "url": "https://www.kaigokensaku.mhlw.go.jp/25/index.php?action_kouhyou_detail_004_kani=true&JigyosyoCd=2570500260-00&ServiceCd=510&Type=search", "url2": "http://www.keisenkaikikusuien.com" }, "geometry": { "type": "Point", "coordinates": [ 136.255666799999972, 35.1347192 ] } },
{ "type": "Feature", "properties": { "内容": "特別養護老人ホーム　能登川園【介護老人福祉施設】東近江市新宮町５４７", "url": "https://www.kaigokensaku.mhlw.go.jp/25/index.php?action_kouhyou_detail_004_kani=true&JigyosyoCd=2570500401-00&ServiceCd=510&Type=search", "url2": "http://shiga-shinjyukai.or.jp" }, "geometry": { "type": "Point", "coordinates": [ 136.15023, 35.2017026 ] } },
{ "type": "Feature", "properties": { "内容": "特別養護老人ホーム沖野原【介護老人福祉施設】滋賀県東近江市沖野三丁目１０番１８号", "url": "https://www.kaigokensaku.mhlw.go.jp/25/index.php?action_kouhyou_detail_004_kani=true&JigyosyoCd=2570500500-00&ServiceCd=510&Type=search", "url2": "http://www.ex.biwa.ne.jp/~okinohara/" }, "geometry": { "type": "Point", "coordinates": [ 136.209341499999937, 35.0948708 ] } },
{ "type": "Feature", "properties": { "内容": "特別養護老人ホームカルナハウス【介護老人福祉施設】東近江市建部下野町７９７番地", "url": "https://www.kaigokensaku.mhlw.go.jp/25/index.php?action_kouhyou_detail_004_kani=true&JigyosyoCd=2570500054-00&ServiceCd=510&Type=search", "url2": "htttp://www.jishoukai.or.jp" }, "geometry": { "type": "Point", "coordinates": [ 136.197176600000034, 35.1391892 ] } },
{ "type": "Feature", "properties": { "内容": "社会福祉法人青祥会特別養護老人ホーム坂田青成苑【介護老人福祉施設】滋賀県米原市野一色１１３６", "url": "https://www.kaigokensaku.mhlw.go.jp/25/index.php?action_kouhyou_detail_004_kani=true&JigyosyoCd=2572400014-00&ServiceCd=510&Type=search", "url2": "http://www.seishokai.jp/sakata" }, "geometry": { "type": "Point", "coordinates": [ 136.353926499999943, 35.3860764 ] } },
{ "type": "Feature", "properties": { "内容": "特別養護老人ホーム　スマイル【介護老人福祉施設】滋賀県米原市寺倉603－1", "url": "https://www.kaigokensaku.mhlw.go.jp/25/index.php?action_kouhyou_detail_004_kani=true&JigyosyoCd=2572400535-00&ServiceCd=510&Type=search", "url2": "https://www.oumikunpuukai.com" }, "geometry": { "type": "Point", "coordinates": [ 136.311226900000065, 35.3251115 ] } },
{ "type": "Feature", "properties": { "内容": "特別養護老人ホーム誉の松【介護老人福祉施設】滋賀県蒲生郡日野町大字深山口524番地", "url": "https://www.kaigokensaku.mhlw.go.jp/25/index.php?action_kouhyou_detail_004_kani=true&JigyosyoCd=2571500012-00&ServiceCd=510&Type=search", "url2": "http://www.homare.or.jp" }, "geometry": { "type": "Point", "coordinates": [ 136.22947929999998, 34.9891759 ] } },
{ "type": "Feature", "properties": { "内容": "特別養護老人ホーム白寿荘【介護老人福祉施設】滋賀県蒲生郡日野町松尾359番地", "url": "https://www.kaigokensaku.mhlw.go.jp/25/index.php?action_kouhyou_detail_004_kani=true&JigyosyoCd=2571500038-00&ServiceCd=510&Type=search", "url2": "http://kotoukai.or.jp" }, "geometry": { "type": "Point", "coordinates": [ 136.248729741664192, 35.028234175587514 ] } },
{ "type": "Feature", "properties": { "内容": "特別養護老人ホーム万葉の里【介護老人福祉施設】滋賀県蒲生郡竜王町大字山之上６３２", "url": "https://www.kaigokensaku.mhlw.go.jp/25/index.php?action_kouhyou_detail_004_kani=true&JigyosyoCd=2571500020-00&ServiceCd=510&Type=search", "url2": "https://yukinokai.com/" }, "geometry": { "type": "Point", "coordinates": [ 136.146107799999982, 35.0546342 ] } },
{ "type": "Feature", "properties": { "内容": "社会福祉法人青祥会　指定介護老人福祉施設やまびこ【介護老人福祉施設】滋賀県愛知郡愛荘町安孫子1235番地", "url": "https://www.kaigokensaku.mhlw.go.jp/25/index.php?action_kouhyou_detail_004_kani=true&JigyosyoCd=2571700083-00&ServiceCd=510&Type=search", "url2": "http://www.seishokai.jp/" }, "geometry": { "type": "Point", "coordinates": [ 136.250286499999987, 35.1722192 ] } },
{ "type": "Feature", "properties": { "内容": "特別養護老人ホーム　ハッピーライフゆりの郷【介護老人福祉施設】滋賀県愛知郡愛荘町市１５０９番地", "url": "https://www.kaigokensaku.mhlw.go.jp/25/index.php?action_kouhyou_detail_004_kani=true&JigyosyoCd=2571700240-00&ServiceCd=510&Type=search", "url2": "http://www.yurinosato.or.jp/" }, "geometry": { "type": "Point", "coordinates": [ 136.22133, 35.1724369 ] } },
{ "type": "Feature", "properties": { "内容": "特別養護老人ホームいやしのさと【介護老人福祉施設】犬上郡豊郷町沢517-4", "url": "https://www.kaigokensaku.mhlw.go.jp/25/index.php?action_kouhyou_detail_004_kani=true&JigyosyoCd=2571800149-00&ServiceCd=510&Type=search", "url2": "https://www.asunarofukushikai.com/" }, "geometry": { "type": "Point", "coordinates": [ 136.216999900000019, 35.1920182 ] } },
{ "type": "Feature", "properties": { "内容": "特別養護老人ホームいぬかみ【介護老人福祉施設】滋賀県犬上郡多賀町中川原605-2", "url": "https://www.kaigokensaku.mhlw.go.jp/25/index.php?action_kouhyou_detail_004_kani=true&JigyosyoCd=2571800024-00&ServiceCd=510&Type=search", "url2": "http://kotoukai.or.jp/" }, "geometry": { "type": "Point", "coordinates": [ 136.279183399999965, 35.2356775 ] } },
{ "type": "Feature", "properties": { "内容": "特別養護老人ホーム　多賀清流の里【介護老人福祉施設】滋賀県犬上郡多賀町大字佐目６７５", "url": "https://www.kaigokensaku.mhlw.go.jp/25/index.php?action_kouhyou_detail_004_kani=true&JigyosyoCd=2571800123-00&ServiceCd=510&Type=search", "url2": "https://tashinkai.jp/" }, "geometry": { "type": "Point", "coordinates": [ 136.3357552, 35.20792 ] } }
]
}
