{
"type": "FeatureCollection",
"name": "geo_25_看護小規模多機能型居宅介護（複合型サービス）",
"crs": { "type": "name", "properties": { "name": "urn:ogc:def:crs:OGC:1.3:CRS84" } },
"features": [
{ "type": "Feature", "properties": { "内容": "看護小規模多機能　ソワン逢坂【看護小規模多機能型居宅介護（複合型サービス）】滋賀県大津市音羽台3－5", "url": "https://www.kaigokensaku.mhlw.go.jp/25/index.php?action_kouhyou_detail_004_kani=true&JigyosyoCd=2590101024-00&ServiceCd=&Type=search", "url2": null }, "geometry": { "type": "Point", "coordinates": [ 135.8613846, 35.0018575 ] } },
{ "type": "Feature", "properties": { "内容": "看護小規模多機能型居宅介護　湖の癒【看護小規模多機能型居宅介護（複合型サービス）】滋賀県大津市今堅田２丁目31番77号", "url": "https://www.kaigokensaku.mhlw.go.jp/25/index.php?action_kouhyou_detail_004_kani=true&JigyosyoCd=2590101099-00&ServiceCd=&Type=search", "url2": null }, "geometry": { "type": "Point", "coordinates": [ 135.9249185, 35.1228485 ] } },
{ "type": "Feature", "properties": { "内容": "看護小規模多機能居宅介護サービスめぐり【看護小規模多機能型居宅介護（複合型サービス）】和邇中浜345-1", "url": "https://www.kaigokensaku.mhlw.go.jp/25/index.php?action_kouhyou_detail_004_kani=true&JigyosyoCd=2590100794-00&ServiceCd=&Type=search", "url2": "https://www.koseikai.care/" }, "geometry": { "type": "Point", "coordinates": [ 135.920771723278818, 35.162523293641861 ] } },
{ "type": "Feature", "properties": { "内容": "白櫻会複合型サービスひなた【看護小規模多機能型居宅介護（複合型サービス）】滋賀県大津市別保二丁目８番３３号", "url": "https://www.kaigokensaku.mhlw.go.jp/25/index.php?action_kouhyou_detail_004_kani=true&JigyosyoCd=2590100364-00&ServiceCd=&Type=search", "url2": "http://hakuokai.jp" }, "geometry": { "type": "Point", "coordinates": [ 135.892968200000041, 34.9823973 ] } },
{ "type": "Feature", "properties": { "内容": "友仁ﾅｰｼﾝｸﾞﾎｰﾑ河原町【看護小規模多機能型居宅介護（複合型サービス）】滋賀県彦根市河原2丁目3-2", "url": "https://www.kaigokensaku.mhlw.go.jp/25/index.php?action_kouhyou_detail_004_kani=true&JigyosyoCd=2590200396-00&ServiceCd=&Type=search", "url2": "https://www.yujin-yamazaki.co.jp" }, "geometry": { "type": "Point", "coordinates": [ 136.255261, 35.2654541 ] } },
{ "type": "Feature", "properties": { "内容": "風蝶木の実　ケイパハウス【看護小規模多機能型居宅介護（複合型サービス）】彦根市極楽寺町596番地", "url": "https://www.kaigokensaku.mhlw.go.jp/25/index.php?action_kouhyou_detail_004_kani=true&JigyosyoCd=2590200057-00&ServiceCd=&Type=search", "url2": "http://www.kisoukai.com" }, "geometry": { "type": "Point", "coordinates": [ 136.234920800000026, 35.2310427 ] } },
{ "type": "Feature", "properties": { "内容": "ナーシングホームすずらん【看護小規模多機能型居宅介護（複合型サービス）】滋賀県彦根市高宮町1368‐7", "url": "https://www.kaigokensaku.mhlw.go.jp/25/index.php?action_kouhyou_detail_004_kani=true&JigyosyoCd=2590200289-00&ServiceCd=&Type=search", "url2": "https://yujin-kaigo.com/service/ナーシングホーム%E3%80%80すずらん/nssuzuran2017@yahoo.co.jp" }, "geometry": { "type": "Point", "coordinates": [ 136.249466426983616, 35.24106160645114 ] } },
{ "type": "Feature", "properties": { "内容": "北ながはま看護小規模多機能ホーム【看護小規模多機能型居宅介護（複合型サービス）】神照町463ｰ1", "url": "https://www.kaigokensaku.mhlw.go.jp/25/index.php?action_kouhyou_detail_004_kani=true&JigyosyoCd=2590300329-00&ServiceCd=&Type=search", "url2": "https://sangajapan.jp/kitanagahama/" }, "geometry": { "type": "Point", "coordinates": [ 136.273305028172302, 35.397850910488799 ] } },
{ "type": "Feature", "properties": { "内容": "看護小規模多機能ケアさいかち【看護小規模多機能型居宅介護（複合型サービス）】滋賀県長浜市下坂中町200番地1", "url": "https://www.kaigokensaku.mhlw.go.jp/25/index.php?action_kouhyou_detail_004_kani=true&JigyosyoCd=2590300048-00&ServiceCd=&Type=search", "url2": "http://o-kourakukai.or.jp/" }, "geometry": { "type": "Point", "coordinates": [ 136.2840519, 35.3650723 ] } },
{ "type": "Feature", "properties": { "内容": "看護小規模多機能型居宅介護　友愛の家　ヴォーリズ【看護小規模多機能型居宅介護（複合型サービス）】滋賀県近江八幡市北之庄町492番地", "url": "https://www.kaigokensaku.mhlw.go.jp/25/index.php?action_kouhyou_detail_004_kani=true&JigyosyoCd=2590400228-00&ServiceCd=&Type=search", "url2": "http://www.vories.or.jp" }, "geometry": { "type": "Point", "coordinates": [ 136.089977099999942, 35.1523136 ] } },
{ "type": "Feature", "properties": { "内容": "看護小規模多機能型居宅介護事業所なでしこ草津【看護小規模多機能型居宅介護（複合型サービス）】滋賀県草津市西渋川二丁目9番48-11号複合施設済生会なでしこ草津　１階", "url": "https://www.kaigokensaku.mhlw.go.jp/25/index.php?action_kouhyou_detail_004_kani=true&JigyosyoCd=2590600264-00&ServiceCd=&Type=search", "url2": "http://www.saiseikai-shiga.jp/houkan/" }, "geometry": { "type": "Point", "coordinates": [ 135.964475557147267, 35.02980733153548 ] } },
{ "type": "Feature", "properties": { "内容": "看護小規模多機能型居宅介護そまの音【看護小規模多機能型居宅介護（複合型サービス）】滋賀県甲賀市甲南町深川市場10番1", "url": "https://www.kaigokensaku.mhlw.go.jp/25/index.php?action_kouhyou_detail_004_kani=true&JigyosyoCd=2591400151-00&ServiceCd=&Type=search", "url2": "https://somanone.conohawing.com/aboutus/" }, "geometry": { "type": "Point", "coordinates": [ 136.16375979999998, 34.9298768 ] } },
{ "type": "Feature", "properties": { "内容": "笑みの家ひだまり【看護小規模多機能型居宅介護（複合型サービス）】滋賀県米原市能登瀬1322－１", "url": "https://www.kaigokensaku.mhlw.go.jp/25/index.php?action_kouhyou_detail_004_kani=true&JigyosyoCd=2592400168-00&ServiceCd=&Type=search", "url2": "http://www.hidamari-shiga.jp" }, "geometry": { "type": "Point", "coordinates": [ 136.315667499999989, 35.3322072 ] } }
]
}
