{
"type": "FeatureCollection",
"name": "geo_25_介護老人保健施設",
"crs": { "type": "name", "properties": { "name": "urn:ogc:def:crs:OGC:1.3:CRS84" } },
"features": [
{ "type": "Feature", "properties": { "内容": "介護老人保健施設日和の里【介護老人保健施設】滋賀県大津市坂本6丁目25番3号", "url": "https://www.kaigokensaku.mhlw.go.jp/25/index.php?action_kouhyou_detail_004_kani=true&JigyosyoCd=2550180059-00&ServiceCd=520&Type=search", "url2": "http://shigamin.jp/hiyori/" }, "geometry": { "type": "Point", "coordinates": [ 135.87325409999994, 35.0745916 ] } },
{ "type": "Feature", "properties": { "内容": "介護老人保健施設レーク・ホロニー【介護老人保健施設】滋賀県大津市大萱七丁目7番3号介護老人保健施設レーク・ホロニー", "url": "https://www.kaigokensaku.mhlw.go.jp/25/index.php?action_kouhyou_detail_004_kani=true&JigyosyoCd=2550180000-00&ServiceCd=520&Type=search", "url2": "https://lake-horony.jp/" }, "geometry": { "type": "Point", "coordinates": [ 135.915623800000049, 34.9953159 ] } },
{ "type": "Feature", "properties": { "内容": "独立行政法人地域医療機能推進機構　滋賀病院附属介護老人保健施設【介護老人保健施設】大津市富士見台16-1", "url": "https://www.kaigokensaku.mhlw.go.jp/25/index.php?action_kouhyou_detail_004_kani=true&JigyosyoCd=2550180034-00&ServiceCd=520&Type=search", "url2": "http://shiga.jcho.go.jp/rouken/" }, "geometry": { "type": "Point", "coordinates": [ 135.885787195909217, 34.98572436669307 ] } },
{ "type": "Feature", "properties": { "内容": "医療法人堅田病院介護老人保健施設虹水苑【介護老人保健施設】滋賀県大津市仰木七丁目18-15", "url": "https://www.kaigokensaku.mhlw.go.jp/25/index.php?action_kouhyou_detail_004_kani=true&JigyosyoCd=2550180042-00&ServiceCd=520&Type=search", "url2": null }, "geometry": { "type": "Point", "coordinates": [ 135.895087099999955, 35.1144898 ] } },
{ "type": "Feature", "properties": { "内容": "医療法人弘英会　介護老人保健施設Ｂ・Ｏ・Ｈケア・サービスセンター【介護老人保健施設】滋賀県大津市伊香立途中町７０４番地", "url": "https://www.kaigokensaku.mhlw.go.jp/25/index.php?action_kouhyou_detail_004_kani=true&JigyosyoCd=2550180026-00&ServiceCd=520&Type=search", "url2": "http://www.boh-care.jp" }, "geometry": { "type": "Point", "coordinates": [ 135.875519481072928, 35.155535446412912 ] } },
{ "type": "Feature", "properties": { "内容": "介護老人保健施設ケアセンター志賀【介護老人保健施設】大津市和邇高城260番地の1", "url": "https://www.kaigokensaku.mhlw.go.jp/25/index.php?action_kouhyou_detail_004_kani=true&JigyosyoCd=2550180067-00&ServiceCd=520&Type=search", "url2": "http://www.koseikai.care/" }, "geometry": { "type": "Point", "coordinates": [ 135.919525900000053, 35.1623293 ] } },
{ "type": "Feature", "properties": { "内容": "介護老人保健施設アロフェンテ彦根【介護老人保健施設】滋賀県彦根市竹ヶ鼻町80番地", "url": "https://www.kaigokensaku.mhlw.go.jp/25/index.php?action_kouhyou_detail_004_kani=true&JigyosyoCd=2550280016-00&ServiceCd=520&Type=search", "url2": "http://www.yujin-yamazaki.co.jp" }, "geometry": { "type": "Point", "coordinates": [ 136.248794699999962, 35.241159 ] } },
{ "type": "Feature", "properties": { "内容": "介護老人保健施設　琵琶【介護老人保健施設】滋賀県長浜市川道町２６９４", "url": "https://www.kaigokensaku.mhlw.go.jp/25/index.php?action_kouhyou_detail_004_kani=true&JigyosyoCd=2550380022-00&ServiceCd=520&Type=search", "url2": "http://www.simosaka.jp/indexhtml" }, "geometry": { "type": "Point", "coordinates": [ 136.236295599999949, 35.4029218 ] } },
{ "type": "Feature", "properties": { "内容": "介護老人保健施設　長浜メディケアセンター【介護老人保健施設】滋賀県長浜市加田町2984-1", "url": "https://www.kaigokensaku.mhlw.go.jp/25/index.php?action_kouhyou_detail_004_kani=true&JigyosyoCd=2550380014-00&ServiceCd=520&Type=search", "url2": "http://seishokai.jp/nmc" }, "geometry": { "type": "Point", "coordinates": [ 136.304918899999961, 35.3602097 ] } },
{ "type": "Feature", "properties": { "内容": "介護老人保健施設　湖北やすらぎの里【介護老人保健施設】滋賀県長浜市木之本町黒田１２２１番地", "url": "https://www.kaigokensaku.mhlw.go.jp/25/index.php?action_kouhyou_detail_004_kani=true&JigyosyoCd=2550380030-00&ServiceCd=520&Type=search", "url2": "http://www.ikbk.jp/kohokuyasuraginosato/" }, "geometry": { "type": "Point", "coordinates": [ 136.212883933204694, 35.504128956926586 ] } },
{ "type": "Feature", "properties": { "内容": "介護老人保健施設　ヴォーリズ老健センター【介護老人保健施設】近江八幡市北之庄町４９２番地", "url": "https://www.kaigokensaku.mhlw.go.jp/25/index.php?action_kouhyou_detail_004_kani=true&JigyosyoCd=2550480012-00&ServiceCd=520&Type=search", "url2": "http://vo-roken.com/" }, "geometry": { "type": "Point", "coordinates": [ 136.089671599999974, 35.1524025 ] } },
{ "type": "Feature", "properties": { "内容": "医療法人医誠会　介護老人保健施設　エスペラル近江八幡【介護老人保健施設】滋賀県近江八幡市大房町1002番地1", "url": "https://www.kaigokensaku.mhlw.go.jp/25/index.php?action_kouhyou_detail_004_kani=true&JigyosyoCd=2550480020-00&ServiceCd=520&Type=search", "url2": "https://esp.iseikaihp.com/fcl/esp-omi/" }, "geometry": { "type": "Point", "coordinates": [ 136.07804520000002, 35.1272427 ] } },
{ "type": "Feature", "properties": { "内容": "介護老人保健施設ケアタウン南草津【介護老人保健施設】草津市矢橋町６２１番地", "url": "https://www.kaigokensaku.mhlw.go.jp/25/index.php?action_kouhyou_detail_004_kani=true&JigyosyoCd=2550680025-00&ServiceCd=520&Type=search", "url2": "http://www.yotsuba-lcn.jp" }, "geometry": { "type": "Point", "coordinates": [ 135.927025299999968, 35.0031347 ] } },
{ "type": "Feature", "properties": { "内容": "社会医療法人　誠光会　介護老人保健施設草津ケアセンター【介護老人保健施設】草津市野村二丁目13-13", "url": "https://www.kaigokensaku.mhlw.go.jp/25/index.php?action_kouhyou_detail_004_kani=true&JigyosyoCd=2550680017-00&ServiceCd=520&Type=search", "url2": "https://www.seikoukai-sc.or.jp/care_center/" }, "geometry": { "type": "Point", "coordinates": [ 135.953325100000029, 35.0253266 ] } },
{ "type": "Feature", "properties": { "内容": "介護老人保健施設　守山すみれ苑【介護老人保健施設】荒見町300番地１", "url": "https://www.kaigokensaku.mhlw.go.jp/25/index.php?action_kouhyou_detail_004_kani=true&JigyosyoCd=2550780015-00&ServiceCd=520&Type=search", "url2": null }, "geometry": { "type": "Point", "coordinates": [ 135.981785599999967, 35.0850505 ] } },
{ "type": "Feature", "properties": { "内容": "介護老人保健施設ケアポート栗東【介護老人保健施設】栗東市大橋二丁目８番２号", "url": "https://www.kaigokensaku.mhlw.go.jp/25/index.php?action_kouhyou_detail_004_kani=true&JigyosyoCd=2551280015-00&ServiceCd=520&Type=search", "url2": "http://www.careport-rittou.jp" }, "geometry": { "type": "Point", "coordinates": [ 136.001184100000046, 35.031846 ] } },
{ "type": "Feature", "properties": { "内容": "介護老人保健施設　スキナヴィラ水口【介護老人保健施設】滋賀県甲賀市水口町本町2丁目2番43号", "url": "https://www.kaigokensaku.mhlw.go.jp/25/index.php?action_kouhyou_detail_004_kani=true&JigyosyoCd=2551480003-00&ServiceCd=520&Type=search", "url2": "http://www.minakuchi-hp.or.jp/" }, "geometry": { "type": "Point", "coordinates": [ 136.175316400000042, 34.9711803 ] } },
{ "type": "Feature", "properties": { "内容": "介護老人保健施設スキナヴィラ甲賀【介護老人保健施設】滋賀県甲賀市水口町新町１丁目１－１３", "url": "https://www.kaigokensaku.mhlw.go.jp/25/index.php?action_kouhyou_detail_004_kani=true&JigyosyoCd=2551480045-00&ServiceCd=520&Type=search", "url2": "http://www.minakuchi-hp.or.jp/" }, "geometry": { "type": "Point", "coordinates": [ 136.17727608280336, 34.97117229137254 ] } },
{ "type": "Feature", "properties": { "内容": "介護老人保健施設　野洲すみれ苑【介護老人保健施設】滋賀県野洲市小篠原490-1", "url": "https://www.kaigokensaku.mhlw.go.jp/25/index.php?action_kouhyou_detail_004_kani=true&JigyosyoCd=2551380021-00&ServiceCd=520&Type=search", "url2": "http://www.sumire.jp/" }, "geometry": { "type": "Point", "coordinates": [ 136.034818800000039, 35.0676621 ] } },
{ "type": "Feature", "properties": { "内容": "介護老人保健施設　寿々はうす【介護老人保健施設】滋賀県野洲市八夫2077", "url": "https://www.kaigokensaku.mhlw.go.jp/25/index.php?action_kouhyou_detail_004_kani=true&JigyosyoCd=2551380013-00&ServiceCd=520&Type=search", "url2": "http://www.konan-psy.or.jp/" }, "geometry": { "type": "Point", "coordinates": [ 136.021453699999938, 35.0887735 ] } },
{ "type": "Feature", "properties": { "内容": "介護老人保健施設石部ケアセンター【介護老人保健施設】湖南市丸山四丁目5番1号", "url": "https://www.kaigokensaku.mhlw.go.jp/25/index.php?action_kouhyou_detail_004_kani=true&JigyosyoCd=2552380012-00&ServiceCd=520&Type=search", "url2": "http://hachikikai.com" }, "geometry": { "type": "Point", "coordinates": [ 136.04611639999996, 34.9987899 ] } },
{ "type": "Feature", "properties": { "内容": "介護老人保健施設　ケアセンターこうせい【介護老人保健施設】滋賀県湖南市菩提寺104-14", "url": "https://www.kaigokensaku.mhlw.go.jp/25/index.php?action_kouhyou_detail_004_kani=true&JigyosyoCd=2552380020-00&ServiceCd=520&Type=search", "url2": "http://carecenter-kosei.com" }, "geometry": { "type": "Point", "coordinates": [ 136.072988200000026, 35.0221787 ] } },
{ "type": "Feature", "properties": { "内容": "介護老人保健施設グリーンテラス【介護老人保健施設】新旭町旭696", "url": "https://www.kaigokensaku.mhlw.go.jp/25/index.php?action_kouhyou_detail_004_kani=true&JigyosyoCd=2552280022-00&ServiceCd=520&Type=search", "url2": null }, "geometry": { "type": "Point", "coordinates": [ 136.045956599999954, 35.3525659 ] } },
{ "type": "Feature", "properties": { "内容": "介護老人保健施設陽光の里【介護老人保健施設】滋賀県高島市勝野1667番地14", "url": "https://www.kaigokensaku.mhlw.go.jp/25/index.php?action_kouhyou_detail_004_kani=true&JigyosyoCd=2552280014-00&ServiceCd=520&Type=search", "url2": "http://www.city.takashima.lg.jp" }, "geometry": { "type": "Point", "coordinates": [ 136.0122407, 35.2928518 ] } },
{ "type": "Feature", "properties": { "内容": "介護老人保健施設ケアセンター蒲生野【介護老人保健施設】東近江市桜川西町３４０", "url": "https://www.kaigokensaku.mhlw.go.jp/25/index.php?action_kouhyou_detail_004_kani=true&JigyosyoCd=2550580027-00&ServiceCd=520&Type=search", "url2": "https://yukinokai.com/" }, "geometry": { "type": "Point", "coordinates": [ 136.188209393254027, 35.059159409895074 ] } },
{ "type": "Feature", "properties": { "内容": "医療法人社団幸信会　介護老人保健施設ウェル青葉【介護老人保健施設】滋賀県東近江市青葉町1-46", "url": "https://www.kaigokensaku.mhlw.go.jp/25/index.php?action_kouhyou_detail_004_kani=true&JigyosyoCd=2550580043-00&ServiceCd=520&Type=search", "url2": "https://aoba-med.com" }, "geometry": { "type": "Point", "coordinates": [ 136.197524, 35.1060311 ] } },
{ "type": "Feature", "properties": { "内容": "リハビリセンターあゆみ【介護老人保健施設】東近江市新宮町５５８", "url": "https://www.kaigokensaku.mhlw.go.jp/25/index.php?action_kouhyou_detail_004_kani=true&JigyosyoCd=2550580035-00&ServiceCd=520&Type=search", "url2": "https://shiga-shinjyukai.or.jp/" }, "geometry": { "type": "Point", "coordinates": [ 136.149446799999964, 35.2009388 ] } },
{ "type": "Feature", "properties": { "内容": "介護老人保健施設　ここちの郷【介護老人保健施設】滋賀県東近江市五個荘山本町４６６番地", "url": "https://www.kaigokensaku.mhlw.go.jp/25/index.php?action_kouhyou_detail_004_kani=true&JigyosyoCd=2550580019-00&ServiceCd=520&Type=search", "url2": "https://www.rokushinkai.com/kokochi/" }, "geometry": { "type": "Point", "coordinates": [ 136.1805756, 35.140083 ] } },
{ "type": "Feature", "properties": { "内容": "ケアセンターいぶき介護老人保健施設【介護老人保健施設】滋賀県米原市春照58-1", "url": "https://www.kaigokensaku.mhlw.go.jp/25/index.php?action_kouhyou_detail_004_kani=true&JigyosyoCd=2572400246-00&ServiceCd=520&Type=search", "url2": "https://ibuki.jadecom.or.jp/" }, "geometry": { "type": "Point", "coordinates": [ 136.382650900000044, 35.3835069 ] } },
{ "type": "Feature", "properties": { "内容": "介護老人保健施設　坂田メディケアセンター【介護老人保健施設】滋賀県米原市野一色1136", "url": "https://www.kaigokensaku.mhlw.go.jp/25/index.php?action_kouhyou_detail_004_kani=true&JigyosyoCd=2552480010-00&ServiceCd=520&Type=search", "url2": "http://www.seishokai.jp/smc" }, "geometry": { "type": "Point", "coordinates": [ 136.353926499999943, 35.3860764 ] } },
{ "type": "Feature", "properties": { "内容": "医療法人社団昴会　介護老人保健施設リスタあすなろ【介護老人保健施設】上野田２４６番地", "url": "https://www.kaigokensaku.mhlw.go.jp/25/index.php?action_kouhyou_detail_004_kani=true&JigyosyoCd=2551580059-00&ServiceCd=520&Type=search", "url2": "http://www.subarukai.jp/cms_asunaro/" }, "geometry": { "type": "Point", "coordinates": [ 136.2362693, 35.0181052 ] } },
{ "type": "Feature", "properties": { "内容": "介護老人保健施設　パストラールとよさと【介護老人保健施設】滋賀県犬上郡豊郷町石畑２１２", "url": "https://www.kaigokensaku.mhlw.go.jp/25/index.php?action_kouhyou_detail_004_kani=true&JigyosyoCd=2551880012-00&ServiceCd=520&Type=search", "url2": "http://www.toyosato.or.jp/" }, "geometry": { "type": "Point", "coordinates": [ 136.230062699999962, 35.1996542 ] } }
]
}
