{
"type": "FeatureCollection",
"name": "geo_25_地域密着型通所介護",
"crs": { "type": "name", "properties": { "name": "urn:ogc:def:crs:OGC:1.3:CRS84" } },
"features": [
{ "type": "Feature", "properties": { "内容": "デイサービスセンターこてつ【地域密着型通所介護】滋賀県大津市大萱6丁目4番18号", "url": "https://www.kaigokensaku.mhlw.go.jp/25/index.php?action_kouhyou_detail_004_kani=true&JigyosyoCd=2570104345-00&ServiceCd=780&Type=search", "url2": null }, "geometry": { "type": "Point", "coordinates": [ 135.913922100000036, 34.9934498 ] } },
{ "type": "Feature", "properties": { "内容": "デイサービスまった里【地域密着型通所介護】滋賀県大津市里6丁目24番4号", "url": "https://www.kaigokensaku.mhlw.go.jp/25/index.php?action_kouhyou_detail_004_kani=true&JigyosyoCd=2570103255-00&ServiceCd=780&Type=search", "url2": null }, "geometry": { "type": "Point", "coordinates": [ 135.934424069505297, 34.93644323159058 ] } },
{ "type": "Feature", "properties": { "内容": "真情デイ・サービス南志賀【地域密着型通所介護】滋賀県大津市南志賀三丁目6番31号", "url": "https://www.kaigokensaku.mhlw.go.jp/25/index.php?action_kouhyou_detail_004_kani=true&JigyosyoCd=2570103206-00&ServiceCd=780&Type=search", "url2": "https://newones.co.jp/" }, "geometry": { "type": "Point", "coordinates": [ 135.859295800000012, 35.0354814 ] } },
{ "type": "Feature", "properties": { "内容": "デイサービス笑輪【地域密着型通所介護】大平一丁目12番30号", "url": "https://www.kaigokensaku.mhlw.go.jp/25/index.php?action_kouhyou_detail_004_kani=true&JigyosyoCd=2590100497-00&ServiceCd=780&Type=search", "url2": "eewa.net" }, "geometry": { "type": "Point", "coordinates": [ 135.894472388856684, 34.953523078611966 ] } },
{ "type": "Feature", "properties": { "内容": "デイサービスさんさん【地域密着型通所介護】大津市朝日１丁目４－６", "url": "https://www.kaigokensaku.mhlw.go.jp/25/index.php?action_kouhyou_detail_004_kani=true&JigyosyoCd=2570102141-00&ServiceCd=780&Type=search", "url2": "biwasunsun.com" }, "geometry": { "type": "Point", "coordinates": [ 135.914729200000011, 35.1408651 ] } },
{ "type": "Feature", "properties": { "内容": "MSコーポレーション合同会社デイサービス近江【地域密着型通所介護】滋賀県大津市若葉台3番12号", "url": "https://www.kaigokensaku.mhlw.go.jp/25/index.php?action_kouhyou_detail_004_kani=true&JigyosyoCd=2590100752-00&ServiceCd=780&Type=search", "url2": "https://msc-care.com/new-job-information" }, "geometry": { "type": "Point", "coordinates": [ 135.8830841, 34.975544500000019 ] } },
{ "type": "Feature", "properties": { "内容": "リハプライド・大津阪本【地域密着型通所介護】滋賀県大津市下阪本1-15-1", "url": "https://www.kaigokensaku.mhlw.go.jp/25/index.php?action_kouhyou_detail_004_kani=true&JigyosyoCd=2590100703-00&ServiceCd=780&Type=search", "url2": "https://rehacon.com/profile.html#prof_04" }, "geometry": { "type": "Point", "coordinates": [ 135.8739917, 35.0537535 ] } },
{ "type": "Feature", "properties": { "内容": "ウェルフィット石山【地域密着型通所介護】滋賀県大津市別保1丁目15-4増田ビル1F", "url": "https://www.kaigokensaku.mhlw.go.jp/25/index.php?action_kouhyou_detail_004_kani=true&JigyosyoCd=2590100745-00&ServiceCd=780&Type=search", "url2": null }, "geometry": { "type": "Point", "coordinates": [ 135.895647899999972, 34.9818095 ] } },
{ "type": "Feature", "properties": { "内容": "デイサービス葵【地域密着型通所介護】滋賀県大津市松陽3丁目3-5", "url": "https://www.kaigokensaku.mhlw.go.jp/25/index.php?action_kouhyou_detail_004_kani=true&JigyosyoCd=2590101214-00&ServiceCd=780&Type=search", "url2": null }, "geometry": { "type": "Point", "coordinates": [ 135.9198474, 34.9645498 ] } },
{ "type": "Feature", "properties": { "内容": "デイサービス　たなかみ【地域密着型通所介護】黒津2丁目21番13号", "url": "https://www.kaigokensaku.mhlw.go.jp/25/index.php?action_kouhyou_detail_004_kani=true&JigyosyoCd=2570104089-00&ServiceCd=780&Type=search", "url2": null }, "geometry": { "type": "Point", "coordinates": [ 135.916850960713163, 34.942457744881843 ] } },
{ "type": "Feature", "properties": { "内容": "真情デイ・サービス　良庵【地域密着型通所介護】滋賀県大津市中央一丁目２－３４", "url": "https://www.kaigokensaku.mhlw.go.jp/25/index.php?action_kouhyou_detail_004_kani=true&JigyosyoCd=2590100612-00&ServiceCd=780&Type=search", "url2": "http://newones.co.jp/" }, "geometry": { "type": "Point", "coordinates": [ 135.864143, 35.008275 ] } },
{ "type": "Feature", "properties": { "内容": "ポシブルさくら石山【地域密着型通所介護】滋賀県大津市大平二丁目４－１５", "url": "https://www.kaigokensaku.mhlw.go.jp/25/index.php?action_kouhyou_detail_004_kani=true&JigyosyoCd=2590100588-00&ServiceCd=780&Type=search", "url2": null }, "geometry": { "type": "Point", "coordinates": [ 135.900889399999983, 34.9540949 ] } },
{ "type": "Feature", "properties": { "内容": "特定非営利活動法人宅老所はな【地域密着型通所介護】滋賀県大津市坂本五丁目２６－３１", "url": "https://www.kaigokensaku.mhlw.go.jp/25/index.php?action_kouhyou_detail_004_kani=true&JigyosyoCd=2570100574-00&ServiceCd=780&Type=search", "url2": "http://www.hana-npo.net" }, "geometry": { "type": "Point", "coordinates": [ 135.869443300000057, 35.0739778 ] } },
{ "type": "Feature", "properties": { "内容": "真情（まごころ）デイサービス大江【地域密着型通所介護】大津市大江四丁目12-14", "url": "https://www.kaigokensaku.mhlw.go.jp/25/index.php?action_kouhyou_detail_004_kani=true&JigyosyoCd=2570102679-00&ServiceCd=780&Type=search", "url2": "http://newones.co.jp" }, "geometry": { "type": "Point", "coordinates": [ 135.924108899999965, 34.9809845 ] } },
{ "type": "Feature", "properties": { "内容": "ハーベスト介護予防センター【地域密着型通所介護】滋賀県大津市札の辻3-24", "url": "https://www.kaigokensaku.mhlw.go.jp/25/index.php?action_kouhyou_detail_004_kani=true&JigyosyoCd=2570102265-00&ServiceCd=780&Type=search", "url2": "http://itahara-amjt.com/harvest/" }, "geometry": { "type": "Point", "coordinates": [ 135.861332100000027, 35.0063915 ] } },
{ "type": "Feature", "properties": { "内容": "リハビリ特化型デイサービス　リハビリフィールド瀬田【地域密着型通所介護】滋賀県大津市神領３丁目２０番１０号", "url": "https://www.kaigokensaku.mhlw.go.jp/25/index.php?action_kouhyou_detail_004_kani=true&JigyosyoCd=2590100422-00&ServiceCd=780&Type=search", "url2": null }, "geometry": { "type": "Point", "coordinates": [ 135.910541, 34.971438 ] } },
{ "type": "Feature", "properties": { "内容": "ブリッジライフ　大津【地域密着型通所介護】滋賀県大津市長等3丁目6番16号", "url": "https://www.kaigokensaku.mhlw.go.jp/25/index.php?action_kouhyou_detail_004_kani=true&JigyosyoCd=2590100570-00&ServiceCd=780&Type=search", "url2": null }, "geometry": { "type": "Point", "coordinates": [ 135.859085, 35.0113993 ] } },
{ "type": "Feature", "properties": { "内容": "SPROUTデイサービスポラリスKATATA【地域密着型通所介護】滋賀県大津市本堅田2-31-15", "url": "https://www.kaigokensaku.mhlw.go.jp/25/index.php?action_kouhyou_detail_004_kani=true&JigyosyoCd=2590101040-00&ServiceCd=780&Type=search", "url2": "https://www.polaris.care/office/" }, "geometry": { "type": "Point", "coordinates": [ 135.9225222, 35.1179179 ] } },
{ "type": "Feature", "properties": { "内容": "近江リハビリセンター　おごと【地域密着型通所介護】滋賀県大津市雄琴６丁目11-3", "url": "https://www.kaigokensaku.mhlw.go.jp/25/index.php?action_kouhyou_detail_004_kani=true&JigyosyoCd=2590101180-00&ServiceCd=780&Type=search", "url2": null }, "geometry": { "type": "Point", "coordinates": [ 135.8994952, 35.0915986 ] } },
{ "type": "Feature", "properties": { "内容": "近江リハビリセンター【地域密着型通所介護】唐崎3丁目8-13", "url": "https://www.kaigokensaku.mhlw.go.jp/25/index.php?action_kouhyou_detail_004_kani=true&JigyosyoCd=2570104220-00&ServiceCd=780&Type=search", "url2": null }, "geometry": { "type": "Point", "coordinates": [ 135.864358300000049, 35.0509113 ] } },
{ "type": "Feature", "properties": { "内容": "デイ平津合同会社【地域密着型通所介護】滋賀県大津市平津１丁目２１番２２号本郷ビル１F", "url": "https://www.kaigokensaku.mhlw.go.jp/25/index.php?action_kouhyou_detail_004_kani=true&JigyosyoCd=2570104410-00&ServiceCd=780&Type=search", "url2": null }, "geometry": { "type": "Point", "coordinates": [ 135.910118900000043, 34.9469514 ] } },
{ "type": "Feature", "properties": { "内容": "近江リハビリセンター坂本【地域密着型通所介護】坂本3丁目18-58", "url": "https://www.kaigokensaku.mhlw.go.jp/25/index.php?action_kouhyou_detail_004_kani=true&JigyosyoCd=2590100554-00&ServiceCd=780&Type=search", "url2": null }, "geometry": { "type": "Point", "coordinates": [ 135.877117699999985, 35.0703449 ] } },
{ "type": "Feature", "properties": { "内容": "リハビリデイサービス　ドリーブ【地域密着型通所介護】滋賀県大津市御殿浜６－２９", "url": "https://www.kaigokensaku.mhlw.go.jp/25/index.php?action_kouhyou_detail_004_kani=true&JigyosyoCd=2570103768-00&ServiceCd=780&Type=search", "url2": null }, "geometry": { "type": "Point", "coordinates": [ 135.89558169999998, 34.985497 ] } },
{ "type": "Feature", "properties": { "内容": "リハビリデイ大津【地域密着型通所介護】滋賀県大津市大江二丁目25-2", "url": "https://www.kaigokensaku.mhlw.go.jp/25/index.php?action_kouhyou_detail_004_kani=true&JigyosyoCd=2570103867-00&ServiceCd=780&Type=search", "url2": null }, "geometry": { "type": "Point", "coordinates": [ 135.912772101266683, 34.977960610939682 ] } },
{ "type": "Feature", "properties": { "内容": "アルカディアリハステーション【地域密着型通所介護】中庄1-15-18クレストビル１Ｆ", "url": "https://www.kaigokensaku.mhlw.go.jp/25/index.php?action_kouhyou_detail_004_kani=true&JigyosyoCd=2590100729-00&ServiceCd=780&Type=search", "url2": "https://www.ai-seikotsu.net" }, "geometry": { "type": "Point", "coordinates": [ 135.8912563, 34.9901477 ] } },
{ "type": "Feature", "properties": { "内容": "NPO法人　デイサービス　花みずき【地域密着型通所介護】松が丘５丁目１３－５", "url": "https://www.kaigokensaku.mhlw.go.jp/25/index.php?action_kouhyou_detail_004_kani=true&JigyosyoCd=2570102372-00&ServiceCd=780&Type=search", "url2": null }, "geometry": { "type": "Point", "coordinates": [ 135.0197923, 34.6506964 ] } },
{ "type": "Feature", "properties": { "内容": "早稲田イーライフ大津【地域密着型通所介護】滋賀県大津市本宮二丁目34-2", "url": "https://www.kaigokensaku.mhlw.go.jp/25/index.php?action_kouhyou_detail_004_kani=true&JigyosyoCd=2590100778-00&ServiceCd=780&Type=search", "url2": "http://hp.kaipoke.biz/kk4/" }, "geometry": { "type": "Point", "coordinates": [ 135.873582199999987, 34.9991734 ] } },
{ "type": "Feature", "properties": { "内容": "しみんふくし滋賀　柳川デイサービスセンター【地域密着型通所介護】滋賀県大津市柳川2丁目11-25", "url": "https://www.kaigokensaku.mhlw.go.jp/25/index.php?action_kouhyou_detail_004_kani=true&JigyosyoCd=2590100919-00&ServiceCd=780&Type=search", "url2": "http://www.shiminfukushi-shiga.jp/" }, "geometry": { "type": "Point", "coordinates": [ 135.8616147, 35.0327341 ] } },
{ "type": "Feature", "properties": { "内容": "デイサービス　ベーススタジオ大津稲津【地域密着型通所介護】滋賀県大津市稲津一丁目13-38", "url": "https://www.kaigokensaku.mhlw.go.jp/25/index.php?action_kouhyou_detail_004_kani=true&JigyosyoCd=2590101198-00&ServiceCd=780&Type=search", "url2": "https://www.wellbeingbase.site/basestudio-otsuinazu/" }, "geometry": { "type": "Point", "coordinates": [ 135.913179, 34.9462881 ] } },
{ "type": "Feature", "properties": { "内容": "悠悠【地域密着型通所介護】大津市一里山五丁目20番37号", "url": "https://www.kaigokensaku.mhlw.go.jp/25/index.php?action_kouhyou_detail_004_kani=true&JigyosyoCd=2570100582-00&ServiceCd=780&Type=search", "url2": "http://www" }, "geometry": { "type": "Point", "coordinates": [ 135.936707800000022, 34.9790546 ] } },
{ "type": "Feature", "properties": { "内容": "あかねはうすデイサービス【地域密着型通所介護】滋賀県大津市唐崎一丁目30-10", "url": "https://www.kaigokensaku.mhlw.go.jp/25/index.php?action_kouhyou_detail_004_kani=true&JigyosyoCd=2570100830-00&ServiceCd=780&Type=search", "url2": "http://www.akanehouse.com" }, "geometry": { "type": "Point", "coordinates": [ 135.869446489588825, 35.047756143503207 ] } },
{ "type": "Feature", "properties": { "内容": "デイサービスさくら倶楽部【地域密着型通所介護】大津市石山寺三丁目24-1　アメニティ石山101", "url": "https://www.kaigokensaku.mhlw.go.jp/25/index.php?action_kouhyou_detail_004_kani=true&JigyosyoCd=2570101358-00&ServiceCd=780&Type=search", "url2": "http://hakuokai.jp" }, "geometry": { "type": "Point", "coordinates": [ 135.905862899999988, 34.9552483 ] } },
{ "type": "Feature", "properties": { "内容": "サポートスペース　ル・ムロン【地域密着型通所介護】滋賀県大津市大石中３丁目1-25", "url": "https://www.kaigokensaku.mhlw.go.jp/25/index.php?action_kouhyou_detail_004_kani=true&JigyosyoCd=2570101838-00&ServiceCd=780&Type=search", "url2": null }, "geometry": { "type": "Point", "coordinates": [ 135.914155661115586, 34.911127117887609 ] } },
{ "type": "Feature", "properties": { "内容": "大津市立北老人福祉センター【地域密着型通所介護】大津市今堅田二丁目4番1号", "url": "https://www.kaigokensaku.mhlw.go.jp/25/index.php?action_kouhyou_detail_004_kani=true&JigyosyoCd=2570101853-00&ServiceCd=780&Type=search", "url2": "http://www.fukusi-otsu.or.jp" }, "geometry": { "type": "Point", "coordinates": [ 135.9207424, 35.1205121 ] } },
{ "type": "Feature", "properties": { "内容": "大津市立東老人福祉センター【地域密着型通所介護】大津市玉野浦６－３３", "url": "https://www.kaigokensaku.mhlw.go.jp/25/index.php?action_kouhyou_detail_004_kani=true&JigyosyoCd=2570101879-00&ServiceCd=780&Type=search", "url2": "http://www.fukusi-otsu.or.jp" }, "geometry": { "type": "Point", "coordinates": [ 135.908202399999936, 34.980884 ] } },
{ "type": "Feature", "properties": { "内容": "晴嵐デイサービスセンター【地域密着型通所介護】大津市北大路一丁目9-2", "url": "https://www.kaigokensaku.mhlw.go.jp/25/index.php?action_kouhyou_detail_004_kani=true&JigyosyoCd=2570101895-00&ServiceCd=780&Type=search", "url2": "http://wwww.fukusi-otsu.or.jp" }, "geometry": { "type": "Point", "coordinates": [ 135.898803600000065, 34.9756899 ] } },
{ "type": "Feature", "properties": { "内容": "うさぎリハビリステーション【地域密着型通所介護】滋賀県大津市松本2-8-101階", "url": "https://www.kaigokensaku.mhlw.go.jp/25/index.php?action_kouhyou_detail_004_kani=true&JigyosyoCd=2590101107-00&ServiceCd=780&Type=search", "url2": "https://usagizaitakuiryoushiga.com" }, "geometry": { "type": "Point", "coordinates": [ 135.8731874, 35.0051531 ] } },
{ "type": "Feature", "properties": { "内容": "時間の森【地域密着型通所介護】大津市大将軍1丁目15-2", "url": "https://www.kaigokensaku.mhlw.go.jp/25/index.php?action_kouhyou_detail_004_kani=true&JigyosyoCd=2570102752-00&ServiceCd=780&Type=search", "url2": "http://rokusho.net/" }, "geometry": { "type": "Point", "coordinates": [ 135.925167200000033, 34.9933219 ] } },
{ "type": "Feature", "properties": { "内容": "あろはstyle大石【地域密着型通所介護】滋賀県大津市大石東六丁目４番22号", "url": "https://www.kaigokensaku.mhlw.go.jp/25/index.php?action_kouhyou_detail_004_kani=true&JigyosyoCd=2570104428-00&ServiceCd=780&Type=search", "url2": "http://love-smile-happiness.co.jp/company/index.html" }, "geometry": { "type": "Point", "coordinates": [ 135.915391, 34.9127296 ] } },
{ "type": "Feature", "properties": { "内容": "デイサービスたんぽぽ【地域密着型通所介護】大津市大石東六丁目1-11", "url": "https://www.kaigokensaku.mhlw.go.jp/25/index.php?action_kouhyou_detail_004_kani=true&JigyosyoCd=2590100265-00&ServiceCd=780&Type=search", "url2": "http://www.ryokuseikai.jp" }, "geometry": { "type": "Point", "coordinates": [ 135.914458, 34.913293 ] } },
{ "type": "Feature", "properties": { "内容": "かすがやまデイサービス【地域密着型通所介護】滋賀県大津市本堅田６丁目16-8かすがやま翔裕館Ⅰ号館", "url": "https://www.kaigokensaku.mhlw.go.jp/25/index.php?action_kouhyou_detail_004_kani=true&JigyosyoCd=2590101149-00&ServiceCd=780&Type=search", "url2": null }, "geometry": { "type": "Point", "coordinates": [ 135.9097625, 35.1178869 ] } },
{ "type": "Feature", "properties": { "内容": "デイサービスセンターあろは瀬田川【地域密着型通所介護】滋賀県大津瀬田五丁目22番3号", "url": "https://www.kaigokensaku.mhlw.go.jp/25/index.php?action_kouhyou_detail_004_kani=true&JigyosyoCd=2590101230-00&ServiceCd=780&Type=search", "url2": "https://www.love-smile-happiness.co.jp" }, "geometry": { "type": "Point", "coordinates": [ 135.9112635, 34.9600054 ] } },
{ "type": "Feature", "properties": { "内容": "有限会社　さくらケアセンター【地域密着型通所介護】滋賀県大津市湖城が丘44番番18号", "url": "https://www.kaigokensaku.mhlw.go.jp/25/index.php?action_kouhyou_detail_004_kani=true&JigyosyoCd=2570100905-00&ServiceCd=780&Type=search", "url2": "http://sakura-center.co.jp" }, "geometry": { "type": "Point", "coordinates": [ 135.881202600000051, 34.9970815 ] } },
{ "type": "Feature", "properties": { "内容": "純夢デイサービスセンター【地域密着型通所介護】滋賀県大津市和邇中浜444-1S・Rビル1F", "url": "https://www.kaigokensaku.mhlw.go.jp/25/index.php?action_kouhyou_detail_004_kani=true&JigyosyoCd=2570103412-00&ServiceCd=780&Type=search", "url2": null }, "geometry": { "type": "Point", "coordinates": [ 135.9230297, 35.1619853 ] } },
{ "type": "Feature", "properties": { "内容": "純夢デイサービスセンター感謝【地域密着型通所介護】滋賀県大津市唐崎3-21-8つるやビル1F", "url": "https://www.kaigokensaku.mhlw.go.jp/25/index.php?action_kouhyou_detail_004_kani=true&JigyosyoCd=2570103651-00&ServiceCd=780&Type=search", "url2": null }, "geometry": { "type": "Point", "coordinates": [ 135.910237, 35.113231 ] } },
{ "type": "Feature", "properties": { "内容": "集いの家　不動寺【地域密着型通所介護】滋賀県大津市中庄１丁目３－２", "url": "https://www.kaigokensaku.mhlw.go.jp/25/index.php?action_kouhyou_detail_004_kani=true&JigyosyoCd=2570104105-00&ServiceCd=780&Type=search", "url2": "http://nozomi-shiga.com/" }, "geometry": { "type": "Point", "coordinates": [ 135.891660319341554, 34.990361713257059 ] } },
{ "type": "Feature", "properties": { "内容": "純夢デイサービスセンター心【地域密着型通所介護】滋賀県大津市衣川1丁目30-4", "url": "https://www.kaigokensaku.mhlw.go.jp/25/index.php?action_kouhyou_detail_004_kani=true&JigyosyoCd=2570104253-00&ServiceCd=780&Type=search", "url2": null }, "geometry": { "type": "Point", "coordinates": [ 135.910237, 35.113231 ] } },
{ "type": "Feature", "properties": { "内容": "デイサービスほんかたた【地域密着型通所介護】滋賀県大津市本堅田1-23-32", "url": "https://www.kaigokensaku.mhlw.go.jp/25/index.php?action_kouhyou_detail_004_kani=true&JigyosyoCd=2570104394-00&ServiceCd=780&Type=search", "url2": "http://newearth.co.jp" }, "geometry": { "type": "Point", "coordinates": [ 135.918776877909863, 35.110697571546503 ] } },
{ "type": "Feature", "properties": { "内容": "リハビリデイサービスセンター大津店【地域密着型通所介護】滋賀県大津市朝日が丘1丁目4-40", "url": "https://www.kaigokensaku.mhlw.go.jp/25/index.php?action_kouhyou_detail_004_kani=true&JigyosyoCd=2590100976-00&ServiceCd=780&Type=search", "url2": null }, "geometry": { "type": "Point", "coordinates": [ 135.8663086, 35.0012121 ] } },
{ "type": "Feature", "properties": { "内容": "京進のリハビリフィットネスPitaLab【ピタラボ】大津瀬田【地域密着型通所介護】大江二丁目30番8号", "url": "https://www.kaigokensaku.mhlw.go.jp/25/index.php?action_kouhyou_detail_004_kani=true&JigyosyoCd=2590101222-00&ServiceCd=780&Type=search", "url2": "https://pita-lab.kyoshin.co.jp/" }, "geometry": { "type": "Point", "coordinates": [ 135.9139044, 34.9767941 ] } },
{ "type": "Feature", "properties": { "内容": "まごころリハビリデイサービスにおの浜【地域密着型通所介護】滋賀県大津市西の庄5-17", "url": "https://www.kaigokensaku.mhlw.go.jp/25/index.php?action_kouhyou_detail_004_kani=true&JigyosyoCd=2590100505-00&ServiceCd=780&Type=search", "url2": "http://magokoro-ie.net/" }, "geometry": { "type": "Point", "coordinates": [ 135.885543699999971, 35.0019237 ] } },
{ "type": "Feature", "properties": { "内容": "フィルマ石山リハビリデイサービス【地域密着型通所介護】滋賀県大津市松原町１７番１０号　コスモ石山101", "url": "https://www.kaigokensaku.mhlw.go.jp/25/index.php?action_kouhyou_detail_004_kani=true&JigyosyoCd=2570102885-00&ServiceCd=780&Type=search", "url2": "https://wwwfirmahabicht.net/" }, "geometry": { "type": "Point", "coordinates": [ 135.904222902357446, 34.977824862944722 ] } },
{ "type": "Feature", "properties": { "内容": "フィルマ膳所リハビリデイサービス【地域密着型通所介護】滋賀県大津市本宮2丁目10－15", "url": "https://www.kaigokensaku.mhlw.go.jp/25/index.php?action_kouhyou_detail_004_kani=true&JigyosyoCd=2570103511-00&ServiceCd=780&Type=search", "url2": "https://firmahabicht.net/" }, "geometry": { "type": "Point", "coordinates": [ 135.877200300000027, 34.9985201 ] } },
{ "type": "Feature", "properties": { "内容": "やすらぎの郷デイサービスセンターⅡ番館【地域密着型通所介護】滋賀県大津市下阪本4-6-27", "url": "https://www.kaigokensaku.mhlw.go.jp/25/index.php?action_kouhyou_detail_004_kani=true&JigyosyoCd=2590101131-00&ServiceCd=780&Type=search", "url2": null }, "geometry": { "type": "Point", "coordinates": [ 135.8781645, 35.0641743 ] } },
{ "type": "Feature", "properties": { "内容": "ラ・ケアこくぶ【地域密着型通所介護】滋賀県大津市国分１丁目4-1", "url": "https://www.kaigokensaku.mhlw.go.jp/25/index.php?action_kouhyou_detail_004_kani=true&JigyosyoCd=2570103537-00&ServiceCd=780&Type=search", "url2": "http://la-care.jp/" }, "geometry": { "type": "Point", "coordinates": [ 138.252924, 36.204824 ] } },
{ "type": "Feature", "properties": { "内容": "FLAT【地域密着型通所介護】滋賀県大津市馬場二丁目12番62号", "url": "https://www.kaigokensaku.mhlw.go.jp/25/index.php?action_kouhyou_detail_004_kani=true&JigyosyoCd=2590100679-00&ServiceCd=780&Type=search", "url2": "http://flat.jw-hp.com/" }, "geometry": { "type": "Point", "coordinates": [ 135.879752599999961, 34.9990038 ] } },
{ "type": "Feature", "properties": { "内容": "ほねつぎデイサービス浜大津【地域密着型通所介護】滋賀県大津市長等２丁目８−４０グランメゾン浜大津１０１", "url": "https://www.kaigokensaku.mhlw.go.jp/25/index.php?action_kouhyou_detail_004_kani=true&JigyosyoCd=2590101172-00&ServiceCd=780&Type=search", "url2": "https://honedeihamaotsu.com/" }, "geometry": { "type": "Point", "coordinates": [ 135.8600085, 35.0096641 ] } },
{ "type": "Feature", "properties": { "内容": "唐崎デイサービスセンター【地域密着型通所介護】大津市唐崎三丁目17番35号", "url": "https://www.kaigokensaku.mhlw.go.jp/25/index.php?action_kouhyou_detail_004_kani=true&JigyosyoCd=2570101903-00&ServiceCd=780&Type=search", "url2": "http://www.fukusi-otsu.or.jp" }, "geometry": { "type": "Point", "coordinates": [ 135.866035900000043, 35.0505225 ] } },
{ "type": "Feature", "properties": { "内容": "デイサービスまつり【地域密着型通所介護】滋賀県大津市桜野町１丁目1－6西大津ISⅡ　1F", "url": "https://www.kaigokensaku.mhlw.go.jp/25/index.php?action_kouhyou_detail_004_kani=true&JigyosyoCd=2590100828-00&ServiceCd=780&Type=search", "url2": null }, "geometry": { "type": "Point", "coordinates": [ 135.857559536228365, 35.024984775996359 ] } },
{ "type": "Feature", "properties": { "内容": "高齢者デイサービススピーク【地域密着型通所介護】膳所１丁目１３－３", "url": "https://www.kaigokensaku.mhlw.go.jp/25/index.php?action_kouhyou_detail_004_kani=true&JigyosyoCd=2590100851-00&ServiceCd=780&Type=search", "url2": "https://speak-deorum.jp" }, "geometry": { "type": "Point", "coordinates": [ 135.889450700000026, 34.99473720000001 ] } },
{ "type": "Feature", "properties": { "内容": "JAレーク滋賀デイサービスセンター湖都里【地域密着型通所介護】滋賀県大津市大萱三丁目7番1号", "url": "https://www.kaigokensaku.mhlw.go.jp/25/index.php?action_kouhyou_detail_004_kani=true&JigyosyoCd=2590100893-00&ServiceCd=780&Type=search", "url2": null }, "geometry": { "type": "Point", "coordinates": [ 135.9201074, 34.98951 ] } },
{ "type": "Feature", "properties": { "内容": "陽だまりデイサービスセンター【地域密着型通所介護】滋賀県大津市昭和町8-15", "url": "https://www.kaigokensaku.mhlw.go.jp/25/index.php?action_kouhyou_detail_004_kani=true&JigyosyoCd=2590101065-00&ServiceCd=780&Type=search", "url2": "https://shigahokenkai.jp/pages/50/" }, "geometry": { "type": "Point", "coordinates": [ 135.8862727, 34.9975864 ] } },
{ "type": "Feature", "properties": { "内容": "地域密着型デイサービスアネモネ【地域密着型通所介護】滋賀県大津市南郷二丁目29番7号", "url": "https://www.kaigokensaku.mhlw.go.jp/25/index.php?action_kouhyou_detail_004_kani=true&JigyosyoCd=2590101016-00&ServiceCd=780&Type=search", "url2": "https://day-anemone.jp" }, "geometry": { "type": "Point", "coordinates": [ 135.9025168, 34.9424954 ] } },
{ "type": "Feature", "properties": { "内容": "はーとふるリハビリ幸　個別対応型半日デイサービス【地域密着型通所介護】滋賀県大津市別保2丁目９－４５", "url": "https://www.kaigokensaku.mhlw.go.jp/25/index.php?action_kouhyou_detail_004_kani=true&JigyosyoCd=2590100661-00&ServiceCd=780&Type=search", "url2": "http://hp.kaipoke.biz/cs8/" }, "geometry": { "type": "Point", "coordinates": [ 135.8942825, 34.9813528 ] } },
{ "type": "Feature", "properties": { "内容": "福寿荘デイサービスセンター【地域密着型通所介護】大津市大萱七丁目7番１号", "url": "https://www.kaigokensaku.mhlw.go.jp/25/index.php?action_kouhyou_detail_004_kani=true&JigyosyoCd=2570100087-00&ServiceCd=780&Type=search", "url2": "katyokai@poem.ocn.ne.jp" }, "geometry": { "type": "Point", "coordinates": [ 135.915676500000018, 34.9948826 ] } },
{ "type": "Feature", "properties": { "内容": "くるみの森　唐崎【地域密着型通所介護】際川3丁目19-2", "url": "https://www.kaigokensaku.mhlw.go.jp/25/index.php?action_kouhyou_detail_004_kani=true&JigyosyoCd=2570103081-00&ServiceCd=780&Type=search", "url2": "http://ecopraise.jp/comfort/" }, "geometry": { "type": "Point", "coordinates": [ 135.866677799999934, 35.0422375 ] } },
{ "type": "Feature", "properties": { "内容": "真情デイ・サービス衣川【地域密着型通所介護】衣川一丁目１１－３１", "url": "https://www.kaigokensaku.mhlw.go.jp/25/index.php?action_kouhyou_detail_004_kani=true&JigyosyoCd=2570102976-00&ServiceCd=780&Type=search", "url2": "http://newones.co.jp/" }, "geometry": { "type": "Point", "coordinates": [ 135.903431299999966, 35.1033639 ] } },
{ "type": "Feature", "properties": { "内容": "はなまるデイサービス【地域密着型通所介護】滋賀県大津市光が丘町４番７７号", "url": "https://www.kaigokensaku.mhlw.go.jp/25/index.php?action_kouhyou_detail_004_kani=true&JigyosyoCd=2570103776-00&ServiceCd=780&Type=search", "url2": null }, "geometry": { "type": "Point", "coordinates": [ 135.898004689549253, 34.973263838625847 ] } },
{ "type": "Feature", "properties": { "内容": "特定非営利活動法人琵琶湖ライフケアシステム町なかデイハウス美湖【地域密着型通所介護】滋賀県大津市朝日一丁目17-4", "url": "https://www.kaigokensaku.mhlw.go.jp/25/index.php?action_kouhyou_detail_004_kani=true&JigyosyoCd=2570103461-00&ServiceCd=780&Type=search", "url2": "http://npoblcsmiko.jimdofree.com" }, "geometry": { "type": "Point", "coordinates": [ 135.917113699999987, 35.1406374 ] } },
{ "type": "Feature", "properties": { "内容": "だんらんの家大津千町【地域密着型通所介護】千町1丁目4-20", "url": "https://www.kaigokensaku.mhlw.go.jp/25/index.php?action_kouhyou_detail_004_kani=true&JigyosyoCd=2590100935-00&ServiceCd=780&Type=search", "url2": "https://bbd-shiga.jp/" }, "geometry": { "type": "Point", "coordinates": [ 135.899122799999986, 34.9462141 ] } },
{ "type": "Feature", "properties": { "内容": "サポートスペース　めろんLavie【地域密着型通所介護】滋賀県大津市大平1丁目7-14", "url": "https://www.kaigokensaku.mhlw.go.jp/25/index.php?action_kouhyou_detail_004_kani=true&JigyosyoCd=2570104188-00&ServiceCd=780&Type=search", "url2": null }, "geometry": { "type": "Point", "coordinates": [ 135.897502168361882, 34.953908959120888 ] } },
{ "type": "Feature", "properties": { "内容": "ヘルス＆フィットネス　シェイクハンズ【地域密着型通所介護】滋賀県大津市坂本7丁目32-30ロータスビル1F", "url": "https://www.kaigokensaku.mhlw.go.jp/25/index.php?action_kouhyou_detail_004_kani=true&JigyosyoCd=2590101156-00&ServiceCd=780&Type=search", "url2": "https://www.fukurou-care.com/" }, "geometry": { "type": "Point", "coordinates": [ 135.8796596, 35.0714852 ] } },
{ "type": "Feature", "properties": { "内容": "でい・もなみ【地域密着型通所介護】大津市衣川1－24－51", "url": "https://www.kaigokensaku.mhlw.go.jp/25/index.php?action_kouhyou_detail_004_kani=true&JigyosyoCd=2570102323-00&ServiceCd=780&Type=search", "url2": "https://x.com/MONAMIkinugawa" }, "geometry": { "type": "Point", "coordinates": [ 135.908405, 35.1089548 ] } },
{ "type": "Feature", "properties": { "内容": "集・もなみ【地域密着型通所介護】大津市衣川１－２３－４０", "url": "https://www.kaigokensaku.mhlw.go.jp/25/index.php?action_kouhyou_detail_004_kani=true&JigyosyoCd=2570102273-00&ServiceCd=780&Type=search", "url2": "https://x.com/MONAMIkinugawa" }, "geometry": { "type": "Point", "coordinates": [ 135.908005, 35.1083826 ] } },
{ "type": "Feature", "properties": { "内容": "香・もなみ【地域密着型通所介護】大津市伊香立生津町75番１", "url": "https://www.kaigokensaku.mhlw.go.jp/25/index.php?action_kouhyou_detail_004_kani=true&JigyosyoCd=2570103271-00&ServiceCd=780&Type=search", "url2": "https://x.com/MONAMIkinugawa" }, "geometry": { "type": "Point", "coordinates": [ 135.870051200000034, 35.1407477 ] } },
{ "type": "Feature", "properties": { "内容": "デイサービスポノ【地域密着型通所介護】滋賀県大津市際川３丁目３３ー２", "url": "https://www.kaigokensaku.mhlw.go.jp/25/index.php?action_kouhyou_detail_004_kani=true&JigyosyoCd=2590100810-00&ServiceCd=780&Type=search", "url2": "http://careq-s.com" }, "geometry": { "type": "Point", "coordinates": [ 135.8670879, 35.0432054 ] } },
{ "type": "Feature", "properties": { "内容": "ポラリスデイサービスセンター彦根【地域密着型通所介護】滋賀県彦根市大藪町2509-2", "url": "https://www.kaigokensaku.mhlw.go.jp/25/index.php?action_kouhyou_detail_004_kani=true&JigyosyoCd=2570201083-00&ServiceCd=780&Type=search", "url2": null }, "geometry": { "type": "Point", "coordinates": [ 136.234432205550405, 35.263188524901366 ] } },
{ "type": "Feature", "properties": { "内容": "ミドリヤいなえ【地域密着型通所介護】肥田町1013-2", "url": "https://www.kaigokensaku.mhlw.go.jp/25/index.php?action_kouhyou_detail_004_kani=true&JigyosyoCd=2570201059-00&ServiceCd=780&Type=search", "url2": "www.kyoto-midoriya.co.jp" }, "geometry": { "type": "Point", "coordinates": [ 136.2001186, 35.2040155 ] } },
{ "type": "Feature", "properties": { "内容": "デイサービス　クローバー【地域密着型通所介護】256-1", "url": "https://www.kaigokensaku.mhlw.go.jp/25/index.php?action_kouhyou_detail_004_kani=true&JigyosyoCd=2590200313-00&ServiceCd=780&Type=search", "url2": null }, "geometry": { "type": "Point", "coordinates": [ 136.265599338326297, 35.26041289982512 ] } },
{ "type": "Feature", "properties": { "内容": "デイサービスはえみ【地域密着型通所介護】彦根市田附町１２２７", "url": "https://www.kaigokensaku.mhlw.go.jp/25/index.php?action_kouhyou_detail_004_kani=true&JigyosyoCd=2570200861-00&ServiceCd=780&Type=search", "url2": "https://www.haemi.jp" }, "geometry": { "type": "Point", "coordinates": [ 136.147746699999971, 35.209074100000024 ] } },
{ "type": "Feature", "properties": { "内容": "花しょうぶの郷デイサービス【地域密着型通所介護】稲枝町27-1", "url": "https://www.kaigokensaku.mhlw.go.jp/25/index.php?action_kouhyou_detail_004_kani=true&JigyosyoCd=2570200499-00&ServiceCd=780&Type=search", "url2": "http://h-shobu.jp" }, "geometry": { "type": "Point", "coordinates": [ 136.195380300000011, 35.2019875 ] } },
{ "type": "Feature", "properties": { "内容": "アネシス南彦根【地域密着型通所介護】滋賀県彦根市小泉町木立135", "url": "https://www.kaigokensaku.mhlw.go.jp/25/index.php?action_kouhyou_detail_004_kani=true&JigyosyoCd=2570200721-00&ServiceCd=780&Type=search", "url2": "http://www.tanakacare.co.jp/" }, "geometry": { "type": "Point", "coordinates": [ 136.250710799999979, 35.2482518 ] } },
{ "type": "Feature", "properties": { "内容": "URBAN　STUDIO　ゆるりは　平田【地域密着型通所介護】滋賀県彦根市平田町409-1", "url": "https://www.kaigokensaku.mhlw.go.jp/25/index.php?action_kouhyou_detail_004_kani=true&JigyosyoCd=2590200404-00&ServiceCd=780&Type=search", "url2": "https://us-yururiha.com/" }, "geometry": { "type": "Point", "coordinates": [ 136.242733, 35.258711 ] } },
{ "type": "Feature", "properties": { "内容": "レジリエンスラボ仄香【地域密着型通所介護】滋賀県彦根市戸賀町100-50", "url": "https://www.kaigokensaku.mhlw.go.jp/25/index.php?action_kouhyou_detail_004_kani=true&JigyosyoCd=2570200812-00&ServiceCd=780&Type=search", "url2": "ssu@iscare.co.jp" }, "geometry": { "type": "Point", "coordinates": [ 136.237798858512832, 35.25532340325902 ] } },
{ "type": "Feature", "properties": { "内容": "機能訓練特化型デイサービスがじゅまる【地域密着型通所介護】滋賀県彦根市川瀬馬場町1082-3", "url": "https://www.kaigokensaku.mhlw.go.jp/25/index.php?action_kouhyou_detail_004_kani=true&JigyosyoCd=2590200297-00&ServiceCd=780&Type=search", "url2": "day-gajumaru.com" }, "geometry": { "type": "Point", "coordinates": [ 136.224257500000022, 35.2279258 ] } },
{ "type": "Feature", "properties": { "内容": "社会福祉法人ことぶき会指定通所介護事業所【地域密着型通所介護】彦根市上岡部町５０３番地", "url": "https://www.kaigokensaku.mhlw.go.jp/25/index.php?action_kouhyou_detail_004_kani=true&JigyosyoCd=2570200093-00&ServiceCd=780&Type=search", "url2": "http//www.ans.co.jp/n/kotobukihoikuen/" }, "geometry": { "type": "Point", "coordinates": [ 136.177801700000032, 35.2192406 ] } },
{ "type": "Feature", "properties": { "内容": "デイサービスひまわり【地域密着型通所介護】滋賀県彦根市里根町191-1ハートフルヒルズ彦根", "url": "https://www.kaigokensaku.mhlw.go.jp/25/index.php?action_kouhyou_detail_004_kani=true&JigyosyoCd=2590200263-00&ServiceCd=780&Type=search", "url2": "http://www.soin-vie.co.jp" }, "geometry": { "type": "Point", "coordinates": [ 136.267872099999977, 35.2673817 ] } },
{ "type": "Feature", "properties": { "内容": "信幸ケアサービスセンター【地域密着型通所介護】滋賀県彦根市賀田山町240-2", "url": "https://www.kaigokensaku.mhlw.go.jp/25/index.php?action_kouhyou_detail_004_kani=true&JigyosyoCd=2570200606-00&ServiceCd=780&Type=search", "url2": "shinkohcare@gmail.com" }, "geometry": { "type": "Point", "coordinates": [ 136.213750299999987, 35.2208398 ] } },
{ "type": "Feature", "properties": { "内容": "デイサービスセンター　　城【地域密着型通所介護】滋賀県彦根市甘呂町918", "url": "https://www.kaigokensaku.mhlw.go.jp/25/index.php?action_kouhyou_detail_004_kani=true&JigyosyoCd=2570200788-00&ServiceCd=780&Type=search", "url2": "https://www.big-advance.site/c/135/2022" }, "geometry": { "type": "Point", "coordinates": [ 136.221065899999985, 35.244737500000014 ] } },
{ "type": "Feature", "properties": { "内容": "ぽぽハウス【地域密着型通所介護】彦根市平田町107-11", "url": "https://www.kaigokensaku.mhlw.go.jp/25/index.php?action_kouhyou_detail_004_kani=true&JigyosyoCd=2570200291-00&ServiceCd=780&Type=search", "url2": "https://www.popo-house.jp/" }, "geometry": { "type": "Point", "coordinates": [ 136.248513489890456, 35.261153829034996 ] } },
{ "type": "Feature", "properties": { "内容": "リハビリデイサービス　しゅん【地域密着型通所介護】滋賀県長浜市木之本町木之本739-5", "url": "https://www.kaigokensaku.mhlw.go.jp/25/index.php?action_kouhyou_detail_004_kani=true&JigyosyoCd=2570301313-00&ServiceCd=780&Type=search", "url2": "https://page.line.me/ofi3655h" }, "geometry": { "type": "Point", "coordinates": [ 136.22829969999998, 35.5034587 ] } },
{ "type": "Feature", "properties": { "内容": "リハビリデイサービスいっぽん【地域密着型通所介護】長浜市高月町高月167", "url": "https://www.kaigokensaku.mhlw.go.jp/25/index.php?action_kouhyou_detail_004_kani=true&JigyosyoCd=2570300893-00&ServiceCd=780&Type=search", "url2": null }, "geometry": { "type": "Point", "coordinates": [ 136.2352661, 35.4666039 ] } },
{ "type": "Feature", "properties": { "内容": "真ごころデイサービス【地域密着型通所介護】滋賀県長浜市湖北町今西743番地", "url": "https://www.kaigokensaku.mhlw.go.jp/25/index.php?action_kouhyou_detail_004_kani=true&JigyosyoCd=2570301214-00&ServiceCd=780&Type=search", "url2": null }, "geometry": { "type": "Point", "coordinates": [ 136.1962727, 35.4409133 ] } },
{ "type": "Feature", "properties": { "内容": "安達クリニック　マリーデイサービス【地域密着型通所介護】滋賀県長浜市小谷丁野町379-2", "url": "https://www.kaigokensaku.mhlw.go.jp/25/index.php?action_kouhyou_detail_004_kani=true&JigyosyoCd=2570300794-00&ServiceCd=780&Type=search", "url2": null }, "geometry": { "type": "Point", "coordinates": [ 136.255863399999953, 35.4603578 ] } },
{ "type": "Feature", "properties": { "内容": "通所介護施設　咲くら【地域密着型通所介護】滋賀県長浜市富田町　482-1", "url": "https://www.kaigokensaku.mhlw.go.jp/25/index.php?action_kouhyou_detail_004_kani=true&JigyosyoCd=2570301305-00&ServiceCd=780&Type=search", "url2": "https://konet.or.jp/" }, "geometry": { "type": "Point", "coordinates": [ 136.223189656326667, 35.425496965288922 ] } },
{ "type": "Feature", "properties": { "内容": "デイサービス　すずらん【地域密着型通所介護】滋賀県長浜市三ツ矢町13－16", "url": "https://www.kaigokensaku.mhlw.go.jp/25/index.php?action_kouhyou_detail_004_kani=true&JigyosyoCd=2570301081-00&ServiceCd=780&Type=search", "url2": "https://sontokukai.com/" }, "geometry": { "type": "Point", "coordinates": [ 136.26847829999997, 35.3878884 ] } },
{ "type": "Feature", "properties": { "内容": "リハビリデイ楽りら【地域密着型通所介護】滋賀県長浜市大辰巳町36第17森野ビル", "url": "https://www.kaigokensaku.mhlw.go.jp/25/index.php?action_kouhyou_detail_004_kani=true&JigyosyoCd=2570301321-00&ServiceCd=780&Type=search", "url2": "www.raku-rira.jp" }, "geometry": { "type": "Point", "coordinates": [ 136.287346, 35.3724936 ] } },
{ "type": "Feature", "properties": { "内容": "スマイル長浜店【地域密着型通所介護】滋賀県長浜市平方町238番地YFビル23　1F", "url": "https://www.kaigokensaku.mhlw.go.jp/25/index.php?action_kouhyou_detail_004_kani=true&JigyosyoCd=2570301396-00&ServiceCd=780&Type=search", "url2": "smile-shiga.net" }, "geometry": { "type": "Point", "coordinates": [ 136.278102399999966, 35.371674 ] } },
{ "type": "Feature", "properties": { "内容": "リハビリデイ湯本【地域密着型通所介護】滋賀県弥高町231", "url": "https://www.kaigokensaku.mhlw.go.jp/25/index.php?action_kouhyou_detail_004_kani=true&JigyosyoCd=2570301107-00&ServiceCd=780&Type=search", "url2": "https://sites.google.com/view/websiteofrehamanagement-yumoto/" }, "geometry": { "type": "Point", "coordinates": [ 136.279005099999949, 35.374445899999984 ] } },
{ "type": "Feature", "properties": { "内容": "リハビリデイ湯本　神照【地域密着型通所介護】長浜市新庄寺町286-8", "url": "https://www.kaigokensaku.mhlw.go.jp/25/index.php?action_kouhyou_detail_004_kani=true&JigyosyoCd=2570301206-00&ServiceCd=780&Type=search", "url2": "https://sites.google.com/view/websiteofrehamanagement-yumoto/" }, "geometry": { "type": "Point", "coordinates": [ 136.274122199999965, 35.4001038 ] } },
{ "type": "Feature", "properties": { "内容": "デイサービス　とよしま【地域密着型通所介護】滋賀県長浜市加田町１９－６老人ホームながはま", "url": "https://www.kaigokensaku.mhlw.go.jp/25/index.php?action_kouhyou_detail_004_kani=true&JigyosyoCd=2570301073-00&ServiceCd=780&Type=search", "url2": "glow.or.jp/" }, "geometry": { "type": "Point", "coordinates": [ 136.304160700000011, 35.3572601 ] } },
{ "type": "Feature", "properties": { "内容": "早稲田イーライフ長浜【地域密着型通所介護】八幡東町７９－１", "url": "https://www.kaigokensaku.mhlw.go.jp/25/index.php?action_kouhyou_detail_004_kani=true&JigyosyoCd=2570301420-00&ServiceCd=780&Type=search", "url2": "http://hp.kaipoke.biz/w2d/index.html" }, "geometry": { "type": "Point", "coordinates": [ 136.285091154923549, 35.381674057879806 ] } },
{ "type": "Feature", "properties": { "内容": "デイサービス　ナナ【地域密着型通所介護】長浜市高月町磯野538番地", "url": "https://www.kaigokensaku.mhlw.go.jp/25/index.php?action_kouhyou_detail_004_kani=true&JigyosyoCd=2570301149-00&ServiceCd=780&Type=search", "url2": null }, "geometry": { "type": "Point", "coordinates": [ 136.2104491, 35.4778129 ] } },
{ "type": "Feature", "properties": { "内容": "リハデイ優美【地域密着型通所介護】東主計町165", "url": "https://www.kaigokensaku.mhlw.go.jp/25/index.php?action_kouhyou_detail_004_kani=true&JigyosyoCd=2590300279-00&ServiceCd=780&Type=search", "url2": "https://www.fureai-s.jp/u_bi/" }, "geometry": { "type": "Point", "coordinates": [ 136.323690700000043, 35.4305627 ] } },
{ "type": "Feature", "properties": { "内容": "多世代型通所事業所　里【地域密着型通所介護】滋賀県近江八幡市小田町79-16", "url": "https://www.kaigokensaku.mhlw.go.jp/25/index.php?action_kouhyou_detail_004_kani=true&JigyosyoCd=2590400251-00&ServiceCd=780&Type=search", "url2": "http://hp.kaipoke.biz/b49/" }, "geometry": { "type": "Point", "coordinates": [ 136.0453736, 35.1157964 ] } },
{ "type": "Feature", "properties": { "内容": "デイサービス　やおみ【地域密着型通所介護】滋賀県近江八幡市中村町628番地", "url": "https://www.kaigokensaku.mhlw.go.jp/25/index.php?action_kouhyou_detail_004_kani=true&JigyosyoCd=2570400602-00&ServiceCd=780&Type=search", "url2": null }, "geometry": { "type": "Point", "coordinates": [ 136.088335599999937, 35.1336765 ] } },
{ "type": "Feature", "properties": { "内容": "ベストライフデイサービスセンター近江八幡【地域密着型通所介護】滋賀県近江八幡市白鳥町30-3敷島第2ビル103号", "url": "https://www.kaigokensaku.mhlw.go.jp/25/index.php?action_kouhyou_detail_004_kani=true&JigyosyoCd=2570400545-00&ServiceCd=780&Type=search", "url2": "http://bestlifesiga.com" }, "geometry": { "type": "Point", "coordinates": [ 136.0957042, 35.1231116 ] } },
{ "type": "Feature", "properties": { "内容": "アクティブプラ虹【地域密着型通所介護】滋賀県近江八幡市長田町2200", "url": "https://www.kaigokensaku.mhlw.go.jp/25/index.php?action_kouhyou_detail_004_kani=true&JigyosyoCd=2590400277-00&ServiceCd=780&Type=search", "url2": "https://mihan-shiga.site" }, "geometry": { "type": "Point", "coordinates": [ 136.1237609, 35.1307532 ] } },
{ "type": "Feature", "properties": { "内容": "デイサービスセンターむべの里・島【地域密着型通所介護】滋賀県近江八幡市北津田町346-15", "url": "https://www.kaigokensaku.mhlw.go.jp/25/index.php?action_kouhyou_detail_004_kani=true&JigyosyoCd=2570400354-00&ServiceCd=780&Type=search", "url2": "http://kohitujikai.net/kaigo/" }, "geometry": { "type": "Point", "coordinates": [ 136.083065450262467, 35.168264498902069 ] } },
{ "type": "Feature", "properties": { "内容": "あかつきの郷【地域密着型通所介護】滋賀県近江八幡市東町414番地", "url": "https://www.kaigokensaku.mhlw.go.jp/25/index.php?action_kouhyou_detail_004_kani=true&JigyosyoCd=2590400301-00&ServiceCd=780&Type=search", "url2": null }, "geometry": { "type": "Point", "coordinates": [ 136.0855745, 35.1069901 ] } },
{ "type": "Feature", "properties": { "内容": "長命デイサービスちとせ【地域密着型通所介護】滋賀県近江八幡市長命寺町３７－１", "url": "https://www.kaigokensaku.mhlw.go.jp/25/index.php?action_kouhyou_detail_004_kani=true&JigyosyoCd=2570400610-00&ServiceCd=780&Type=search", "url2": "http://www.shoushikai.or.jp" }, "geometry": { "type": "Point", "coordinates": [ 136.063318400000071, 35.1579404 ] } },
{ "type": "Feature", "properties": { "内容": "いっぷく老蘇庵【地域密着型通所介護】安土町西老蘇964番地", "url": "https://www.kaigokensaku.mhlw.go.jp/25/index.php?action_kouhyou_detail_004_kani=true&JigyosyoCd=2590400335-00&ServiceCd=780&Type=search", "url2": "mihan-shiga.site" }, "geometry": { "type": "Point", "coordinates": [ 136.1548281, 35.1248705 ] } },
{ "type": "Feature", "properties": { "内容": "デイサービスセンター　にしき【地域密着型通所介護】滋賀県近江八幡市安土町上豊浦６２８－８デイサービスセンター　にしき", "url": "https://www.kaigokensaku.mhlw.go.jp/25/index.php?action_kouhyou_detail_004_kani=true&JigyosyoCd=2570400628-00&ServiceCd=780&Type=search", "url2": "http://nishiki.shiga-saku.net/" }, "geometry": { "type": "Point", "coordinates": [ 136.138674499999979, 35.1378242 ] } },
{ "type": "Feature", "properties": { "内容": "通所介護事業所ディサービス桐原【地域密着型通所介護】滋賀県近江八幡市丸の内町5-122", "url": "https://www.kaigokensaku.mhlw.go.jp/25/index.php?action_kouhyou_detail_004_kani=true&JigyosyoCd=2570400511-00&ServiceCd=780&Type=search", "url2": null }, "geometry": { "type": "Point", "coordinates": [ 136.058591166395559, 35.111641003682884 ] } },
{ "type": "Feature", "properties": { "内容": "ポラリスデイサービスセンター鷹飼【地域密着型通所介護】滋賀県近江八幡市鷹飼町北3-18-5", "url": "https://www.kaigokensaku.mhlw.go.jp/25/index.php?action_kouhyou_detail_004_kani=true&JigyosyoCd=2590400194-00&ServiceCd=780&Type=search", "url2": null }, "geometry": { "type": "Point", "coordinates": [ 136.105064119049075, 35.129300578887246 ] } },
{ "type": "Feature", "properties": { "内容": "アシストケアクラブ近江八幡【地域密着型通所介護】滋賀県近江八幡市池田本町２２８番地", "url": "https://www.kaigokensaku.mhlw.go.jp/25/index.php?action_kouhyou_detail_004_kani=true&JigyosyoCd=2570400594-00&ServiceCd=780&Type=search", "url2": "https://www.assist-care-club.com/" }, "geometry": { "type": "Point", "coordinates": [ 136.0808965, 35.1031481 ] } },
{ "type": "Feature", "properties": { "内容": "地域密着型通所介護事業所　心のほとり【地域密着型通所介護】滋賀県草津市駒井沢町337番地1", "url": "https://www.kaigokensaku.mhlw.go.jp/25/index.php?action_kouhyou_detail_004_kani=true&JigyosyoCd=2590600314-00&ServiceCd=780&Type=search", "url2": "https://takurou-kokoro.com/" }, "geometry": { "type": "Point", "coordinates": [ 135.958349, 35.0425217 ] } },
{ "type": "Feature", "properties": { "内容": "楽　地域密着型　通所介護事業所【地域密着型通所介護】草津市野路町645-2", "url": "https://www.kaigokensaku.mhlw.go.jp/25/index.php?action_kouhyou_detail_004_kani=true&JigyosyoCd=2570600631-00&ServiceCd=780&Type=search", "url2": "http://raku-kusatsu.com/" }, "geometry": { "type": "Point", "coordinates": [ 135.941767455819701, 35.006915614659263 ] } },
{ "type": "Feature", "properties": { "内容": "デイサービスリハビリあっとほーむ【地域密着型通所介護】滋賀県草津市矢橋町7-8", "url": "https://www.kaigokensaku.mhlw.go.jp/25/index.php?action_kouhyou_detail_004_kani=true&JigyosyoCd=2590600249-00&ServiceCd=780&Type=search", "url2": null }, "geometry": { "type": "Point", "coordinates": [ 135.937582600000042, 35.0074067 ] } },
{ "type": "Feature", "properties": { "内容": "でいさーびすとなりぐみ【地域密着型通所介護】滋賀県草津市上笠2-18-16上笠ビル1階", "url": "https://www.kaigokensaku.mhlw.go.jp/25/index.php?action_kouhyou_detail_004_kani=true&JigyosyoCd=2590600272-00&ServiceCd=780&Type=search", "url2": "http://www.edanlife.com" }, "geometry": { "type": "Point", "coordinates": [ 135.948072599999932, 35.0310536 ] } },
{ "type": "Feature", "properties": { "内容": "リハプライド草津中央【地域密着型通所介護】滋賀県草津市草津町1512セジュール１階１号", "url": "https://www.kaigokensaku.mhlw.go.jp/25/index.php?action_kouhyou_detail_004_kani=true&JigyosyoCd=2570601340-00&ServiceCd=780&Type=search", "url2": "http://www.rehapride.co.jp/kusatsuchuo/" }, "geometry": { "type": "Point", "coordinates": [ 135.947601416567636, 35.019007963492477 ] } },
{ "type": "Feature", "properties": { "内容": "デイサービス　オリーブ【地域密着型通所介護】滋賀県草津市草津四丁目8番13号", "url": "https://www.kaigokensaku.mhlw.go.jp/25/index.php?action_kouhyou_detail_004_kani=true&JigyosyoCd=2590600363-00&ServiceCd=780&Type=search", "url2": "https://citrus-shiga.com/" }, "geometry": { "type": "Point", "coordinates": [ 135.959947699999987, 35.0118691 ] } },
{ "type": "Feature", "properties": { "内容": "デイサービス　オリーブ別邸【地域密着型通所介護】滋賀県草津市野路東五丁目４番２２号", "url": "https://www.kaigokensaku.mhlw.go.jp/25/index.php?action_kouhyou_detail_004_kani=true&JigyosyoCd=2590600421-00&ServiceCd=780&Type=search", "url2": "https://citrus-shiga.com/" }, "geometry": { "type": "Point", "coordinates": [ 135.9544488, 34.9947795 ] } },
{ "type": "Feature", "properties": { "内容": "デイサービスかえで【地域密着型通所介護】滋賀県草津市追分南一丁目７－３かえで", "url": "https://www.kaigokensaku.mhlw.go.jp/25/index.php?action_kouhyou_detail_004_kani=true&JigyosyoCd=2570601241-00&ServiceCd=780&Type=search", "url2": "http://maple-kofu.com/" }, "geometry": { "type": "Point", "coordinates": [ 135.961205599999971, 35.0000276 ] } },
{ "type": "Feature", "properties": { "内容": "リハステーション草津　デイサービス【地域密着型通所介護】滋賀県草津市下笠町338-1", "url": "https://www.kaigokensaku.mhlw.go.jp/25/index.php?action_kouhyou_detail_004_kani=true&JigyosyoCd=2590600330-00&ServiceCd=780&Type=search", "url2": "http://yuinosato.or.jp" }, "geometry": { "type": "Point", "coordinates": [ 135.928932900000063, 35.0391902 ] } },
{ "type": "Feature", "properties": { "内容": "だんらんの家南草津【地域密着型通所介護】橋岡町2-24", "url": "https://www.kaigokensaku.mhlw.go.jp/25/index.php?action_kouhyou_detail_004_kani=true&JigyosyoCd=2570601126-00&ServiceCd=780&Type=search", "url2": "http://caretasu.com/C2001?t_shisetsucode=2500179#tab" }, "geometry": { "type": "Point", "coordinates": [ 135.9384908509262, 35.009821587493477 ] } },
{ "type": "Feature", "properties": { "内容": "だんらんの家近江【地域密着型通所介護】橋岡町2-25１F", "url": "https://www.kaigokensaku.mhlw.go.jp/25/index.php?action_kouhyou_detail_004_kani=true&JigyosyoCd=2590600371-00&ServiceCd=780&Type=search", "url2": "http://caretasu.com/C2001?t_shisetsucode=2500181" }, "geometry": { "type": "Point", "coordinates": [ 135.938569664418054, 35.0099055 ] } },
{ "type": "Feature", "properties": { "内容": "だんらんの家東草津【地域密着型通所介護】滋賀県草津市東草津１－３－２１", "url": "https://www.kaigokensaku.mhlw.go.jp/25/index.php?action_kouhyou_detail_004_kani=true&JigyosyoCd=2570601365-00&ServiceCd=780&Type=search", "url2": null }, "geometry": { "type": "Point", "coordinates": [ 135.967390799999947, 35.014825599999966 ] } },
{ "type": "Feature", "properties": { "内容": "デイサービスセンターそら【地域密着型通所介護】滋賀県草津市野路8丁目15番9号", "url": "https://www.kaigokensaku.mhlw.go.jp/25/index.php?action_kouhyou_detail_004_kani=true&JigyosyoCd=2570601258-00&ServiceCd=780&Type=search", "url2": "http://www.leciel3588.com/" }, "geometry": { "type": "Point", "coordinates": [ 135.952098283850887, 34.997068095070034 ] } },
{ "type": "Feature", "properties": { "内容": "買いもんデイミナクサ【地域密着型通所介護】南草津プリムタウン3丁目20-5", "url": "https://www.kaigokensaku.mhlw.go.jp/25/index.php?action_kouhyou_detail_004_kani=true&JigyosyoCd=2590600405-00&ServiceCd=780&Type=search", "url2": "https://www.kaimon-day.jp/" }, "geometry": { "type": "Point", "coordinates": [ 135.94123085197603, 34.999890978043858 ] } },
{ "type": "Feature", "properties": { "内容": "機能訓練特化型　帰帆リハビリセンター【地域密着型通所介護】滋賀県草津市矢橋町1066番地2", "url": "https://www.kaigokensaku.mhlw.go.jp/25/index.php?action_kouhyou_detail_004_kani=true&JigyosyoCd=2590600447-00&ServiceCd=780&Type=search", "url2": null }, "geometry": { "type": "Point", "coordinates": [ 135.9218926, 35.0050022 ] } },
{ "type": "Feature", "properties": { "内容": "通所介護ステーションハーモニー【地域密着型通所介護】滋賀県草津市上笠三丁目27番22号", "url": "https://www.kaigokensaku.mhlw.go.jp/25/index.php?action_kouhyou_detail_004_kani=true&JigyosyoCd=2570601332-00&ServiceCd=780&Type=search", "url2": null }, "geometry": { "type": "Point", "coordinates": [ 135.942547263229386, 35.028844040221593 ] } },
{ "type": "Feature", "properties": { "内容": "共生型デイサービス向日葵【地域密着型通所介護】滋賀県草津市北山田町866番地", "url": "https://www.kaigokensaku.mhlw.go.jp/25/index.php?action_kouhyou_detail_004_kani=true&JigyosyoCd=2590600355-00&ServiceCd=780&Type=search", "url2": "https://www.fukurou-care.com" }, "geometry": { "type": "Point", "coordinates": [ 135.919633800000014, 35.0297181 ] } },
{ "type": "Feature", "properties": { "内容": "アルクスタジオ草津支店【地域密着型通所介護】滋賀県草津市上笠2丁目18番16号2階", "url": "https://www.kaigokensaku.mhlw.go.jp/25/index.php?action_kouhyou_detail_004_kani=true&JigyosyoCd=2590600280-00&ServiceCd=780&Type=search", "url2": "https://arukusutadio.com" }, "geometry": { "type": "Point", "coordinates": [ 135.948072599999932, 35.0310536 ] } },
{ "type": "Feature", "properties": { "内容": "新庄こすもす【地域密着型通所介護】滋賀県守山市新庄町1300番地", "url": "https://www.kaigokensaku.mhlw.go.jp/25/index.php?action_kouhyou_detail_004_kani=true&JigyosyoCd=2570700555-00&ServiceCd=780&Type=search", "url2": "http://www.day-cosmos.com" }, "geometry": { "type": "Point", "coordinates": [ 135.9978117, 35.0972882 ] } },
{ "type": "Feature", "properties": { "内容": "リハビリスペース　はなみずき【地域密着型通所介護】守山市水保町１３３６番地の３１", "url": "https://www.kaigokensaku.mhlw.go.jp/25/index.php?action_kouhyou_detail_004_kani=true&JigyosyoCd=2570700647-00&ServiceCd=780&Type=search", "url2": "http://caresupportai.jp" }, "geometry": { "type": "Point", "coordinates": [ 135.948473700000022, 35.1152822 ] } },
{ "type": "Feature", "properties": { "内容": "木浜デイサービス　えんがわ【地域密着型通所介護】滋賀県守山市木浜町1931－1", "url": "https://www.kaigokensaku.mhlw.go.jp/25/index.php?action_kouhyou_detail_004_kani=true&JigyosyoCd=2570700811-00&ServiceCd=780&Type=search", "url2": "engawa-net.com" }, "geometry": { "type": "Point", "coordinates": [ 135.955754100000036, 35.102275400000011 ] } },
{ "type": "Feature", "properties": { "内容": "デイサービス浜風【地域密着型通所介護】滋賀県守山市木浜町1730番地1デイサービス浜風", "url": "https://www.kaigokensaku.mhlw.go.jp/25/index.php?action_kouhyou_detail_004_kani=true&JigyosyoCd=2590700239-00&ServiceCd=780&Type=search", "url2": null }, "geometry": { "type": "Point", "coordinates": [ 135.951147864418061, 35.104930077263795 ] } },
{ "type": "Feature", "properties": { "内容": "リハステーション守山　デイサービス【地域密着型通所介護】滋賀県守山市守山6丁目11-51", "url": "https://www.kaigokensaku.mhlw.go.jp/25/index.php?action_kouhyou_detail_004_kani=true&JigyosyoCd=2590700171-00&ServiceCd=780&Type=search", "url2": "http://yuinosato.or.jp" }, "geometry": { "type": "Point", "coordinates": [ 135.993384, 35.0612595 ] } },
{ "type": "Feature", "properties": { "内容": "まごころの家・守山【地域密着型通所介護】滋賀県守山市立入町37", "url": "https://www.kaigokensaku.mhlw.go.jp/25/index.php?action_kouhyou_detail_004_kani=true&JigyosyoCd=2590700189-00&ServiceCd=780&Type=search", "url2": "http://www.sofia-magokoro.com/" }, "geometry": { "type": "Point", "coordinates": [ 136.007947890876721, 35.051235939337701 ] } },
{ "type": "Feature", "properties": { "内容": "デイサービスあいむ今浜【地域密着型通所介護】今浜町157-1", "url": "https://www.kaigokensaku.mhlw.go.jp/25/index.php?action_kouhyou_detail_004_kani=true&JigyosyoCd=2570700357-00&ServiceCd=780&Type=search", "url2": "http://k-aimu.co.jp" }, "geometry": { "type": "Point", "coordinates": [ 135.965175400000021, 35.1043338 ] } },
{ "type": "Feature", "properties": { "内容": "デイサービス彩り【地域密着型通所介護】守山市焔魔堂町96番地の2", "url": "https://www.kaigokensaku.mhlw.go.jp/25/index.php?action_kouhyou_detail_004_kani=true&JigyosyoCd=2570700662-00&ServiceCd=780&Type=search", "url2": null }, "geometry": { "type": "Point", "coordinates": [ 135.9841136, 35.0472412 ] } },
{ "type": "Feature", "properties": { "内容": "すこやかの家・さくら【地域密着型通所介護】滋賀県守山市古高町98-9", "url": "https://www.kaigokensaku.mhlw.go.jp/25/index.php?action_kouhyou_detail_004_kani=true&JigyosyoCd=2570700845-00&ServiceCd=780&Type=search", "url2": null }, "geometry": { "type": "Point", "coordinates": [ 135.980219499999947, 35.0522683 ] } },
{ "type": "Feature", "properties": { "内容": "でいさーびすらっくもりやまよしみ【地域密着型通所介護】滋賀県守山市吉身1丁目2-17", "url": "https://www.kaigokensaku.mhlw.go.jp/25/index.php?action_kouhyou_detail_004_kani=true&JigyosyoCd=2570700837-00&ServiceCd=780&Type=search", "url2": "http://www.rac-kaigo.jp/" }, "geometry": { "type": "Point", "coordinates": [ 135.997584400000051, 35.054632300000023 ] } },
{ "type": "Feature", "properties": { "内容": "大宝リハビリセンター【地域密着型通所介護】守山3-7-5", "url": "https://www.kaigokensaku.mhlw.go.jp/25/index.php?action_kouhyou_detail_004_kani=true&JigyosyoCd=2570700571-00&ServiceCd=780&Type=search", "url2": null }, "geometry": { "type": "Point", "coordinates": [ 135.9883549, 35.0565208 ] } },
{ "type": "Feature", "properties": { "内容": "機能訓練デイサービス　ふくろうさん【地域密着型通所介護】滋賀県守山市小島町1808番地8", "url": "https://www.kaigokensaku.mhlw.go.jp/25/index.php?action_kouhyou_detail_004_kani=true&JigyosyoCd=2570700456-00&ServiceCd=780&Type=search", "url2": null }, "geometry": { "type": "Point", "coordinates": [ 135.994467900000018, 35.0764741 ] } },
{ "type": "Feature", "properties": { "内容": "デイホームみずほのきむらさんち【地域密着型通所介護】守山市水保町1338番地の5", "url": "https://www.kaigokensaku.mhlw.go.jp/25/index.php?action_kouhyou_detail_004_kani=true&JigyosyoCd=2570700498-00&ServiceCd=780&Type=search", "url2": "http://caresupportai.jp" }, "geometry": { "type": "Point", "coordinates": [ 135.948659799999973, 35.1152433 ] } },
{ "type": "Feature", "properties": { "内容": "デイホームきむらさんち【地域密着型通所介護】守山市杉江町714-3", "url": "https://www.kaigokensaku.mhlw.go.jp/25/index.php?action_kouhyou_detail_004_kani=true&JigyosyoCd=2570700381-00&ServiceCd=780&Type=search", "url2": "http://caresupportai.jp" }, "geometry": { "type": "Point", "coordinates": [ 135.9553439, 35.0739566 ] } },
{ "type": "Feature", "properties": { "内容": "デイサービスラポール【地域密着型通所介護】滋賀県守山市守山６丁目１番５号", "url": "https://www.kaigokensaku.mhlw.go.jp/25/index.php?action_kouhyou_detail_004_kani=true&JigyosyoCd=2570700803-00&ServiceCd=780&Type=search", "url2": null }, "geometry": { "type": "Point", "coordinates": [ 135.994207, 35.0603038 ] } },
{ "type": "Feature", "properties": { "内容": "デイサービス華【地域密着型通所介護】御園1822-2", "url": "https://www.kaigokensaku.mhlw.go.jp/25/index.php?action_kouhyou_detail_004_kani=true&JigyosyoCd=2571200399-00&ServiceCd=780&Type=search", "url2": null }, "geometry": { "type": "Point", "coordinates": [ 136.024107299999969, 35.00259770000001 ] } },
{ "type": "Feature", "properties": { "内容": "多世代型通所事業所　志【地域密着型通所介護】滋賀県栗東市御園1016-11F", "url": "https://www.kaigokensaku.mhlw.go.jp/25/index.php?action_kouhyou_detail_004_kani=true&JigyosyoCd=2591200080-00&ServiceCd=780&Type=search", "url2": "https://www.kokorozashi1003.com/index.html" }, "geometry": { "type": "Point", "coordinates": [ 136.021690799999988, 34.9967512 ] } },
{ "type": "Feature", "properties": { "内容": "栗東リハビリテーションセンターゆたか【地域密着型通所介護】滋賀県栗東市北中小路27-1", "url": "https://www.kaigokensaku.mhlw.go.jp/25/index.php?action_kouhyou_detail_004_kani=true&JigyosyoCd=2571200407-00&ServiceCd=780&Type=search", "url2": "https://hp.kaipoke.biz/f25/" }, "geometry": { "type": "Point", "coordinates": [ 135.976283800000033, 35.0412889 ] } },
{ "type": "Feature", "properties": { "内容": "リハプライド栗東【地域密着型通所介護】滋賀県栗東市川辺201-4", "url": "https://www.kaigokensaku.mhlw.go.jp/25/index.php?action_kouhyou_detail_004_kani=true&JigyosyoCd=2591200148-00&ServiceCd=780&Type=search", "url2": "https://www.rehapride.co.jp/moriyama/" }, "geometry": { "type": "Point", "coordinates": [ 135.992235, 35.0188415 ] } },
{ "type": "Feature", "properties": { "内容": "デイサービス　リハビリサポート結【地域密着型通所介護】下鈎878-1ＨＡＴ’ｓ101号室", "url": "https://www.kaigokensaku.mhlw.go.jp/25/index.php?action_kouhyou_detail_004_kani=true&JigyosyoCd=2571200613-00&ServiceCd=780&Type=search", "url2": null }, "geometry": { "type": "Point", "coordinates": [ 135.983919300000025, 35.0337817 ] } },
{ "type": "Feature", "properties": { "内容": "デイサービス　赤とんぼ【地域密着型通所介護】手原6-6-35", "url": "https://www.kaigokensaku.mhlw.go.jp/25/index.php?action_kouhyou_detail_004_kani=true&JigyosyoCd=2571200589-00&ServiceCd=780&Type=search", "url2": "http://hp.kaipoke.biz/r99/" }, "geometry": { "type": "Point", "coordinates": [ 135.997655450926231, 35.029362338007751 ] } },
{ "type": "Feature", "properties": { "内容": "ＮＰＯしがらきデイセンター【地域密着型通所介護】滋賀県甲賀市信楽町江田６６－４", "url": "https://www.kaigokensaku.mhlw.go.jp/25/index.php?action_kouhyou_detail_004_kani=true&JigyosyoCd=2591400243-00&ServiceCd=780&Type=search", "url2": "https://npominakuchi.jp/" }, "geometry": { "type": "Point", "coordinates": [ 136.046133200000043, 34.860198199999985 ] } },
{ "type": "Feature", "properties": { "内容": "デイサービスみどり水口【地域密着型通所介護】滋賀県甲賀市水口町牛飼395--11", "url": "https://www.kaigokensaku.mhlw.go.jp/25/index.php?action_kouhyou_detail_004_kani=true&JigyosyoCd=2591400284-00&ServiceCd=780&Type=search", "url2": null }, "geometry": { "type": "Point", "coordinates": [ 136.1494868, 34.9454225 ] } },
{ "type": "Feature", "properties": { "内容": "ＪＡゆうハートリハステージほそはら【地域密着型通所介護】滋賀県甲賀市信楽町柞原793", "url": "https://www.kaigokensaku.mhlw.go.jp/25/index.php?action_kouhyou_detail_004_kani=true&JigyosyoCd=2591400219-00&ServiceCd=780&Type=search", "url2": null }, "geometry": { "type": "Point", "coordinates": [ 136.0262664, 34.8614831 ] } },
{ "type": "Feature", "properties": { "内容": "デイサービスセンター四季の里【地域密着型通所介護】滋賀県甲賀市甲賀町隠岐２１７７番地四季の里", "url": "https://www.kaigokensaku.mhlw.go.jp/25/index.php?action_kouhyou_detail_004_kani=true&JigyosyoCd=2571400536-00&ServiceCd=780&Type=search", "url2": "http://www.d-shikinosato.com" }, "geometry": { "type": "Point", "coordinates": [ 136.195056022090171, 34.932495650865803 ] } },
{ "type": "Feature", "properties": { "内容": "デイサービスみどり水口【地域密着型通所介護】滋賀県甲賀市水口町牛飼395-11", "url": "https://www.kaigokensaku.mhlw.go.jp/25/index.php?action_kouhyou_detail_004_kani=true&JigyosyoCd=2591400334-00&ServiceCd=780&Type=search", "url2": null }, "geometry": { "type": "Point", "coordinates": [ 136.1494868, 34.9454225 ] } },
{ "type": "Feature", "properties": { "内容": "甲賀荘デイサービスセンター【地域密着型通所介護】甲賀市甲賀町大原中904", "url": "https://www.kaigokensaku.mhlw.go.jp/25/index.php?action_kouhyou_detail_004_kani=true&JigyosyoCd=2571400155-00&ServiceCd=780&Type=search", "url2": "https://kougakai.org/" }, "geometry": { "type": "Point", "coordinates": [ 136.227393900000038, 34.9009445 ] } },
{ "type": "Feature", "properties": { "内容": "デイサービスセンター　みなくち　みんなの家【地域密着型通所介護】水口町本丸2-54", "url": "https://www.kaigokensaku.mhlw.go.jp/25/index.php?action_kouhyou_detail_004_kani=true&JigyosyoCd=2571400817-00&ServiceCd=780&Type=search", "url2": "http://chiiroba.jp" }, "geometry": { "type": "Point", "coordinates": [ 136.16415870000003, 34.9726023 ] } },
{ "type": "Feature", "properties": { "内容": "ひなたぼっこ　げんき【地域密着型通所介護】滋賀県甲賀市水口町本綾野566番地の1", "url": "https://www.kaigokensaku.mhlw.go.jp/25/index.php?action_kouhyou_detail_004_kani=true&JigyosyoCd=2591400193-00&ServiceCd=780&Type=search", "url2": "http://hinata-bokko.org" }, "geometry": { "type": "Point", "coordinates": [ 136.1692769, 34.9775124 ] } },
{ "type": "Feature", "properties": { "内容": "ひなたぼっこかつらぎ【地域密着型通所介護】滋賀県甲賀市甲南町葛木398番地", "url": "https://www.kaigokensaku.mhlw.go.jp/25/index.php?action_kouhyou_detail_004_kani=true&JigyosyoCd=2591400300-00&ServiceCd=780&Type=search", "url2": "https://hinata-bokko.org" }, "geometry": { "type": "Point", "coordinates": [ 136.182852200000013, 34.9297693 ] } },
{ "type": "Feature", "properties": { "内容": "樹の郷デイサービスセンター【地域密着型通所介護】甲賀市水口町山3309", "url": "https://www.kaigokensaku.mhlw.go.jp/25/index.php?action_kouhyou_detail_004_kani=true&JigyosyoCd=2571400833-00&ServiceCd=780&Type=search", "url2": "http://www.shigaraki-itsuki.com/index.html" }, "geometry": { "type": "Point", "coordinates": [ 136.17544899451218, 35.004101026761461 ] } },
{ "type": "Feature", "properties": { "内容": "がんばるステーション【地域密着型通所介護】水口町南林口１７", "url": "https://www.kaigokensaku.mhlw.go.jp/25/index.php?action_kouhyou_detail_004_kani=true&JigyosyoCd=2571400700-00&ServiceCd=780&Type=search", "url2": null }, "geometry": { "type": "Point", "coordinates": [ 136.1593729, 34.9715247 ] } },
{ "type": "Feature", "properties": { "内容": "しゃかいふくしほうじん　あいしんかい　はないちご【地域密着型通所介護】滋賀県甲賀市水口町北泉二丁目７１番地", "url": "https://www.kaigokensaku.mhlw.go.jp/25/index.php?action_kouhyou_detail_004_kani=true&JigyosyoCd=2591400250-00&ServiceCd=780&Type=search", "url2": "https://r.goope.jp/shion/free/kessankoukoku" }, "geometry": { "type": "Point", "coordinates": [ 136.1372546, 34.9864181 ] } },
{ "type": "Feature", "properties": { "内容": "レッツ倶楽部たかはし信楽【地域密着型通所介護】滋賀県甲賀市信楽町牧1520-1", "url": "https://www.kaigokensaku.mhlw.go.jp/25/index.php?action_kouhyou_detail_004_kani=true&JigyosyoCd=2591400136-00&ServiceCd=780&Type=search", "url2": "https://www.lets-club.jp/shop/takahashi-shigaraki/" }, "geometry": { "type": "Point", "coordinates": [ 136.076387100000034, 34.9080979 ] } },
{ "type": "Feature", "properties": { "内容": "デイサービス董花庵【地域密着型通所介護】水口町城内８番１号", "url": "https://www.kaigokensaku.mhlw.go.jp/25/index.php?action_kouhyou_detail_004_kani=true&JigyosyoCd=2591400201-00&ServiceCd=780&Type=search", "url2": null }, "geometry": { "type": "Point", "coordinates": [ 136.1668871, 34.9730161 ] } },
{ "type": "Feature", "properties": { "内容": "デイサービスすみれ弐番館【地域密着型通所介護】水口町城内４番９号", "url": "https://www.kaigokensaku.mhlw.go.jp/25/index.php?action_kouhyou_detail_004_kani=true&JigyosyoCd=2591400292-00&ServiceCd=780&Type=search", "url2": "https://sumirean.com/" }, "geometry": { "type": "Point", "coordinates": [ 136.1666257, 34.9731773 ] } },
{ "type": "Feature", "properties": { "内容": "デイサービス　あっちゃん家【地域密着型通所介護】冨波乙311-2", "url": "https://www.kaigokensaku.mhlw.go.jp/25/index.php?action_kouhyou_detail_004_kani=true&JigyosyoCd=2571300405-00&ServiceCd=780&Type=search", "url2": null }, "geometry": { "type": "Point", "coordinates": [ 136.036124200000017, 35.0783636 ] } },
{ "type": "Feature", "properties": { "内容": "プチ・トマト堤地域密着型通所介護事業所【地域密着型通所介護】滋賀県野洲市堤323-8", "url": "https://www.kaigokensaku.mhlw.go.jp/25/index.php?action_kouhyou_detail_004_kani=true&JigyosyoCd=2571300249-00&ServiceCd=780&Type=search", "url2": "http://www.yuusuge.co.jp/" }, "geometry": { "type": "Point", "coordinates": [ 135.997342, 35.11381690000001 ] } },
{ "type": "Feature", "properties": { "内容": "のどかの家高木【地域密着型通所介護】滋賀県野洲市高木７３７", "url": "https://www.kaigokensaku.mhlw.go.jp/25/index.php?action_kouhyou_detail_004_kani=true&JigyosyoCd=2571300231-00&ServiceCd=780&Type=search", "url2": "http://www.eonet.ne.jp/~nodokanoie/" }, "geometry": { "type": "Point", "coordinates": [ 136.056874500000049, 35.1008165 ] } },
{ "type": "Feature", "properties": { "内容": "のどかの家大篠原【地域密着型通所介護】滋賀県野洲市大篠原２９７９", "url": "https://www.kaigokensaku.mhlw.go.jp/25/index.php?action_kouhyou_detail_004_kani=true&JigyosyoCd=2571300330-00&ServiceCd=780&Type=search", "url2": "http://www.eonet.ne.jp/~nodokanoie/" }, "geometry": { "type": "Point", "coordinates": [ 136.062807300000031, 35.0776223 ] } },
{ "type": "Feature", "properties": { "内容": "デイサービスセンター　ほほえみ【地域密着型通所介護】滋賀県野洲市吉地419番地", "url": "https://www.kaigokensaku.mhlw.go.jp/25/index.php?action_kouhyou_detail_004_kani=true&JigyosyoCd=2571300520-00&ServiceCd=780&Type=search", "url2": "http://www.hohoemi-hohoemi.com/" }, "geometry": { "type": "Point", "coordinates": [ 136.012715599999979, 35.1058183 ] } },
{ "type": "Feature", "properties": { "内容": "デイサービスセンターほほえみプラス【地域密着型通所介護】久野部138-7サントピアビル1-Ｃ", "url": "https://www.kaigokensaku.mhlw.go.jp/25/index.php?action_kouhyou_detail_004_kani=true&JigyosyoCd=2591300088-00&ServiceCd=780&Type=search", "url2": "http://www.hohoemi-hohoemi.com/" }, "geometry": { "type": "Point", "coordinates": [ 136.02713360000007, 35.074003 ] } },
{ "type": "Feature", "properties": { "内容": "アクティブ野洲【地域密着型通所介護】滋賀県野洲市冨波乙712-12", "url": "https://www.kaigokensaku.mhlw.go.jp/25/index.php?action_kouhyou_detail_004_kani=true&JigyosyoCd=2571300611-00&ServiceCd=780&Type=search", "url2": "http://activeoumi.web.fc2.com/" }, "geometry": { "type": "Point", "coordinates": [ 136.031158099999971, 35.0783497 ] } },
{ "type": "Feature", "properties": { "内容": "ライブリースペース　ＣＯＣＯＲＯ祇王【地域密着型通所介護】滋賀県野洲市冨波乙176", "url": "https://www.kaigokensaku.mhlw.go.jp/25/index.php?action_kouhyou_detail_004_kani=true&JigyosyoCd=2591300104-00&ServiceCd=780&Type=search", "url2": "http://k-aimu.co.jp" }, "geometry": { "type": "Point", "coordinates": [ 136.031297, 35.0748307 ] } },
{ "type": "Feature", "properties": { "内容": "野洲篠原デイサービス【地域密着型通所介護】滋賀県野洲市大篠原951番地1", "url": "https://www.kaigokensaku.mhlw.go.jp/25/index.php?action_kouhyou_detail_004_kani=true&JigyosyoCd=2591300138-00&ServiceCd=780&Type=search", "url2": "https://shinohara-sumire-en.com/" }, "geometry": { "type": "Point", "coordinates": [ 136.0587754, 35.0900911 ] } },
{ "type": "Feature", "properties": { "内容": "やすリハビリセンター【地域密着型通所介護】滋賀県野洲市小篠原1570-5", "url": "https://www.kaigokensaku.mhlw.go.jp/25/index.php?action_kouhyou_detail_004_kani=true&JigyosyoCd=2571300306-00&ServiceCd=780&Type=search", "url2": null }, "geometry": { "type": "Point", "coordinates": [ 136.0334828, 35.0694397 ] } },
{ "type": "Feature", "properties": { "内容": "共生型デイサービス芽ばえ【地域密着型通所介護】滋賀県野洲市小南1876番地", "url": "https://www.kaigokensaku.mhlw.go.jp/25/index.php?action_kouhyou_detail_004_kani=true&JigyosyoCd=2571300280-00&ServiceCd=780&Type=search", "url2": "https://www.fukurou-care.com/" }, "geometry": { "type": "Point", "coordinates": [ 136.0500975, 35.1034023 ] } },
{ "type": "Feature", "properties": { "内容": "デイサービスセンターらく【地域密着型通所介護】滋賀県湖南市西峰町1-1", "url": "https://www.kaigokensaku.mhlw.go.jp/25/index.php?action_kouhyou_detail_004_kani=true&JigyosyoCd=2572300156-00&ServiceCd=780&Type=search", "url2": "http://www.glow.or.jp/" }, "geometry": { "type": "Point", "coordinates": [ 136.126874499999985, 35.0139363 ] } },
{ "type": "Feature", "properties": { "内容": "さつきデイサービスセンター【地域密着型通所介護】中央二丁目125番地", "url": "https://www.kaigokensaku.mhlw.go.jp/25/index.php?action_kouhyou_detail_004_kani=true&JigyosyoCd=2572300354-00&ServiceCd=780&Type=search", "url2": "http://ikuta-hospital.com/satuki-ds" }, "geometry": { "type": "Point", "coordinates": [ 136.083074198797249, 35.005124273956127 ] } },
{ "type": "Feature", "properties": { "内容": "デイケアの家おしどり【地域密着型通所介護】滋賀県湖南市サイドタウン3-16-72", "url": "https://www.kaigokensaku.mhlw.go.jp/25/index.php?action_kouhyou_detail_004_kani=true&JigyosyoCd=2592300152-00&ServiceCd=780&Type=search", "url2": null }, "geometry": { "type": "Point", "coordinates": [ 136.062832585967158, 35.046653057180016 ] } },
{ "type": "Feature", "properties": { "内容": "ゆめとまの家おしどり【地域密着型通所介護】滋賀県湖南市サイドタウン３丁目8-33", "url": "https://www.kaigokensaku.mhlw.go.jp/25/index.php?action_kouhyou_detail_004_kani=true&JigyosyoCd=2592300145-00&ServiceCd=780&Type=search", "url2": "http://chiiroba.jp" }, "geometry": { "type": "Point", "coordinates": [ 136.063016400000038, 35.04449 ] } },
{ "type": "Feature", "properties": { "内容": "リハビリデイサービス　いきいき下田【地域密着型通所介護】滋賀県湖南市下田4171番地3", "url": "https://www.kaigokensaku.mhlw.go.jp/25/index.php?action_kouhyou_detail_004_kani=true&JigyosyoCd=2572300255-00&ServiceCd=780&Type=search", "url2": "https://www.ikik-simoda.com" }, "geometry": { "type": "Point", "coordinates": [ 136.12794329999997, 35.0297677 ] } },
{ "type": "Feature", "properties": { "内容": "リハビリステーションオアフ【地域密着型通所介護】滋賀県高島市朽木市場875-1", "url": "https://www.kaigokensaku.mhlw.go.jp/25/index.php?action_kouhyou_detail_004_kani=true&JigyosyoCd=2592200337-00&ServiceCd=780&Type=search", "url2": null }, "geometry": { "type": "Point", "coordinates": [ 135.914496087419138, 35.351731748345884 ] } },
{ "type": "Feature", "properties": { "内容": "デイサービスセンターじゃがいもの家【地域密着型通所介護】滋賀県高島市マキノ町浦345番地", "url": "https://www.kaigokensaku.mhlw.go.jp/25/index.php?action_kouhyou_detail_004_kani=true&JigyosyoCd=2572200158-00&ServiceCd=780&Type=search", "url2": null }, "geometry": { "type": "Point", "coordinates": [ 136.062048799999957, 35.4881152 ] } },
{ "type": "Feature", "properties": { "内容": "デイサービスさくら【地域密着型通所介護】滋賀県高島市新旭町藁園1326番地2", "url": "https://www.kaigokensaku.mhlw.go.jp/25/index.php?action_kouhyou_detail_004_kani=true&JigyosyoCd=2592200253-00&ServiceCd=780&Type=search", "url2": "kaorikai4123@yahoo.co.jp" }, "geometry": { "type": "Point", "coordinates": [ 136.050275899999974, 35.343842 ] } },
{ "type": "Feature", "properties": { "内容": "デイサービスひより遊庵【地域密着型通所介護】滋賀県高島市新旭町北畑2-2-18", "url": "https://www.kaigokensaku.mhlw.go.jp/25/index.php?action_kouhyou_detail_004_kani=true&JigyosyoCd=2592200287-00&ServiceCd=780&Type=search", "url2": null }, "geometry": { "type": "Point", "coordinates": [ 136.0321865, 35.3512581 ] } },
{ "type": "Feature", "properties": { "内容": "機能訓練デイサービス　ウォーク【地域密着型通所介護】滋賀県高島市勝野2245-9", "url": "https://www.kaigokensaku.mhlw.go.jp/25/index.php?action_kouhyou_detail_004_kani=true&JigyosyoCd=2592200196-00&ServiceCd=780&Type=search", "url2": null }, "geometry": { "type": "Point", "coordinates": [ 136.010704799999985, 35.292510200000017 ] } },
{ "type": "Feature", "properties": { "内容": "デイサービス　より愛【地域密着型通所介護】滋賀県高島市新旭町針江２９１", "url": "https://www.kaigokensaku.mhlw.go.jp/25/index.php?action_kouhyou_detail_004_kani=true&JigyosyoCd=2572200208-00&ServiceCd=780&Type=search", "url2": "http://www.npo-genki.com" }, "geometry": { "type": "Point", "coordinates": [ 136.047828500000037, 35.3568849 ] } },
{ "type": "Feature", "properties": { "内容": "リハビリデイサービスひまわり【地域密着型通所介護】滋賀県高島市安曇川町田中299リハビリデイサービスひまわり", "url": "https://www.kaigokensaku.mhlw.go.jp/25/index.php?action_kouhyou_detail_004_kani=true&JigyosyoCd=2572200604-00&ServiceCd=780&Type=search", "url2": null }, "geometry": { "type": "Point", "coordinates": [ 136.017195889469065, 35.332817133450057 ] } },
{ "type": "Feature", "properties": { "内容": "リハビリデイサービスほたる【地域密着型通所介護】滋賀県高島市鴨川平3丁目4番地９", "url": "https://www.kaigokensaku.mhlw.go.jp/25/index.php?action_kouhyou_detail_004_kani=true&JigyosyoCd=2592200279-00&ServiceCd=780&Type=search", "url2": null }, "geometry": { "type": "Point", "coordinates": [ 135.9943446, 35.3114261 ] } },
{ "type": "Feature", "properties": { "内容": "はんにちでいさららゆ【地域密着型通所介護】安曇川町西万木４９番地", "url": "https://www.kaigokensaku.mhlw.go.jp/25/index.php?action_kouhyou_detail_004_kani=true&JigyosyoCd=2592200345-00&ServiceCd=780&Type=search", "url2": null }, "geometry": { "type": "Point", "coordinates": [ 136.0253357, 35.3350939 ] } },
{ "type": "Feature", "properties": { "内容": "リハビリステーションオアフ【地域密着型通所介護】滋賀県高島市朽木市場875番地1", "url": "https://www.kaigokensaku.mhlw.go.jp/25/index.php?action_kouhyou_detail_004_kani=true&JigyosyoCd=2592200352-00&ServiceCd=780&Type=search", "url2": null }, "geometry": { "type": "Point", "coordinates": [ 135.914483068000436, 35.351730555259081 ] } },
{ "type": "Feature", "properties": { "内容": "朽木デイサービスセンター【地域密着型通所介護】滋賀県高島市朽木市場656", "url": "https://www.kaigokensaku.mhlw.go.jp/25/index.php?action_kouhyou_detail_004_kani=true&JigyosyoCd=2592200311-00&ServiceCd=780&Type=search", "url2": "yamayurinosato＠hatsuho-yamayuri.com" }, "geometry": { "type": "Point", "coordinates": [ 135.9187018, 35.3540509 ] } },
{ "type": "Feature", "properties": { "内容": "デイサービスセンター楓【地域密着型通所介護】宮川町２４４－４４４", "url": "https://www.kaigokensaku.mhlw.go.jp/25/index.php?action_kouhyou_detail_004_kani=true&JigyosyoCd=2590500191-00&ServiceCd=780&Type=search", "url2": null }, "geometry": { "type": "Point", "coordinates": [ 136.16143169999998, 35.0389888 ] } },
{ "type": "Feature", "properties": { "内容": "デイサービスセンター・アンサンブル【地域密着型通所介護】滋賀県東近江市小脇町1286-5", "url": "https://www.kaigokensaku.mhlw.go.jp/25/index.php?action_kouhyou_detail_004_kani=true&JigyosyoCd=2570501144-00&ServiceCd=780&Type=search", "url2": "https//kk-ensemble.jp" }, "geometry": { "type": "Point", "coordinates": [ 136.1776562, 35.1168242 ] } },
{ "type": "Feature", "properties": { "内容": "もくれんの小径　デイサービスセンター【地域密着型通所介護】滋賀県東近江市湯屋町1320-1", "url": "https://www.kaigokensaku.mhlw.go.jp/25/index.php?action_kouhyou_detail_004_kani=true&JigyosyoCd=2570500799-00&ServiceCd=780&Type=search", "url2": "http://www.taijyukai.net/kizuna/index.html" }, "geometry": { "type": "Point", "coordinates": [ 136.260749756839033, 35.141306753313486 ] } },
{ "type": "Feature", "properties": { "内容": "デイサービス　リハセンターかけはし【地域密着型通所介護】滋賀県東近江市沖野五丁目10-8", "url": "https://www.kaigokensaku.mhlw.go.jp/25/index.php?action_kouhyou_detail_004_kani=true&JigyosyoCd=2590500316-00&ServiceCd=780&Type=search", "url2": null }, "geometry": { "type": "Point", "coordinates": [ 136.217096799999979, 35.0955617 ] } },
{ "type": "Feature", "properties": { "内容": "地域福祉館　雅【地域密着型通所介護】滋賀県東近江市池庄町1554-2", "url": "https://www.kaigokensaku.mhlw.go.jp/25/index.php?action_kouhyou_detail_004_kani=true&JigyosyoCd=2570500807-00&ServiceCd=780&Type=search", "url2": "http://www.katogroup.jp/" }, "geometry": { "type": "Point", "coordinates": [ 136.242220399999951, 35.131644 ] } },
{ "type": "Feature", "properties": { "内容": "でいさーびすせんたーじゅぴあ【地域密着型通所介護】滋賀県東近江市妹町29", "url": "https://www.kaigokensaku.mhlw.go.jp/25/index.php?action_kouhyou_detail_004_kani=true&JigyosyoCd=2590500282-00&ServiceCd=780&Type=search", "url2": null }, "geometry": { "type": "Point", "coordinates": [ 136.2619334, 35.1097017 ] } },
{ "type": "Feature", "properties": { "内容": "東近江市社会福祉協議会デイサービスセンターゆうあいの家【地域密着型通所介護】滋賀県東近江市永源寺高野町437番地", "url": "https://www.kaigokensaku.mhlw.go.jp/25/index.php?action_kouhyou_detail_004_kani=true&JigyosyoCd=2590500324-00&ServiceCd=780&Type=search", "url2": "http://www.higashiomi-shakyo.or.jp/" }, "geometry": { "type": "Point", "coordinates": [ 136.309389399999986, 35.0782002 ] } },
{ "type": "Feature", "properties": { "内容": "i・mart　ヘルス＆ワーク倶楽部【地域密着型通所介護】滋賀県東近江市市ケ原町109番地", "url": "https://www.kaigokensaku.mhlw.go.jp/25/index.php?action_kouhyou_detail_004_kani=true&JigyosyoCd=2590500274-00&ServiceCd=780&Type=search", "url2": "https://www.instagram.com/imart_healthworkclub/" }, "geometry": { "type": "Point", "coordinates": [ 136.276002, 35.1155051 ] } },
{ "type": "Feature", "properties": { "内容": "ＮＰＯ結の家ディサービスセンターとの【地域密着型通所介護】滋賀県東近江市愛東外町７００番地の１", "url": "https://www.kaigokensaku.mhlw.go.jp/25/index.php?action_kouhyou_detail_004_kani=true&JigyosyoCd=2570500385-00&ServiceCd=780&Type=search", "url2": "http://fukushi-mall.com/" }, "geometry": { "type": "Point", "coordinates": [ 136.291646315344224, 35.088923047116225 ] } },
{ "type": "Feature", "properties": { "内容": "結の家デイサービスセンターおぐら【地域密着型通所介護】滋賀県東近江市小倉町1975番地2", "url": "https://www.kaigokensaku.mhlw.go.jp/25/index.php?action_kouhyou_detail_004_kani=true&JigyosyoCd=2570500872-00&ServiceCd=780&Type=search", "url2": "http://fukushi-mall.com/" }, "geometry": { "type": "Point", "coordinates": [ 136.280940200000032, 35.0904536 ] } },
{ "type": "Feature", "properties": { "内容": "デイサービスおひさま【地域密着型通所介護】東近江市中小路町549番地4", "url": "https://www.kaigokensaku.mhlw.go.jp/25/index.php?action_kouhyou_detail_004_kani=true&JigyosyoCd=2570500534-00&ServiceCd=780&Type=search", "url2": null }, "geometry": { "type": "Point", "coordinates": [ 136.228769335582001, 35.097313141130286 ] } },
{ "type": "Feature", "properties": { "内容": "デイサービスセンター水車【地域密着型通所介護】滋賀県東近江市垣見町725", "url": "https://www.kaigokensaku.mhlw.go.jp/25/index.php?action_kouhyou_detail_004_kani=true&JigyosyoCd=2570500435-00&ServiceCd=780&Type=search", "url2": null }, "geometry": { "type": "Point", "coordinates": [ 136.1688279, 35.1797862 ] } },
{ "type": "Feature", "properties": { "内容": "でいサービスセンター年輪【地域密着型通所介護】東近江市市辺町3834", "url": "https://www.kaigokensaku.mhlw.go.jp/25/index.php?action_kouhyou_detail_004_kani=true&JigyosyoCd=2570500617-00&ServiceCd=780&Type=search", "url2": "http://www.e-nenrin.com/" }, "geometry": { "type": "Point", "coordinates": [ 136.180017300000031, 35.0977484 ] } },
{ "type": "Feature", "properties": { "内容": "デイサービスセンター　陽だまり倶楽部【地域密着型通所介護】滋賀県東近江市北花沢町１８１２", "url": "https://www.kaigokensaku.mhlw.go.jp/25/index.php?action_kouhyou_detail_004_kani=true&JigyosyoCd=2570500989-00&ServiceCd=780&Type=search", "url2": null }, "geometry": { "type": "Point", "coordinates": [ 136.253719881597334, 35.127833673626483 ] } },
{ "type": "Feature", "properties": { "内容": "デイサービスひいらぎの里【地域密着型通所介護】東近江市上平木町1150", "url": "https://www.kaigokensaku.mhlw.go.jp/25/index.php?action_kouhyou_detail_004_kani=true&JigyosyoCd=2570500906-00&ServiceCd=780&Type=search", "url2": null }, "geometry": { "type": "Point", "coordinates": [ 136.130386199999947, 35.1011952 ] } },
{ "type": "Feature", "properties": { "内容": "和久わくライフデイサービスセンター【地域密着型通所介護】滋賀県東近江市蛇溝町1114-1", "url": "https://www.kaigokensaku.mhlw.go.jp/25/index.php?action_kouhyou_detail_004_kani=true&JigyosyoCd=2570501003-00&ServiceCd=780&Type=search", "url2": "http://www.wakuwakulife.biz/" }, "geometry": { "type": "Point", "coordinates": [ 136.1939281, 35.0808422 ] } },
{ "type": "Feature", "properties": { "内容": "デイサービスセンター加楽【地域密着型通所介護】滋賀県東近江市下中野町６３７番地", "url": "https://www.kaigokensaku.mhlw.go.jp/25/index.php?action_kouhyou_detail_004_kani=true&JigyosyoCd=2570500583-00&ServiceCd=780&Type=search", "url2": "http://npokaraku.web.fc2.com/index.html" }, "geometry": { "type": "Point", "coordinates": [ 136.26521630000002, 35.114193200000017 ] } },
{ "type": "Feature", "properties": { "内容": "デイサービスセンターてんまや【地域密着型通所介護】滋賀県東近江市建部日吉町312番地", "url": "https://www.kaigokensaku.mhlw.go.jp/25/index.php?action_kouhyou_detail_004_kani=true&JigyosyoCd=2590500217-00&ServiceCd=780&Type=search", "url2": null }, "geometry": { "type": "Point", "coordinates": [ 136.19751, 35.1188855 ] } },
{ "type": "Feature", "properties": { "内容": "ほっとタイム【地域密着型通所介護】滋賀県東近江市東沖野2-5-5", "url": "https://www.kaigokensaku.mhlw.go.jp/25/index.php?action_kouhyou_detail_004_kani=true&JigyosyoCd=2590500209-00&ServiceCd=780&Type=search", "url2": "http://shimin-yokaichi.net/" }, "geometry": { "type": "Point", "coordinates": [ 136.202971, 35.1018178 ] } },
{ "type": "Feature", "properties": { "内容": "ファミールケア米原センター【地域密着型通所介護】米原市中多良１丁目１７番", "url": "https://www.kaigokensaku.mhlw.go.jp/25/index.php?action_kouhyou_detail_004_kani=true&JigyosyoCd=2592400150-00&ServiceCd=780&Type=search", "url2": "https://www.famille-care.co.jp" }, "geometry": { "type": "Point", "coordinates": [ 136.281054400000016, 35.3166892 ] } },
{ "type": "Feature", "properties": { "内容": "いぶきの家【地域密着型通所介護】滋賀県米原市井之口180", "url": "https://www.kaigokensaku.mhlw.go.jp/25/index.php?action_kouhyou_detail_004_kani=true&JigyosyoCd=2572400493-00&ServiceCd=780&Type=search", "url2": null }, "geometry": { "type": "Point", "coordinates": [ 136.357481199999938, 35.3976833 ] } },
{ "type": "Feature", "properties": { "内容": "社会福祉法人米原市社会福祉協議会デイサービスセンター寄ろ家うかの【地域密着型通所介護】滋賀県米原市宇賀野590", "url": "https://www.kaigokensaku.mhlw.go.jp/25/index.php?action_kouhyou_detail_004_kani=true&JigyosyoCd=2572400196-00&ServiceCd=780&Type=search", "url2": "http://maibara-shakyo.or.jp" }, "geometry": { "type": "Point", "coordinates": [ 136.2880487, 35.3402873 ] } },
{ "type": "Feature", "properties": { "内容": "特定非営利活動法人　ほほえみ【地域密着型通所介護】滋賀県米原市上野1056番地", "url": "https://www.kaigokensaku.mhlw.go.jp/25/index.php?action_kouhyou_detail_004_kani=true&JigyosyoCd=2572400212-00&ServiceCd=780&Type=search", "url2": null }, "geometry": { "type": "Point", "coordinates": [ 136.381600700000035, 35.3934749 ] } },
{ "type": "Feature", "properties": { "内容": "ひだまり【地域密着型通所介護】滋賀県米原市一色458-2", "url": "https://www.kaigokensaku.mhlw.go.jp/25/index.php?action_kouhyou_detail_004_kani=true&JigyosyoCd=2592400119-00&ServiceCd=780&Type=search", "url2": "http://www.hidamari-shiga.jp" }, "geometry": { "type": "Point", "coordinates": [ 136.356455399999959, 35.3383293 ] } },
{ "type": "Feature", "properties": { "内容": "スタイルケア【地域密着型通所介護】滋賀県米原市高番408", "url": "https://www.kaigokensaku.mhlw.go.jp/25/index.php?action_kouhyou_detail_004_kani=true&JigyosyoCd=2592400135-00&ServiceCd=780&Type=search", "url2": "http://style2010.com/" }, "geometry": { "type": "Point", "coordinates": [ 136.37585390000001, 35.3794951 ] } },
{ "type": "Feature", "properties": { "内容": "社会福祉法人米原市社会福祉協議会北部デイサービスセンターきたで～【地域密着型通所介護】滋賀県米原市大久保885番地", "url": "https://www.kaigokensaku.mhlw.go.jp/25/index.php?action_kouhyou_detail_004_kani=true&JigyosyoCd=2572400311-00&ServiceCd=780&Type=search", "url2": "maibara-shakyo.or.jp/" }, "geometry": { "type": "Point", "coordinates": [ 136.370304300000043, 35.4266893 ] } },
{ "type": "Feature", "properties": { "内容": "社会福祉法人米原市社会福祉協議会東部デイサービスセンターはびろ【地域密着型通所介護】滋賀県米原市柏原2202柏原福祉交流センター", "url": "https://www.kaigokensaku.mhlw.go.jp/25/index.php?action_kouhyou_detail_004_kani=true&JigyosyoCd=2572400329-00&ServiceCd=780&Type=search", "url2": "habiroday@maibara-shakyo.or.jp" }, "geometry": { "type": "Point", "coordinates": [ 136.397089899999969, 35.3409015 ] } },
{ "type": "Feature", "properties": { "内容": "ラウンド多和田【地域密着型通所介護】滋賀県米原市多和田1033番地1", "url": "https://www.kaigokensaku.mhlw.go.jp/25/index.php?action_kouhyou_detail_004_kani=true&JigyosyoCd=2572400444-00&ServiceCd=780&Type=search", "url2": "http://www.sinca100.biz/" }, "geometry": { "type": "Point", "coordinates": [ 136.332635399999958, 35.335929600000014 ] } },
{ "type": "Feature", "properties": { "内容": "ｅｓｔ【地域密着型通所介護】滋賀県米原市顔戸501-5", "url": "https://www.kaigokensaku.mhlw.go.jp/25/index.php?action_kouhyou_detail_004_kani=true&JigyosyoCd=2572400485-00&ServiceCd=780&Type=search", "url2": "http://style2010.com/" }, "geometry": { "type": "Point", "coordinates": [ 136.302877500000022, 35.3365045 ] } },
{ "type": "Feature", "properties": { "内容": "スマイルデイサービスセンター【地域密着型通所介護】米原市寺倉603番地の3", "url": "https://www.kaigokensaku.mhlw.go.jp/25/index.php?action_kouhyou_detail_004_kani=true&JigyosyoCd=2592400192-00&ServiceCd=780&Type=search", "url2": "https://www.oumikunpuukai.com" }, "geometry": { "type": "Point", "coordinates": [ 136.3114067, 35.3253517 ] } },
{ "type": "Feature", "properties": { "内容": "あーばん　すたじおゆるりはまいばら【地域密着型通所介護】顔戸1315-7URBANSTUDIOゆるりは米原", "url": "https://www.kaigokensaku.mhlw.go.jp/25/index.php?action_kouhyou_detail_004_kani=true&JigyosyoCd=2592400184-00&ServiceCd=780&Type=search", "url2": "https://us-yururiha.com/" }, "geometry": { "type": "Point", "coordinates": [ 136.2966065, 35.3401821 ] } },
{ "type": "Feature", "properties": { "内容": "社会福祉法人米原市社会福祉協議会デイサービスセンターゆめホール【地域密着型通所介護】滋賀県米原市三吉570", "url": "https://www.kaigokensaku.mhlw.go.jp/25/index.php?action_kouhyou_detail_004_kani=true&JigyosyoCd=2592400200-00&ServiceCd=780&Type=search", "url2": "http://maibara-shakyo.or.jp/" }, "geometry": { "type": "Point", "coordinates": [ 136.322025200000013, 35.3200821 ] } },
{ "type": "Feature", "properties": { "内容": "社会福祉法人米原市社会福祉協議会デイサービスセンター行こ家のとせ【地域密着型通所介護】滋賀県米原市能登瀬1294-3", "url": "https://www.kaigokensaku.mhlw.go.jp/25/index.php?action_kouhyou_detail_004_kani=true&JigyosyoCd=2572400188-00&ServiceCd=780&Type=search", "url2": "ikokanotose@maibara-shakyo.or.Jp" }, "geometry": { "type": "Point", "coordinates": [ 136.316531599999962, 35.331619 ] } },
{ "type": "Feature", "properties": { "内容": "リハビリデイサービスここりは【地域密着型通所介護】滋賀県米原市宇賀野181なし", "url": "https://www.kaigokensaku.mhlw.go.jp/25/index.php?action_kouhyou_detail_004_kani=true&JigyosyoCd=2592400176-00&ServiceCd=780&Type=search", "url2": "https://raiseru.co.jp" }, "geometry": { "type": "Point", "coordinates": [ 136.2897017, 35.343646600000042 ] } },
{ "type": "Feature", "properties": { "内容": "デイサービス　ともの家　ひの【地域密着型通所介護】滋賀県蒲生郡日野町大窪１３６３番地", "url": "https://www.kaigokensaku.mhlw.go.jp/25/index.php?action_kouhyou_detail_004_kani=true&JigyosyoCd=2571500400-00&ServiceCd=780&Type=search", "url2": "http://www.tomonoie.org/public/" }, "geometry": { "type": "Point", "coordinates": [ 136.247567963059964, 35.010139447161315 ] } },
{ "type": "Feature", "properties": { "内容": "デイサービスセンター　樹【地域密着型通所介護】滋賀県蒲生郡竜王町小口５４１－４", "url": "https://www.kaigokensaku.mhlw.go.jp/25/index.php?action_kouhyou_detail_004_kani=true&JigyosyoCd=2571500350-00&ServiceCd=780&Type=search", "url2": null }, "geometry": { "type": "Point", "coordinates": [ 136.116669032540926, 35.06055299427333 ] } },
{ "type": "Feature", "properties": { "内容": "デイサービスセンター愛・ユー【地域密着型通所介護】滋賀県愛知郡愛荘町石橋905", "url": "https://www.kaigokensaku.mhlw.go.jp/25/index.php?action_kouhyou_detail_004_kani=true&JigyosyoCd=2571700026-00&ServiceCd=780&Type=search", "url2": null }, "geometry": { "type": "Point", "coordinates": [ 136.22085340000001, 35.1815922 ] } },
{ "type": "Feature", "properties": { "内容": "デイサービス　いしころ民家【地域密着型通所介護】滋賀県愛知郡愛荘町市１３４９番地１", "url": "https://www.kaigokensaku.mhlw.go.jp/25/index.php?action_kouhyou_detail_004_kani=true&JigyosyoCd=2571700331-00&ServiceCd=780&Type=search", "url2": null }, "geometry": { "type": "Point", "coordinates": [ 136.217700925777621, 35.178090395985706 ] } },
{ "type": "Feature", "properties": { "内容": "ゆらぎデイサービス【地域密着型通所介護】滋賀県愛知郡愛荘町島川1321", "url": "https://www.kaigokensaku.mhlw.go.jp/25/index.php?action_kouhyou_detail_004_kani=true&JigyosyoCd=2571700265-00&ServiceCd=780&Type=search", "url2": null }, "geometry": { "type": "Point", "coordinates": [ 136.2310516, 35.1707682 ] } },
{ "type": "Feature", "properties": { "内容": "愛荘町社会福祉協議会秦荘通所介護事業所【地域密着型通所介護】滋賀県愛知郡愛荘町安孫子1216番地-１愛荘町立福祉センターラポール秦荘　いきいきセンター", "url": "https://www.kaigokensaku.mhlw.go.jp/25/index.php?action_kouhyou_detail_004_kani=true&JigyosyoCd=2591700071-00&ServiceCd=780&Type=search", "url2": "http://aisho-shakyo.or.jp" }, "geometry": { "type": "Point", "coordinates": [ 136.2498506, 35.1730211 ] } },
{ "type": "Feature", "properties": { "内容": "デイサービス笑楽【地域密着型通所介護】滋賀県犬上郡甲良町正楽寺１５０番地１", "url": "https://www.kaigokensaku.mhlw.go.jp/25/index.php?action_kouhyou_detail_004_kani=true&JigyosyoCd=2571800131-00&ServiceCd=780&Type=search", "url2": "http://www." }, "geometry": { "type": "Point", "coordinates": [ 136.28186740000001, 35.1935036 ] } },
{ "type": "Feature", "properties": { "内容": "甲良町デイサービスセンターかつらぎ【地域密着型通所介護】下之郷１５０９", "url": "https://www.kaigokensaku.mhlw.go.jp/25/index.php?action_kouhyou_detail_004_kani=true&JigyosyoCd=2571800198-00&ServiceCd=780&Type=search", "url2": "http://www.suzukihealthcare.co.jp" }, "geometry": { "type": "Point", "coordinates": [ 136.256630500000028, 35.2026436 ] } },
{ "type": "Feature", "properties": { "内容": "デイサービスあかり【地域密着型通所介護】滋賀県犬上郡甲良町大字在士７０２番地１", "url": "https://www.kaigokensaku.mhlw.go.jp/25/index.php?action_kouhyou_detail_004_kani=true&JigyosyoCd=2571800222-00&ServiceCd=780&Type=search", "url2": "http://hp.kaipoke.biz/au6/61395/index_0004.html" }, "geometry": { "type": "Point", "coordinates": [ 136.264609965345727, 35.21098767003955 ] } },
{ "type": "Feature", "properties": { "内容": "はぐくみデイサービス【地域密着型通所介護】滋賀県犬上郡多賀町多賀　215-11", "url": "https://www.kaigokensaku.mhlw.go.jp/25/index.php?action_kouhyou_detail_004_kani=true&JigyosyoCd=2571800099-00&ServiceCd=780&Type=search", "url2": "https://hagukumi-shiga.com/" }, "geometry": { "type": "Point", "coordinates": [ 136.293509800000038, 35.2225318 ] } }
]
}
