{
"type": "FeatureCollection",
"name": "geo_25_認知症対応型通所介護",
"crs": { "type": "name", "properties": { "name": "urn:ogc:def:crs:OGC:1.3:CRS84" } },
"features": [
{ "type": "Feature", "properties": { "内容": "医療法人湖青会　志賀の里デイサービスセンター【認知症対応型通所介護】滋賀県大津市和邇高城２７０番２", "url": "https://www.kaigokensaku.mhlw.go.jp/25/index.php?action_kouhyou_detail_004_kani=true&JigyosyoCd=2570101739-00&ServiceCd=720&Type=search", "url2": "www.koseikai.care" }, "geometry": { "type": "Point", "coordinates": [ 135.920317399999931, 35.1630987 ] } },
{ "type": "Feature", "properties": { "内容": "まごころ大津デイサービスセンター【認知症対応型通所介護】滋賀県大津市皇子が丘１－１－３０", "url": "https://www.kaigokensaku.mhlw.go.jp/25/index.php?action_kouhyou_detail_004_kani=true&JigyosyoCd=2570100723-00&ServiceCd=720&Type=search", "url2": "http://magokoro-ie.net" }, "geometry": { "type": "Point", "coordinates": [ 135.849640963029088, 35.027115506888691 ] } },
{ "type": "Feature", "properties": { "内容": "しみんふくし滋賀仰木台デイサービスセンター【認知症対応型通所介護】滋賀県大津市仰木の里東8丁目11-13", "url": "https://www.kaigokensaku.mhlw.go.jp/25/index.php?action_kouhyou_detail_004_kani=true&JigyosyoCd=2590100513-00&ServiceCd=720&Type=search", "url2": "http://www.shiminfukushi-shiga.jp/" }, "geometry": { "type": "Point", "coordinates": [ 135.901564099999973, 35.1131235 ] } },
{ "type": "Feature", "properties": { "内容": "輝生会デイサービス楽寿【認知症対応型通所介護】滋賀県大津市大萱１丁目５－２８クラベスビル４・５階クラベスビル", "url": "https://www.kaigokensaku.mhlw.go.jp/25/index.php?action_kouhyou_detail_004_kani=true&JigyosyoCd=2570100475-00&ServiceCd=720&Type=search", "url2": "http://www.kiseikai.co.jp" }, "geometry": { "type": "Point", "coordinates": [ 135.92263360000004, 34.9847797 ] } },
{ "type": "Feature", "properties": { "内容": "デイサービスセンターこすもす【認知症対応型通所介護】大津市坂本６丁目6-31", "url": "https://www.kaigokensaku.mhlw.go.jp/25/index.php?action_kouhyou_detail_004_kani=true&JigyosyoCd=2590100307-00&ServiceCd=720&Type=search", "url2": null }, "geometry": { "type": "Point", "coordinates": [ 135.8719903, 35.0746361 ] } },
{ "type": "Feature", "properties": { "内容": "デイサービスセンターのぞみ【認知症対応型通所介護】滋賀県大津市中庄二丁目１６－４１", "url": "https://www.kaigokensaku.mhlw.go.jp/25/index.php?action_kouhyou_detail_004_kani=true&JigyosyoCd=2570101820-00&ServiceCd=720&Type=search", "url2": "http://nozomi-shiga.com/" }, "geometry": { "type": "Point", "coordinates": [ 135.891324560713173, 34.990357830808968 ] } },
{ "type": "Feature", "properties": { "内容": "やすらぎの郷デイサービスセンター【認知症対応型通所介護】滋賀県　大津市下阪本４丁目6－37", "url": "https://www.kaigokensaku.mhlw.go.jp/25/index.php?action_kouhyou_detail_004_kani=true&JigyosyoCd=2570100913-00&ServiceCd=720&Type=search", "url2": "ysrg710.herb.ocn.ne.jp" }, "geometry": { "type": "Point", "coordinates": [ 135.878359400000022, 35.0644819 ] } },
{ "type": "Feature", "properties": { "内容": "やすらぎの郷デイサービスセンター仰木の里【認知症対応型通所介護】滋賀県大津市仰木の里7-6-6", "url": "https://www.kaigokensaku.mhlw.go.jp/25/index.php?action_kouhyou_detail_004_kani=true&JigyosyoCd=2590101248-00&ServiceCd=720&Type=search", "url2": null }, "geometry": { "type": "Point", "coordinates": [ 135.8947413, 35.110604 ] } },
{ "type": "Feature", "properties": { "内容": "デイサービスセンターほっこり【認知症対応型通所介護】大津市昭和町7-11", "url": "https://www.kaigokensaku.mhlw.go.jp/25/index.php?action_kouhyou_detail_004_kani=true&JigyosyoCd=2570101705-00&ServiceCd=720&Type=search", "url2": "https://shigahokenkai.jp" }, "geometry": { "type": "Point", "coordinates": [ 135.885492136631797, 34.99763769251846 ] } },
{ "type": "Feature", "properties": { "内容": "デイサービス久左【認知症対応型通所介護】滋賀県彦根市河原二丁目１番３号", "url": "https://www.kaigokensaku.mhlw.go.jp/25/index.php?action_kouhyou_detail_004_kani=true&JigyosyoCd=2590200099-00&ServiceCd=720&Type=search", "url2": "http://www.chitosekai.net/" }, "geometry": { "type": "Point", "coordinates": [ 136.25428450000004, 35.2661258 ] } },
{ "type": "Feature", "properties": { "内容": "ぬくもりの家みかさつかさ【認知症対応型通所介護】滋賀県彦根市新海町2243-2", "url": "https://www.kaigokensaku.mhlw.go.jp/25/index.php?action_kouhyou_detail_004_kani=true&JigyosyoCd=2570200549-00&ServiceCd=720&Type=search", "url2": "http://homesweethome.jp/" }, "geometry": { "type": "Point", "coordinates": [ 136.130565684110962, 35.217853375211007 ] } },
{ "type": "Feature", "properties": { "内容": "デイサービスセンター鈴の音【認知症対応型通所介護】滋賀県彦根市鳥居本町670", "url": "https://www.kaigokensaku.mhlw.go.jp/25/index.php?action_kouhyou_detail_004_kani=true&JigyosyoCd=2590200206-00&ServiceCd=720&Type=search", "url2": "https://suzukihealthcare.co.jp" }, "geometry": { "type": "Point", "coordinates": [ 136.283909, 35.28473 ] } },
{ "type": "Feature", "properties": { "内容": "すみよしクリニックデイサービスセンター【認知症対応型通所介護】滋賀県彦根市竹ヶ鼻町292-1", "url": "https://www.kaigokensaku.mhlw.go.jp/25/index.php?action_kouhyou_detail_004_kani=true&JigyosyoCd=2590200156-00&ServiceCd=720&Type=search", "url2": "http://www.koyoukai.com/dayservice" }, "geometry": { "type": "Point", "coordinates": [ 136.243097799999987, 35.2419669 ] } },
{ "type": "Feature", "properties": { "内容": "あったかハウス京町デイサービスセンター【認知症対応型通所介護】滋賀県彦根市京町1町目4-7", "url": "https://www.kaigokensaku.mhlw.go.jp/25/index.php?action_kouhyou_detail_004_kani=true&JigyosyoCd=2570200507-00&ServiceCd=720&Type=search", "url2": "http://www.iscare.co.jp" }, "geometry": { "type": "Point", "coordinates": [ 136.259570100000019, 35.2675731 ] } },
{ "type": "Feature", "properties": { "内容": "あったかハウス甘呂デイサービスセンター【認知症対応型通所介護】滋賀県彦根市甘呂町490", "url": "https://www.kaigokensaku.mhlw.go.jp/25/index.php?action_kouhyou_detail_004_kani=true&JigyosyoCd=2570200622-00&ServiceCd=720&Type=search", "url2": "http://www.iscare.co.jp" }, "geometry": { "type": "Point", "coordinates": [ 136.22451, 35.2465514 ] } },
{ "type": "Feature", "properties": { "内容": "デイサービスセンターべるグリーン【認知症対応型通所介護】滋賀県彦根市田原町８７－２", "url": "https://www.kaigokensaku.mhlw.go.jp/25/index.php?action_kouhyou_detail_004_kani=true&JigyosyoCd=2590200040-00&ServiceCd=720&Type=search", "url2": "http://suzukihealthcare.co.jp" }, "geometry": { "type": "Point", "coordinates": [ 136.177907299999987, 35.2177768 ] } },
{ "type": "Feature", "properties": { "内容": "デイホームぶどう【認知症対応型通所介護】彦根市後三条町４６８番地", "url": "https://www.kaigokensaku.mhlw.go.jp/25/index.php?action_kouhyou_detail_004_kani=true&JigyosyoCd=2590200065-00&ServiceCd=720&Type=search", "url2": "https://www.budou-kiboukai.com/dayhome" }, "geometry": { "type": "Point", "coordinates": [ 136.249262979762278, 35.265413099223082 ] } },
{ "type": "Feature", "properties": { "内容": "平田デイサービス爽やかな風【認知症対応型通所介護】滋賀県　彦根市　平田町1114-1ひらた翔裕館Ⅰ号館", "url": "https://www.kaigokensaku.mhlw.go.jp/25/index.php?action_kouhyou_detail_004_kani=true&JigyosyoCd=2590200362-00&ServiceCd=720&Type=search", "url2": "https://www.sanga-kaigo.co.jp/" }, "geometry": { "type": "Point", "coordinates": [ 136.238456023942547, 35.260546741169229 ] } },
{ "type": "Feature", "properties": { "内容": "ほんわかサロン　まんてん塩津【認知症対応型通所介護】滋賀県長浜市西浅井町塩津中270", "url": "https://www.kaigokensaku.mhlw.go.jp/25/index.php?action_kouhyou_detail_004_kani=true&JigyosyoCd=2590300089-00&ServiceCd=720&Type=search", "url2": null }, "geometry": { "type": "Point", "coordinates": [ 136.157146900000043, 35.5277592 ] } },
{ "type": "Feature", "properties": { "内容": "デイサービスほのか【認知症対応型通所介護】滋賀県長浜市加納町989-6", "url": "https://www.kaigokensaku.mhlw.go.jp/25/index.php?action_kouhyou_detail_004_kani=true&JigyosyoCd=2590300196-00&ServiceCd=720&Type=search", "url2": "http://nagahama-honoka.net/" }, "geometry": { "type": "Point", "coordinates": [ 136.302775661111241, 35.394959985958423 ] } },
{ "type": "Feature", "properties": { "内容": "デイサービスセンター中重　かすみそう【認知症対応型通所介護】長浜市高月町横山298番地", "url": "https://www.kaigokensaku.mhlw.go.jp/25/index.php?action_kouhyou_detail_004_kani=true&JigyosyoCd=2590300170-00&ServiceCd=720&Type=search", "url2": "http://care-care.jp/kaigo/ty_facilities.php?tyid=92" }, "geometry": { "type": "Point", "coordinates": [ 136.217895499999941, 35.4835295 ] } },
{ "type": "Feature", "properties": { "内容": "長浜長寿デイサービスセンター【認知症対応型通所介護】滋賀県長浜市朝日町１９－３", "url": "https://www.kaigokensaku.mhlw.go.jp/25/index.php?action_kouhyou_detail_004_kani=true&JigyosyoCd=2570300091-00&ServiceCd=720&Type=search", "url2": "http://www.seishokai.jp/seijoen" }, "geometry": { "type": "Point", "coordinates": [ 136.270814200000018, 35.3775286 ] } },
{ "type": "Feature", "properties": { "内容": "ほんわかリビング　まんてん小谷【認知症対応型通所介護】滋賀県長浜市小谷郡上町５６２番地", "url": "https://www.kaigokensaku.mhlw.go.jp/25/index.php?action_kouhyou_detail_004_kani=true&JigyosyoCd=2590300105-00&ServiceCd=720&Type=search", "url2": "http://odani.swo-shinai.org/" }, "geometry": { "type": "Point", "coordinates": [ 136.264051, 35.4553001 ] } },
{ "type": "Feature", "properties": { "内容": "デイサービスセンター　花みずき【認知症対応型通所介護】滋賀県長浜市下坂中町２００番地１", "url": "https://www.kaigokensaku.mhlw.go.jp/25/index.php?action_kouhyou_detail_004_kani=true&JigyosyoCd=2590300162-00&ServiceCd=720&Type=search", "url2": "http://o-kourakukai.or.jp/" }, "geometry": { "type": "Point", "coordinates": [ 136.283910200000037, 35.3647057 ] } },
{ "type": "Feature", "properties": { "内容": "ﾃﾞｲｻｰﾋﾞｽｾﾝﾀｰ　ただすの森【認知症対応型通所介護】滋賀県長浜市下坂中町２００－１", "url": "https://www.kaigokensaku.mhlw.go.jp/25/index.php?action_kouhyou_detail_004_kani=true&JigyosyoCd=2590300204-00&ServiceCd=720&Type=search", "url2": "http：//www.o-kourakukai.or.jp" }, "geometry": { "type": "Point", "coordinates": [ 136.2840519, 35.3650723 ] } },
{ "type": "Feature", "properties": { "内容": "デイサービスセンター　ほほえみ【認知症対応型通所介護】滋賀県長浜市下坂中町２００番地１", "url": "https://www.kaigokensaku.mhlw.go.jp/25/index.php?action_kouhyou_detail_004_kani=true&JigyosyoCd=2590300048-00&ServiceCd=720&Type=search", "url2": "http://www.o-kourakukai.or.jp" }, "geometry": { "type": "Point", "coordinates": [ 136.283910200000037, 35.3647057 ] } },
{ "type": "Feature", "properties": { "内容": "認知症デイサービス事業所　さくら番場【認知症対応型通所介護】長浜市高畑町２０７", "url": "https://www.kaigokensaku.mhlw.go.jp/25/index.php?action_kouhyou_detail_004_kani=true&JigyosyoCd=2590300147-00&ServiceCd=720&Type=search", "url2": "http://www.glow.or.jp" }, "geometry": { "type": "Point", "coordinates": [ 136.2947107, 35.4552867 ] } },
{ "type": "Feature", "properties": { "内容": "ケアホーム木もれび【認知症対応型通所介護】滋賀県近江八幡市西生来町2402-17", "url": "https://www.kaigokensaku.mhlw.go.jp/25/index.php?action_kouhyou_detail_004_kani=true&JigyosyoCd=2590400285-00&ServiceCd=720&Type=search", "url2": "carehomekomorebi@gmail.com" }, "geometry": { "type": "Point", "coordinates": [ 136.1453845, 35.1162486 ] } },
{ "type": "Feature", "properties": { "内容": "デイサービスセンター　あっとほーむ【認知症対応型通所介護】近江八幡市船木町１１９２－５", "url": "https://www.kaigokensaku.mhlw.go.jp/25/index.php?action_kouhyou_detail_004_kani=true&JigyosyoCd=2570400297-00&ServiceCd=720&Type=search", "url2": "http://www.kohitujikai.net" }, "geometry": { "type": "Point", "coordinates": [ 136.0805238, 35.1398305 ] } },
{ "type": "Feature", "properties": { "内容": "デイケアハウスおかえり【認知症対応型通所介護】中小森町600", "url": "https://www.kaigokensaku.mhlw.go.jp/25/index.php?action_kouhyou_detail_004_kani=true&JigyosyoCd=2590400129-00&ServiceCd=720&Type=search", "url2": "http://hoonoki.or.jp/" }, "geometry": { "type": "Point", "coordinates": [ 136.087099599999988, 35.117304 ] } },
{ "type": "Feature", "properties": { "内容": "しが健康医療生活協同組合　デイサービスセンターにじの家　くさつ【認知症対応型通所介護】草津市野村7丁目9番17号", "url": "https://www.kaigokensaku.mhlw.go.jp/25/index.php?action_kouhyou_detail_004_kani=true&JigyosyoCd=2590600058-00&ServiceCd=720&Type=search", "url2": null }, "geometry": { "type": "Point", "coordinates": [ 135.953827600000068, 35.0305981 ] } },
{ "type": "Feature", "properties": { "内容": "社会福祉法人慈惠会ゆいの里守山デイサービスセンター【認知症対応型通所介護】守山市洲本町１番地", "url": "https://www.kaigokensaku.mhlw.go.jp/25/index.php?action_kouhyou_detail_004_kani=true&JigyosyoCd=2570700043-00&ServiceCd=720&Type=search", "url2": "http://www.yuinosato.or.jp" }, "geometry": { "type": "Point", "coordinates": [ 135.98672369999997, 35.0951578 ] } },
{ "type": "Feature", "properties": { "内容": "藤本クリニックデイサービスセンター【認知症対応型通所介護】滋賀県守山市梅田町2-1-302", "url": "https://www.kaigokensaku.mhlw.go.jp/25/index.php?action_kouhyou_detail_004_kani=true&JigyosyoCd=2590700221-00&ServiceCd=720&Type=search", "url2": "http：//www.fujimoto-clinic.net/" }, "geometry": { "type": "Point", "coordinates": [ 135.995346, 35.0511522 ] } },
{ "type": "Feature", "properties": { "内容": "認知症対応型デイサービスひだまり【認知症対応型通所介護】滋賀県守山市石田町422番地社協石田ケアセンター", "url": "https://www.kaigokensaku.mhlw.go.jp/25/index.php?action_kouhyou_detail_004_kani=true&JigyosyoCd=2590700031-00&ServiceCd=720&Type=search", "url2": "http://www.moriyama-shakyo.or.jp" }, "geometry": { "type": "Point", "coordinates": [ 135.979058500000065, 35.069394 ] } },
{ "type": "Feature", "properties": { "内容": "グループホームせせらぎ【認知症対応型通所介護】滋賀県甲賀市甲南町葛木869番地2グループホームせせらぎ", "url": "https://www.kaigokensaku.mhlw.go.jp/25/index.php?action_kouhyou_detail_004_kani=true&JigyosyoCd=2591400029-00&ServiceCd=720&Type=search", "url2": "gh-soudan@kohnankai.jp" }, "geometry": { "type": "Point", "coordinates": [ 136.176578, 34.9328959 ] } },
{ "type": "Feature", "properties": { "内容": "デイサービスセンターあさひがおか【認知症対応型通所介護】滋賀県甲賀市水口町朝日が丘6番37号", "url": "https://www.kaigokensaku.mhlw.go.jp/25/index.php?action_kouhyou_detail_004_kani=true&JigyosyoCd=2591400086-00&ServiceCd=720&Type=search", "url2": "http://www.hachikikai.com" }, "geometry": { "type": "Point", "coordinates": [ 136.180230567667422, 34.975166502196792 ] } },
{ "type": "Feature", "properties": { "内容": "社会福祉法人湖青福祉会かふかの里デイサービスセンター【認知症対応型通所介護】滋賀県甲賀市甲賀町大原中1161番地", "url": "https://www.kaigokensaku.mhlw.go.jp/25/index.php?action_kouhyou_detail_004_kani=true&JigyosyoCd=2571400585-00&ServiceCd=720&Type=search", "url2": "http://www.kosei-f.jp/" }, "geometry": { "type": "Point", "coordinates": [ 136.228268800000023, 34.9002974 ] } },
{ "type": "Feature", "properties": { "内容": "ひなたぼっこつちやま【認知症対応型通所介護】滋賀県甲賀市土山町北土山1553-2", "url": "https://www.kaigokensaku.mhlw.go.jp/25/index.php?action_kouhyou_detail_004_kani=true&JigyosyoCd=2591400144-00&ServiceCd=720&Type=search", "url2": "http://hinata-bokko.org/" }, "geometry": { "type": "Point", "coordinates": [ 136.283543399999985, 34.9347893 ] } },
{ "type": "Feature", "properties": { "内容": "デイサービス笑おう家【認知症対応型通所介護】滋賀県野洲市行畑102-8", "url": "https://www.kaigokensaku.mhlw.go.jp/25/index.php?action_kouhyou_detail_004_kani=true&JigyosyoCd=2591300096-00&ServiceCd=720&Type=search", "url2": null }, "geometry": { "type": "Point", "coordinates": [ 136.023248, 35.063360690042749 ] } },
{ "type": "Feature", "properties": { "内容": "中央デイサービスセンターしんあい【認知症対応型通所介護】滋賀県湖南市中央4丁目93番地", "url": "https://www.kaigokensaku.mhlw.go.jp/25/index.php?action_kouhyou_detail_004_kani=true&JigyosyoCd=2592300012-00&ServiceCd=720&Type=search", "url2": "http://chiiroba.jp/" }, "geometry": { "type": "Point", "coordinates": [ 136.083506599999964, 35.0065889 ] } },
{ "type": "Feature", "properties": { "内容": "ぼだいじデイサービスセンターいこい【認知症対応型通所介護】湖南市菩提寺東4丁目1-5", "url": "https://www.kaigokensaku.mhlw.go.jp/25/index.php?action_kouhyou_detail_004_kani=true&JigyosyoCd=2592300137-00&ServiceCd=720&Type=search", "url2": "https://chiiroba.jp/" }, "geometry": { "type": "Point", "coordinates": [ 136.063475758266463, 35.035194284766803 ] } },
{ "type": "Feature", "properties": { "内容": "デイサービスセンターらく【認知症対応型通所介護】滋賀県湖南市西峰町1-1", "url": "https://www.kaigokensaku.mhlw.go.jp/25/index.php?action_kouhyou_detail_004_kani=true&JigyosyoCd=2592300020-00&ServiceCd=720&Type=search", "url2": "http://www.glow.or.jp/" }, "geometry": { "type": "Point", "coordinates": [ 136.126874499999985, 35.0139363 ] } },
{ "type": "Feature", "properties": { "内容": "デイサービスセンター　にこにこ【認知症対応型通所介護】滋賀県湖南市石部西一丁目3番30号", "url": "https://www.kaigokensaku.mhlw.go.jp/25/index.php?action_kouhyou_detail_004_kani=true&JigyosyoCd=2592300053-00&ServiceCd=720&Type=search", "url2": "http://www.hachikikai.com" }, "geometry": { "type": "Point", "coordinates": [ 136.0532905, 35.01128 ] } },
{ "type": "Feature", "properties": { "内容": "高島市社会福祉協議会きらりマキノ【認知症対応型通所介護】滋賀県高島市マキノ町新保１０９５番地", "url": "https://www.kaigokensaku.mhlw.go.jp/25/index.php?action_kouhyou_detail_004_kani=true&JigyosyoCd=2592200048-00&ServiceCd=720&Type=search", "url2": null }, "geometry": { "type": "Point", "coordinates": [ 136.031449299999963, 35.4459642 ] } },
{ "type": "Feature", "properties": { "内容": "デイサービス七彩【認知症対応型通所介護】滋賀県東近江市葛巻町394番地", "url": "https://www.kaigokensaku.mhlw.go.jp/25/index.php?action_kouhyou_detail_004_kani=true&JigyosyoCd=2590500027-00&ServiceCd=720&Type=search", "url2": "http://npo-nanairo.com" }, "geometry": { "type": "Point", "coordinates": [ 136.149959981198862, 35.061586297263183 ] } },
{ "type": "Feature", "properties": { "内容": "認知症対応型デイサービスやすらぎの里【認知症対応型通所介護】東近江市山上町5045", "url": "https://www.kaigokensaku.mhlw.go.jp/25/index.php?action_kouhyou_detail_004_kani=true&JigyosyoCd=2590500050-00&ServiceCd=720&Type=search", "url2": null }, "geometry": { "type": "Point", "coordinates": [ 136.27036309999994, 35.082118 ] } },
{ "type": "Feature", "properties": { "内容": "東近江市社会福祉協議会デイサービスセンターちゃがゆの郷【認知症対応型通所介護】東近江市乙女浜町５２７番地", "url": "https://www.kaigokensaku.mhlw.go.jp/25/index.php?action_kouhyou_detail_004_kani=true&JigyosyoCd=2590500043-00&ServiceCd=720&Type=search", "url2": "http://www.higashiomi-shakyo.or.jp/" }, "geometry": { "type": "Point", "coordinates": [ 136.142458499999975, 35.1921704 ] } },
{ "type": "Feature", "properties": { "内容": "共用型デイサービス　縁ひだまり【認知症対応型通所介護】滋賀県米原市一色494", "url": "https://www.kaigokensaku.mhlw.go.jp/25/index.php?action_kouhyou_detail_004_kani=true&JigyosyoCd=2592400085-00&ServiceCd=720&Type=search", "url2": "http://www.hidamari-shiga.jp" }, "geometry": { "type": "Point", "coordinates": [ 136.3559206, 35.3386379 ] } },
{ "type": "Feature", "properties": { "内容": "社会福祉法人　千寿会　デイサービスセンター千寿倶楽部【認知症対応型通所介護】滋賀県米原市上多良228番地1", "url": "https://www.kaigokensaku.mhlw.go.jp/25/index.php?action_kouhyou_detail_004_kani=true&JigyosyoCd=2592400010-00&ServiceCd=720&Type=search", "url2": "http://senjyukai.shiga.jp" }, "geometry": { "type": "Point", "coordinates": [ 136.287143600000036, 35.3249892 ] } },
{ "type": "Feature", "properties": { "内容": "いずみ介護サービス　デイハウスひふみ【認知症対応型通所介護】滋賀県蒲生郡日野町里口４８番地", "url": "https://www.kaigokensaku.mhlw.go.jp/25/index.php?action_kouhyou_detail_004_kani=true&JigyosyoCd=2591500075-00&ServiceCd=720&Type=search", "url2": "http://care-net.biz/25/izumikaigo/" }, "geometry": { "type": "Point", "coordinates": [ 136.227095299999974, 35.0148279 ] } },
{ "type": "Feature", "properties": { "内容": "木のおうちいっぷく家【認知症対応型通所介護】滋賀県蒲生郡竜王町林1346", "url": "https://www.kaigokensaku.mhlw.go.jp/25/index.php?action_kouhyou_detail_004_kani=true&JigyosyoCd=2591500133-00&ServiceCd=720&Type=search", "url2": "https://mihan-shiga.site/" }, "geometry": { "type": "Point", "coordinates": [ 136.1311667, 35.0809485 ] } },
{ "type": "Feature", "properties": { "内容": "こんぺいとう【認知症対応型通所介護】滋賀県愛知郡愛荘町愛知川８０８", "url": "https://www.kaigokensaku.mhlw.go.jp/25/index.php?action_kouhyou_detail_004_kani=true&JigyosyoCd=2591700048-00&ServiceCd=720&Type=search", "url2": "http://homesweethome.jp/" }, "geometry": { "type": "Point", "coordinates": [ 136.202357200000051, 35.1664586 ] } }
]
}
