{
"type": "FeatureCollection",
"name": "geo_25_通所介護",
"crs": { "type": "name", "properties": { "name": "urn:ogc:def:crs:OGC:1.3:CRS84" } },
"features": [
{ "type": "Feature", "properties": { "内容": "リハビリデイサービスセンター瀬田店【通所介護】滋賀県大津市大将軍3丁目24-5メゾンマツオ101", "url": "https://www.kaigokensaku.mhlw.go.jp/25/index.php?action_kouhyou_detail_004_kani=true&JigyosyoCd=2570105730-00&ServiceCd=150&Type=search", "url2": null }, "geometry": { "type": "Point", "coordinates": [ 135.9282498, 34.9915153 ] } },
{ "type": "Feature", "properties": { "内容": "憩デイサービスセンター【通所介護】滋賀県皇子が丘3-1-6ロータリーマンション西大津１番館", "url": "https://www.kaigokensaku.mhlw.go.jp/25/index.php?action_kouhyou_detail_004_kani=true&JigyosyoCd=2570104501-00&ServiceCd=150&Type=search", "url2": "http://www.l-i-fe-happiness.com" }, "geometry": { "type": "Point", "coordinates": [ 135.860995600000024, 35.0221703 ] } },
{ "type": "Feature", "properties": { "内容": "みちくさリハビリデイサービス【通所介護】滋賀県大津市瀬田1-15-3", "url": "https://www.kaigokensaku.mhlw.go.jp/25/index.php?action_kouhyou_detail_004_kani=true&JigyosyoCd=2570104527-00&ServiceCd=150&Type=search", "url2": "http://wel-fare.co.jp/publics/index/197/" }, "geometry": { "type": "Point", "coordinates": [ 135.909477299999907, 34.9730128 ] } },
{ "type": "Feature", "properties": { "内容": "ぐらんしーるデイサービスセンター【通所介護】見世2丁目7-7", "url": "https://www.kaigokensaku.mhlw.go.jp/25/index.php?action_kouhyou_detail_004_kani=true&JigyosyoCd=2570105508-00&ServiceCd=150&Type=search", "url2": null }, "geometry": { "type": "Point", "coordinates": [ 135.859314399999988, 35.0426652 ] } },
{ "type": "Feature", "properties": { "内容": "あい・ネットデイサービスセンター【通所介護】滋賀県大津市秋葉台７番２号", "url": "https://www.kaigokensaku.mhlw.go.jp/25/index.php?action_kouhyou_detail_004_kani=true&JigyosyoCd=2570100566-00&ServiceCd=150&Type=search", "url2": "https://www.ainet-otsu.com/" }, "geometry": { "type": "Point", "coordinates": [ 135.885932799999978, 34.9905573 ] } },
{ "type": "Feature", "properties": { "内容": "デイサービスセンター　千寿の郷【通所介護】大津市石山千町276-1", "url": "https://www.kaigokensaku.mhlw.go.jp/25/index.php?action_kouhyou_detail_004_kani=true&JigyosyoCd=2570100640-00&ServiceCd=150&Type=search", "url2": "http://senjyunosato.or.jp/" }, "geometry": { "type": "Point", "coordinates": [ 135.885366100000027, 34.9494088 ] } },
{ "type": "Feature", "properties": { "内容": "ライフハピネス螢【通所介護】滋賀県大津市螢谷2-15", "url": "https://www.kaigokensaku.mhlw.go.jp/25/index.php?action_kouhyou_detail_004_kani=true&JigyosyoCd=2570106191-00&ServiceCd=150&Type=search", "url2": "https:/www.lifehappiness..net" }, "geometry": { "type": "Point", "coordinates": [ 135.9046514, 34.9704531 ] } },
{ "type": "Feature", "properties": { "内容": "いきいきデイ　みずうみ【通所介護】滋賀県大津市和邇中浜476", "url": "https://www.kaigokensaku.mhlw.go.jp/25/index.php?action_kouhyou_detail_004_kani=true&JigyosyoCd=2570105581-00&ServiceCd=150&Type=search", "url2": "http://hp.kaipoke.biz/nkz/" }, "geometry": { "type": "Point", "coordinates": [ 135.9227056, 35.1639321 ] } },
{ "type": "Feature", "properties": { "内容": "デイサービスセンター　松の浦湯治の郷【通所介護】滋賀県大津市大物６６５番地の９", "url": "https://www.kaigokensaku.mhlw.go.jp/25/index.php?action_kouhyou_detail_004_kani=true&JigyosyoCd=2570101788-00&ServiceCd=150&Type=search", "url2": "https://biwakoaiwai.com" }, "geometry": { "type": "Point", "coordinates": [ 135.933262099999979, 35.209022 ] } },
{ "type": "Feature", "properties": { "内容": "デイサービスりんく大津　懐風【通所介護】大津市坂本1丁目3番27号", "url": "https://www.kaigokensaku.mhlw.go.jp/25/index.php?action_kouhyou_detail_004_kani=true&JigyosyoCd=2570102851-00&ServiceCd=150&Type=search", "url2": "http://www.link-otsu.jp" }, "geometry": { "type": "Point", "coordinates": [ 135.865841199999977, 35.0597102 ] } },
{ "type": "Feature", "properties": { "内容": "フォレスト真野通所介護事業所【通所介護】滋賀県大津市真野6丁目6番21号", "url": "https://www.kaigokensaku.mhlw.go.jp/25/index.php?action_kouhyou_detail_004_kani=true&JigyosyoCd=2570104071-00&ServiceCd=150&Type=search", "url2": "sakurakai-forestmano.jimdofree.com" }, "geometry": { "type": "Point", "coordinates": [ 135.922653299999979, 35.1350965 ] } },
{ "type": "Feature", "properties": { "内容": "デイサービスセンターあろは【通所介護】滋賀県大津市萱野浦22-67", "url": "https://www.kaigokensaku.mhlw.go.jp/25/index.php?action_kouhyou_detail_004_kani=true&JigyosyoCd=2570104147-00&ServiceCd=150&Type=search", "url2": "http://love-smile-happiness.co.jp" }, "geometry": { "type": "Point", "coordinates": [ 135.909221800000068, 34.9872222 ] } },
{ "type": "Feature", "properties": { "内容": "みどりやデイサービス仰木の里【通所介護】滋賀県大津市仰木の里７丁目1-10みどりやデイサービス仰木の里", "url": "https://www.kaigokensaku.mhlw.go.jp/25/index.php?action_kouhyou_detail_004_kani=true&JigyosyoCd=2570105771-00&ServiceCd=150&Type=search", "url2": "https://www.kyoto-midoriya.co.jp" }, "geometry": { "type": "Point", "coordinates": [ 135.8938097, 35.1082115 ] } },
{ "type": "Feature", "properties": { "内容": "蓬莱苑デイサービスセンター【通所介護】滋賀県大津市八屋戸１５９７", "url": "https://www.kaigokensaku.mhlw.go.jp/25/index.php?action_kouhyou_detail_004_kani=true&JigyosyoCd=2570101754-00&ServiceCd=150&Type=search", "url2": null }, "geometry": { "type": "Point", "coordinates": [ 135.90943029999994, 35.1844408 ] } },
{ "type": "Feature", "properties": { "内容": "デイサービスセンターおかげさん【通所介護】滋賀県大津市黒津二丁目1番11号", "url": "https://www.kaigokensaku.mhlw.go.jp/25/index.php?action_kouhyou_detail_004_kani=true&JigyosyoCd=2570105292-00&ServiceCd=150&Type=search", "url2": "https://www.okage-kaigo.com" }, "geometry": { "type": "Point", "coordinates": [ 135.9153154, 34.944358 ] } },
{ "type": "Feature", "properties": { "内容": "大津ケアセンターそよ風【通所介護】大津市瀬田三丁目１８－２０", "url": "https://www.kaigokensaku.mhlw.go.jp/25/index.php?action_kouhyou_detail_004_kani=true&JigyosyoCd=2570101044-00&ServiceCd=150&Type=search", "url2": "https://www.sykz.co.jp" }, "geometry": { "type": "Point", "coordinates": [ 135.907424799999944, 34.9665162 ] } },
{ "type": "Feature", "properties": { "内容": "大津市立木戸デイサービスセンター【通所介護】大津市木戸709番地", "url": "https://www.kaigokensaku.mhlw.go.jp/25/index.php?action_kouhyou_detail_004_kani=true&JigyosyoCd=2570101812-00&ServiceCd=150&Type=search", "url2": "http://www.fukusi-otsu.or.jp/publics/index/21/" }, "geometry": { "type": "Point", "coordinates": [ 135.9210766, 35.2005562 ] } },
{ "type": "Feature", "properties": { "内容": "デイサービス輝楽里【通所介護】滋賀県大津市下阪本三丁目16番18号", "url": "https://www.kaigokensaku.mhlw.go.jp/25/index.php?action_kouhyou_detail_004_kani=true&JigyosyoCd=2570103487-00&ServiceCd=150&Type=search", "url2": "https://support-oneself.com/" }, "geometry": { "type": "Point", "coordinates": [ 135.874719479762263, 35.063058826856519 ] } },
{ "type": "Feature", "properties": { "内容": "小西医院デイサービス【通所介護】大萱１－１７－３５", "url": "https://www.kaigokensaku.mhlw.go.jp/25/index.php?action_kouhyou_detail_004_kani=true&JigyosyoCd=2510104736-00&ServiceCd=150&Type=search", "url2": "http://www5.ocn.ne.jp/~kiseikai" }, "geometry": { "type": "Point", "coordinates": [ 135.925883800000065, 34.9863422 ] } },
{ "type": "Feature", "properties": { "内容": "長等の里通所介護事業所【通所介護】大津市神出開町字徴妙寺260番9号", "url": "https://www.kaigokensaku.mhlw.go.jp/25/index.php?action_kouhyou_detail_004_kani=true&JigyosyoCd=2570100327-00&ServiceCd=150&Type=search", "url2": "http,//koujyukai-otsu.com" }, "geometry": { "type": "Point", "coordinates": [ 135.853610600000025, 35.0054388 ] } },
{ "type": "Feature", "properties": { "内容": "かねだデイサービス【通所介護】大津市南郷一丁目7-21", "url": "https://www.kaigokensaku.mhlw.go.jp/25/index.php?action_kouhyou_detail_004_kani=true&JigyosyoCd=2570100459-00&ServiceCd=150&Type=search", "url2": null }, "geometry": { "type": "Point", "coordinates": [ 135.9076053, 34.9446209 ] } },
{ "type": "Feature", "properties": { "内容": "ケアタウンからさき　デイサービスセンター【通所介護】滋賀県大津市見世一丁目17番1号", "url": "https://www.kaigokensaku.mhlw.go.jp/25/index.php?action_kouhyou_detail_004_kani=true&JigyosyoCd=2570100970-00&ServiceCd=150&Type=search", "url2": "http://www.kosei-f.jp/" }, "geometry": { "type": "Point", "coordinates": [ 135.859631300000046, 35.0406486 ] } },
{ "type": "Feature", "properties": { "内容": "湖南デイサービスセンター【通所介護】大津市里５丁目２－１３", "url": "https://www.kaigokensaku.mhlw.go.jp/25/index.php?action_kouhyou_detail_004_kani=true&JigyosyoCd=2570101374-00&ServiceCd=150&Type=search", "url2": "http://yoshitoku.or.jp" }, "geometry": { "type": "Point", "coordinates": [ 135.928605699999906, 34.9365527 ] } },
{ "type": "Feature", "properties": { "内容": "近江舞子しょうぶ苑デイサービスセンター【通所介護】大津市南小松90番地", "url": "https://www.kaigokensaku.mhlw.go.jp/25/index.php?action_kouhyou_detail_004_kani=true&JigyosyoCd=2570101721-00&ServiceCd=150&Type=search", "url2": "shiga-f.com" }, "geometry": { "type": "Point", "coordinates": [ 135.958846499999936, 35.2386972 ] } },
{ "type": "Feature", "properties": { "内容": "ディサービスセンター国分【通所介護】滋賀県大津市国分1丁目40番1号", "url": "https://www.kaigokensaku.mhlw.go.jp/25/index.php?action_kouhyou_detail_004_kani=true&JigyosyoCd=2570102166-00&ServiceCd=150&Type=search", "url2": "http://hmkokubu.jp/　又は「デイ国分」で検索" }, "geometry": { "type": "Point", "coordinates": [ 135.8891936, 34.9711596 ] } },
{ "type": "Feature", "properties": { "内容": "デイサービスりんく大津浦の郷【通所介護】滋賀県大津市本堅田2丁目1-12", "url": "https://www.kaigokensaku.mhlw.go.jp/25/index.php?action_kouhyou_detail_004_kani=true&JigyosyoCd=2570104238-00&ServiceCd=150&Type=search", "url2": "http://www.link-otsu.jp/" }, "geometry": { "type": "Point", "coordinates": [ 135.922292199999987, 35.112674200000015 ] } },
{ "type": "Feature", "properties": { "内容": "医療法人弘英会デイサービスさくらテラス【通所介護】滋賀県大津市本堅田6丁目39番18号", "url": "https://www.kaigokensaku.mhlw.go.jp/25/index.php?action_kouhyou_detail_004_kani=true&JigyosyoCd=2570104626-00&ServiceCd=150&Type=search", "url2": "http://www.boh.or.jp" }, "geometry": { "type": "Point", "coordinates": [ 135.911289322554012, 35.121467611774328 ] } },
{ "type": "Feature", "properties": { "内容": "デイサービスセンター和楽【通所介護】滋賀県大津市横木2丁目8-12", "url": "https://www.kaigokensaku.mhlw.go.jp/25/index.php?action_kouhyou_detail_004_kani=true&JigyosyoCd=2570106266-00&ServiceCd=150&Type=search", "url2": "https://waraku-dayservice.com/" }, "geometry": { "type": "Point", "coordinates": [ 135.8321201, 34.9942808 ] } },
{ "type": "Feature", "properties": { "内容": "特別養護老人ホーム榛原の里【通所介護】滋賀県大津市真野普門三丁目1120番地", "url": "https://www.kaigokensaku.mhlw.go.jp/25/index.php?action_kouhyou_detail_004_kani=true&JigyosyoCd=2570100061-00&ServiceCd=150&Type=search", "url2": "http://www.fukusi-otsu.or.jp/" }, "geometry": { "type": "Point", "coordinates": [ 135.900600299999951, 35.1472502 ] } },
{ "type": "Feature", "properties": { "内容": "デイサービスセンターまつもと【通所介護】滋賀県大津市松本2丁目12番26号", "url": "https://www.kaigokensaku.mhlw.go.jp/25/index.php?action_kouhyou_detail_004_kani=true&JigyosyoCd=2570101416-00&ServiceCd=150&Type=search", "url2": "http://koujyukai-otsu.com/matsumoto/" }, "geometry": { "type": "Point", "coordinates": [ 135.874683799999957, 35.005 ] } },
{ "type": "Feature", "properties": { "内容": "デイサービスみずうみ【通所介護】大津市坂本三丁目３３－５５", "url": "https://www.kaigokensaku.mhlw.go.jp/25/index.php?action_kouhyou_detail_004_kani=true&JigyosyoCd=2570102208-00&ServiceCd=150&Type=search", "url2": "http://hp.kaipoke.biz/nkz/" }, "geometry": { "type": "Point", "coordinates": [ 135.878137397361797, 35.069171310607437 ] } },
{ "type": "Feature", "properties": { "内容": "デイサービスセンターみちくさ【通所介護】滋賀県大津市月輪２丁目３－２１", "url": "https://www.kaigokensaku.mhlw.go.jp/25/index.php?action_kouhyou_detail_004_kani=true&JigyosyoCd=2570102539-00&ServiceCd=150&Type=search", "url2": "wel-fare.co.jp/" }, "geometry": { "type": "Point", "coordinates": [ 135.93376360000002, 34.9872007 ] } },
{ "type": "Feature", "properties": { "内容": "デイサービス栗林の郷【通所介護】滋賀県大津市一里山四丁目２５－１５", "url": "https://www.kaigokensaku.mhlw.go.jp/25/index.php?action_kouhyou_detail_004_kani=true&JigyosyoCd=2570103305-00&ServiceCd=150&Type=search", "url2": "https://kuribayashinosato.shiga-saku.net/" }, "geometry": { "type": "Point", "coordinates": [ 135.932236199999977, 34.9797358 ] } },
{ "type": "Feature", "properties": { "内容": "デイサービス天神山【通所介護】滋賀県大津市衣川3丁目7-10", "url": "https://www.kaigokensaku.mhlw.go.jp/25/index.php?action_kouhyou_detail_004_kani=true&JigyosyoCd=2570104246-00&ServiceCd=150&Type=search", "url2": "http：//newearth.co.jp" }, "geometry": { "type": "Point", "coordinates": [ 135.904656887171996, 35.116297796365849 ] } },
{ "type": "Feature", "properties": { "内容": "北雄琴デイサービス爽やかな風【通所介護】滋賀県大津市雄琴3-1-7", "url": "https://www.kaigokensaku.mhlw.go.jp/25/index.php?action_kouhyou_detail_004_kani=true&JigyosyoCd=2570105474-00&ServiceCd=150&Type=search", "url2": "https://www.sanga-kaigo.co.jp" }, "geometry": { "type": "Point", "coordinates": [ 135.9002925, 35.0955404 ] } },
{ "type": "Feature", "properties": { "内容": "琵琶湖大橋デイサービス【通所介護】滋賀県大津市本堅田4丁目4-18", "url": "https://www.kaigokensaku.mhlw.go.jp/25/index.php?action_kouhyou_detail_004_kani=true&JigyosyoCd=2570105516-00&ServiceCd=150&Type=search", "url2": "https://www.sanga-kaigo.co.jp" }, "geometry": { "type": "Point", "coordinates": [ 135.9194962, 35.1167927 ] } },
{ "type": "Feature", "properties": { "内容": "デイサービス　バディ【通所介護】滋賀県大津市仰木の里東4-4-1", "url": "https://www.kaigokensaku.mhlw.go.jp/25/index.php?action_kouhyou_detail_004_kani=true&JigyosyoCd=2570106589-00&ServiceCd=150&Type=search", "url2": "https://shiga-f.com" }, "geometry": { "type": "Point", "coordinates": [ 135.903077599999989, 35.11081 ] } },
{ "type": "Feature", "properties": { "内容": "デイサービスセンター湖の花【通所介護】大津市衣川２－２７－１", "url": "https://www.kaigokensaku.mhlw.go.jp/25/index.php?action_kouhyou_detail_004_kani=true&JigyosyoCd=2570102182-00&ServiceCd=150&Type=search", "url2": "http：//rakujyu-konohana.com" }, "geometry": { "type": "Point", "coordinates": [ 135.905024799999978, 35.1143485 ] } },
{ "type": "Feature", "properties": { "内容": "コミュニティ倶楽部　咲楽【通所介護】滋賀県大津市美崎町11-22", "url": "https://www.kaigokensaku.mhlw.go.jp/25/index.php?action_kouhyou_detail_004_kani=true&JigyosyoCd=2570103230-00&ServiceCd=150&Type=search", "url2": "http://www.two-morrow.jp" }, "geometry": { "type": "Point", "coordinates": [ 135.889657400000033, 34.9815973 ] } },
{ "type": "Feature", "properties": { "内容": "近江笑生会松が丘デイサービスセンター【通所介護】松が丘七丁目１５番１号", "url": "https://www.kaigokensaku.mhlw.go.jp/25/index.php?action_kouhyou_detail_004_kani=true&JigyosyoCd=2570105433-00&ServiceCd=150&Type=search", "url2": "oumisyouseikai@car.ocn.ne.jp" }, "geometry": { "type": "Point", "coordinates": [ 135.963779690213016, 34.970425926395286 ] } },
{ "type": "Feature", "properties": { "内容": "カーサ月の輪デイサービスセンター【通所介護】滋賀県大津市月輪１丁目１２番８号", "url": "https://www.kaigokensaku.mhlw.go.jp/25/index.php?action_kouhyou_detail_004_kani=true&JigyosyoCd=2570103008-00&ServiceCd=150&Type=search", "url2": "http://koujyukai-otsu.com/casa/" }, "geometry": { "type": "Point", "coordinates": [ 135.93500789999996, 34.9922918 ] } },
{ "type": "Feature", "properties": { "内容": "デイサービス　アトラクト勧学【通所介護】滋賀県大津市勧学　勧学館", "url": "https://www.kaigokensaku.mhlw.go.jp/25/index.php?action_kouhyou_detail_004_kani=true&JigyosyoCd=2570106134-00&ServiceCd=150&Type=search", "url2": null }, "geometry": { "type": "Point", "coordinates": [ 135.863457035937216, 35.032965259800761 ] } },
{ "type": "Feature", "properties": { "内容": "ポラリスデイサービスセンター大津高砂【通所介護】滋賀県大津市高砂町1-1", "url": "https://www.kaigokensaku.mhlw.go.jp/25/index.php?action_kouhyou_detail_004_kani=true&JigyosyoCd=2570106399-00&ServiceCd=150&Type=search", "url2": "polaris.care/office/" }, "geometry": { "type": "Point", "coordinates": [ 135.8576199, 35.0388819 ] } },
{ "type": "Feature", "properties": { "内容": "共創ライフあをに工房大津堅田【通所介護】滋賀県大津市堅田1丁目15－43", "url": "https://www.kaigokensaku.mhlw.go.jp/25/index.php?action_kouhyou_detail_004_kani=true&JigyosyoCd=2570106035-00&ServiceCd=150&Type=search", "url2": "https://www.rirestage.co.jp" }, "geometry": { "type": "Point", "coordinates": [ 135.9109511, 35.1070343 ] } },
{ "type": "Feature", "properties": { "内容": "在宅リハビリテーション支援センター・デイサービス　リハビリパーク【通所介護】滋賀県大津市雄琴北一丁目14番21号　　（リハビリパーク　サテライト）滋賀県大津市衣川一丁目11番21号", "url": "https://www.kaigokensaku.mhlw.go.jp/25/index.php?action_kouhyou_detail_004_kani=true&JigyosyoCd=2570102588-00&ServiceCd=150&Type=search", "url2": "https://www.reha-park.co.jp/" }, "geometry": { "type": "Point", "coordinates": [ 135.897590878790339, 35.098253408255232 ] } },
{ "type": "Feature", "properties": { "内容": "デイサービスセンターレイクヒル琴【通所介護】滋賀県大津市雄琴一丁目13-25", "url": "https://www.kaigokensaku.mhlw.go.jp/25/index.php?action_kouhyou_detail_004_kani=true&JigyosyoCd=2570105003-00&ServiceCd=150&Type=search", "url2": "https://heart-lc.com/" }, "geometry": { "type": "Point", "coordinates": [ 135.894782, 35.0909538 ] } },
{ "type": "Feature", "properties": { "内容": "コンソルテ　リハビリデイ【通所介護】滋賀県大津市大江1丁目3番15号", "url": "https://www.kaigokensaku.mhlw.go.jp/25/index.php?action_kouhyou_detail_004_kani=true&JigyosyoCd=2570104493-00&ServiceCd=150&Type=search", "url2": "https://firmahabicht.net/" }, "geometry": { "type": "Point", "coordinates": [ 135.912440800000013, 34.986028 ] } },
{ "type": "Feature", "properties": { "内容": "ニチイケアセンターながら【通所介護】滋賀県大津市大門通16-45", "url": "https://www.kaigokensaku.mhlw.go.jp/25/index.php?action_kouhyou_detail_004_kani=true&JigyosyoCd=2570100152-00&ServiceCd=150&Type=search", "url2": "http://www.nichiigakkan.co.jp" }, "geometry": { "type": "Point", "coordinates": [ 135.8575267, 35.0148016 ] } },
{ "type": "Feature", "properties": { "内容": "真情デイ・サービス横木【通所介護】滋賀県大津市横木一丁目9番4号", "url": "https://www.kaigokensaku.mhlw.go.jp/25/index.php?action_kouhyou_detail_004_kani=true&JigyosyoCd=2570103545-00&ServiceCd=150&Type=search", "url2": "http://magokoro-ds.com/" }, "geometry": { "type": "Point", "coordinates": [ 135.8294843, 34.9914591 ] } },
{ "type": "Feature", "properties": { "内容": "デイサービスりんく大津　湖都ケ丘【通所介護】大津市雄琴3丁目13番20号", "url": "https://www.kaigokensaku.mhlw.go.jp/25/index.php?action_kouhyou_detail_004_kani=true&JigyosyoCd=2570101622-00&ServiceCd=150&Type=search", "url2": "http://www.link-otsu.jp/" }, "geometry": { "type": "Point", "coordinates": [ 135.902044700000033, 35.0990113 ] } },
{ "type": "Feature", "properties": { "内容": "ポラリスデイサービスセンター大津大江【通所介護】滋賀県大津市大江１丁目５番３５号", "url": "https://www.kaigokensaku.mhlw.go.jp/25/index.php?action_kouhyou_detail_004_kani=true&JigyosyoCd=2570105821-00&ServiceCd=150&Type=search", "url2": "https://www.polaris.care/company/summary.html" }, "geometry": { "type": "Point", "coordinates": [ 135.9117541, 34.9846013 ] } },
{ "type": "Feature", "properties": { "内容": "デイサービスあらいぜき【通所介護】滋賀県大津市南郷1-8-11", "url": "https://www.kaigokensaku.mhlw.go.jp/25/index.php?action_kouhyou_detail_004_kani=true&JigyosyoCd=2570103594-00&ServiceCd=150&Type=search", "url2": null }, "geometry": { "type": "Point", "coordinates": [ 135.9082955, 34.9447498 ] } },
{ "type": "Feature", "properties": { "内容": "デイサービスセンター真盛園【通所介護】滋賀県大津市坂本5丁目13-1", "url": "https://www.kaigokensaku.mhlw.go.jp/25/index.php?action_kouhyou_detail_004_kani=true&JigyosyoCd=2570100046-00&ServiceCd=150&Type=search", "url2": "http://www.sinseien.jp/" }, "geometry": { "type": "Point", "coordinates": [ 135.86855946640938, 35.080327406277185 ] } },
{ "type": "Feature", "properties": { "内容": "デイサービス勧学の里　見世館【通所介護】滋賀県大津市見世1丁目2-31", "url": "https://www.kaigokensaku.mhlw.go.jp/25/index.php?action_kouhyou_detail_004_kani=true&JigyosyoCd=2570106381-00&ServiceCd=150&Type=search", "url2": null }, "geometry": { "type": "Point", "coordinates": [ 135.860895510450746, 35.038225508939952 ] } },
{ "type": "Feature", "properties": { "内容": "おおぞらデイサービス【通所介護】滋賀県大津市大江二丁目３０－１１", "url": "https://www.kaigokensaku.mhlw.go.jp/25/index.php?action_kouhyou_detail_004_kani=true&JigyosyoCd=2570101663-00&ServiceCd=150&Type=search", "url2": "http://riverld.co.jp" }, "geometry": { "type": "Point", "coordinates": [ 135.9138934, 34.9764958 ] } },
{ "type": "Feature", "properties": { "内容": "リハビリデイサービスはるか【通所介護】滋賀県大津市見世二丁目１０番１０号", "url": "https://www.kaigokensaku.mhlw.go.jp/25/index.php?action_kouhyou_detail_004_kani=true&JigyosyoCd=2570106423-00&ServiceCd=150&Type=search", "url2": "https://dayservice-haruka.net/" }, "geometry": { "type": "Point", "coordinates": [ 135.8614849, 35.0427346 ] } },
{ "type": "Feature", "properties": { "内容": "デイサービスクラシックメデカ大津【通所介護】逢坂1丁目4-36ザ・クラッシクメデカマンション大津", "url": "https://www.kaigokensaku.mhlw.go.jp/25/index.php?action_kouhyou_detail_004_kani=true&JigyosyoCd=2570106449-00&ServiceCd=150&Type=search", "url2": "https://sangajapan.jp/cmm-otsu1/cmm-otsu101/" }, "geometry": { "type": "Point", "coordinates": [ 135.8629513, 35.0029147 ] } },
{ "type": "Feature", "properties": { "内容": "リハビリデイサービス満月【通所介護】滋賀県大津市坂本6丁目9-60", "url": "https://www.kaigokensaku.mhlw.go.jp/25/index.php?action_kouhyou_detail_004_kani=true&JigyosyoCd=2570106100-00&ServiceCd=150&Type=search", "url2": "http://www.mangetsu-rehabili.com" }, "geometry": { "type": "Point", "coordinates": [ 135.871917200000013, 35.0758985 ] } },
{ "type": "Feature", "properties": { "内容": "ツクイ大津神領【通所介護】滋賀県大津市神領２丁目３２番２１号", "url": "https://www.kaigokensaku.mhlw.go.jp/25/index.php?action_kouhyou_detail_004_kani=true&JigyosyoCd=2570105375-00&ServiceCd=150&Type=search", "url2": "http://www.tsukui.net" }, "geometry": { "type": "Point", "coordinates": [ 135.8552084, 35.0178371 ] } },
{ "type": "Feature", "properties": { "内容": "デイサービスセンター寿安【通所介護】滋賀県彦根市新海浜一丁目９番地５", "url": "https://www.kaigokensaku.mhlw.go.jp/25/index.php?action_kouhyou_detail_004_kani=true&JigyosyoCd=2570201224-00&ServiceCd=150&Type=search", "url2": "http:/care39.net/" }, "geometry": { "type": "Point", "coordinates": [ 136.119668499999989, 35.2160513 ] } },
{ "type": "Feature", "properties": { "内容": "彦根市ふたばデイサービスセンター【通所介護】彦根市金剛寺町95番地の1", "url": "https://www.kaigokensaku.mhlw.go.jp/25/index.php?action_kouhyou_detail_004_kani=true&JigyosyoCd=2570200382-00&ServiceCd=150&Type=search", "url2": "http://www.yujin-yamazaki.co.jp/hutaba.html" }, "geometry": { "type": "Point", "coordinates": [ 136.239631599999939, 35.233701 ] } },
{ "type": "Feature", "properties": { "内容": "デイサービスよもぎの里【通所介護】滋賀県彦根市平田町901番", "url": "https://www.kaigokensaku.mhlw.go.jp/25/index.php?action_kouhyou_detail_004_kani=true&JigyosyoCd=2570200879-00&ServiceCd=150&Type=search", "url2": "hi-yomogi.com" }, "geometry": { "type": "Point", "coordinates": [ 136.246646899999973, 35.2556016 ] } },
{ "type": "Feature", "properties": { "内容": "彦根市佐和山デイサービスセンター【通所介護】芹川町484-4", "url": "https://www.kaigokensaku.mhlw.go.jp/25/index.php?action_kouhyou_detail_004_kani=true&JigyosyoCd=2570200267-00&ServiceCd=150&Type=search", "url2": "http://www.yujin-yamazaki.co.jp/sawayam.html" }, "geometry": { "type": "Point", "coordinates": [ 136.264206, 35.2625599 ] } },
{ "type": "Feature", "properties": { "内容": "デイホームゆりの木彦根【通所介護】滋賀県彦根市松原町字松中1136-1", "url": "https://www.kaigokensaku.mhlw.go.jp/25/index.php?action_kouhyou_detail_004_kani=true&JigyosyoCd=2570201414-00&ServiceCd=150&Type=search", "url2": "https://senior-life.jp/service/yuri.php" }, "geometry": { "type": "Point", "coordinates": [ 136.252730571079638, 35.288940009023179 ] } },
{ "type": "Feature", "properties": { "内容": "正風園　旭森デイサービスセンターくるま座【通所介護】滋賀県　彦根市　野田山町　1099-1番地", "url": "https://www.kaigokensaku.mhlw.go.jp/25/index.php?action_kouhyou_detail_004_kani=true&JigyosyoCd=2570200374-00&ServiceCd=150&Type=search", "url2": "www.taijyukai.net" }, "geometry": { "type": "Point", "coordinates": [ 136.2736724, 35.247712 ] } },
{ "type": "Feature", "properties": { "内容": "デイサービスりはたま【通所介護】滋賀県彦根市平田町162番地15", "url": "https://www.kaigokensaku.mhlw.go.jp/25/index.php?action_kouhyou_detail_004_kani=true&JigyosyoCd=2570200747-00&ServiceCd=150&Type=search", "url2": "oozora-care.com" }, "geometry": { "type": "Point", "coordinates": [ 136.246048110511737, 35.262500926678783 ] } },
{ "type": "Feature", "properties": { "内容": "デイサービス　スリースターズ【通所介護】滋賀県彦根市開出今町1414-6　TJF-KAI1・2", "url": "https://www.kaigokensaku.mhlw.go.jp/25/index.php?action_kouhyou_detail_004_kani=true&JigyosyoCd=2570201620-00&ServiceCd=150&Type=search", "url2": "https://www.oozora-care.com/" }, "geometry": { "type": "Point", "coordinates": [ 136.229774624872391, 35.260639792619848 ] } },
{ "type": "Feature", "properties": { "内容": "ＪＡ東びわこデイサービスセンターたかみや【通所介護】滋賀県彦根市高宮町１０１７－２", "url": "https://www.kaigokensaku.mhlw.go.jp/25/index.php?action_kouhyou_detail_004_kani=true&JigyosyoCd=2570201349-00&ServiceCd=150&Type=search", "url2": "ｈｔｔｐ：//ｗｗｗ．ｅａｓｔ．ｊａｓ．ｏｒ．ｊｐ" }, "geometry": { "type": "Point", "coordinates": [ 136.259688500000038, 35.2365768 ] } },
{ "type": "Feature", "properties": { "内容": "シンシア彦根鳥居本【通所介護】滋賀県彦根市鳥居本町1389-1", "url": "https://www.kaigokensaku.mhlw.go.jp/25/index.php?action_kouhyou_detail_004_kani=true&JigyosyoCd=2570201810-00&ServiceCd=150&Type=search", "url2": null }, "geometry": { "type": "Point", "coordinates": [ 136.2901311, 35.2826172 ] } },
{ "type": "Feature", "properties": { "内容": "デイサービスセンターべるふらっと【通所介護】滋賀県彦根市平田町258-3", "url": "https://www.kaigokensaku.mhlw.go.jp/25/index.php?action_kouhyou_detail_004_kani=true&JigyosyoCd=2570200028-00&ServiceCd=150&Type=search", "url2": "http://suzukihealthcare.co.jp" }, "geometry": { "type": "Point", "coordinates": [ 136.242383099999984, 35.2601675 ] } },
{ "type": "Feature", "properties": { "内容": "ＪＡ東びわこデイサービスセンター【通所介護】滋賀県彦根市賀田山町234-6", "url": "https://www.kaigokensaku.mhlw.go.jp/25/index.php?action_kouhyou_detail_004_kani=true&JigyosyoCd=2570200101-00&ServiceCd=150&Type=search", "url2": "http://www/east.jas.or.jp" }, "geometry": { "type": "Point", "coordinates": [ 136.213344799999959, 35.2204509 ] } },
{ "type": "Feature", "properties": { "内容": "彦根市デイサービスセンターきらら【通所介護】彦根市川瀬馬場町1015-1", "url": "https://www.kaigokensaku.mhlw.go.jp/25/index.php?action_kouhyou_detail_004_kani=true&JigyosyoCd=2570200325-00&ServiceCd=150&Type=search", "url2": "http://www.toyosato.or.jp/index.html" }, "geometry": { "type": "Point", "coordinates": [ 136.22129659999996, 35.2293005 ] } },
{ "type": "Feature", "properties": { "内容": "さざなみ苑デイサービスセンター【通所介護】滋賀県彦根市城町二丁目13番3号", "url": "https://www.kaigokensaku.mhlw.go.jp/25/index.php?action_kouhyou_detail_004_kani=true&JigyosyoCd=2570200341-00&ServiceCd=150&Type=search", "url2": "https://sazanamikai1411.com" }, "geometry": { "type": "Point", "coordinates": [ 136.242006219049017, 35.277306962676249 ] } },
{ "type": "Feature", "properties": { "内容": "デイサービスがじゅまる【通所介護】川瀬馬場町1082-1", "url": "https://www.kaigokensaku.mhlw.go.jp/25/index.php?action_kouhyou_detail_004_kani=true&JigyosyoCd=2570201653-00&ServiceCd=150&Type=search", "url2": null }, "geometry": { "type": "Point", "coordinates": [ 136.2241211, 35.2280039 ] } },
{ "type": "Feature", "properties": { "内容": "ニチイケアセンター彦根【通所介護】西葛籠町311-6", "url": "https://www.kaigokensaku.mhlw.go.jp/25/index.php?action_kouhyou_detail_004_kani=true&JigyosyoCd=2570200184-00&ServiceCd=150&Type=search", "url2": "http://www.nichiigakkan.co.jp/" }, "geometry": { "type": "Point", "coordinates": [ 136.2402955, 35.2255519 ] } },
{ "type": "Feature", "properties": { "内容": "ニチイケアセンター大藪【通所介護】彦根市大藪町2505-1", "url": "https://www.kaigokensaku.mhlw.go.jp/25/index.php?action_kouhyou_detail_004_kani=true&JigyosyoCd=2570200283-00&ServiceCd=150&Type=search", "url2": "http://www.nichiigakkan.co.jp" }, "geometry": { "type": "Point", "coordinates": [ 136.235100200000034, 35.2624945 ] } },
{ "type": "Feature", "properties": { "内容": "仄香の郷地蔵デイサービスセンター【通所介護】彦根市地蔵町73-2", "url": "https://www.kaigokensaku.mhlw.go.jp/25/index.php?action_kouhyou_detail_004_kani=true&JigyosyoCd=2570200614-00&ServiceCd=150&Type=search", "url2": "http://www.iscare.co.jp" }, "geometry": { "type": "Point", "coordinates": [ 136.269122155407814, 35.256498038756483 ] } },
{ "type": "Feature", "properties": { "内容": "彦根市南デイサービスセンター【通所介護】滋賀県彦根市田原町13-2", "url": "https://www.kaigokensaku.mhlw.go.jp/25/index.php?action_kouhyou_detail_004_kani=true&JigyosyoCd=2570201612-00&ServiceCd=150&Type=search", "url2": "https://homesweethome.jp" }, "geometry": { "type": "Point", "coordinates": [ 136.1804244, 35.2135325 ] } },
{ "type": "Feature", "properties": { "内容": "シンシア彦根【通所介護】滋賀県彦根市高宮町2426-1", "url": "https://www.kaigokensaku.mhlw.go.jp/25/index.php?action_kouhyou_detail_004_kani=true&JigyosyoCd=2570201547-00&ServiceCd=150&Type=search", "url2": "https://www.sincere-gri.com" }, "geometry": { "type": "Point", "coordinates": [ 136.259407900000014, 35.2364899 ] } },
{ "type": "Feature", "properties": { "内容": "彦根ひらたデイサービス【通所介護】滋賀県彦根市平田町448-1ひらた翔裕館Ⅱ号館", "url": "https://www.kaigokensaku.mhlw.go.jp/25/index.php?action_kouhyou_detail_004_kani=true&JigyosyoCd=2570201562-00&ServiceCd=150&Type=search", "url2": "https://www.sanga-kaigo.co.jp/" }, "geometry": { "type": "Point", "coordinates": [ 136.2384552, 35.2605948 ] } },
{ "type": "Feature", "properties": { "内容": "彦根ケアセンターそよ風【通所介護】駅東町2-3", "url": "https://www.kaigokensaku.mhlw.go.jp/25/index.php?action_kouhyou_detail_004_kani=true&JigyosyoCd=2570201604-00&ServiceCd=150&Type=search", "url2": "https://www.sykz.co.jp/shisetsu-zaitaku/254493" }, "geometry": { "type": "Point", "coordinates": [ 136.2647952, 35.2706709 ] } },
{ "type": "Feature", "properties": { "内容": "デイサービスさくら【通所介護】平田町１３６－５ハピネス", "url": "https://www.kaigokensaku.mhlw.go.jp/25/index.php?action_kouhyou_detail_004_kani=true&JigyosyoCd=2570200994-00&ServiceCd=150&Type=search", "url2": "http://2018sakura.com/" }, "geometry": { "type": "Point", "coordinates": [ 136.247054409230941, 35.262445708506007 ] } },
{ "type": "Feature", "properties": { "内容": "デイサービスはるのうみ【通所介護】西今町369-1", "url": "https://www.kaigokensaku.mhlw.go.jp/25/index.php?action_kouhyou_detail_004_kani=true&JigyosyoCd=2570201679-00&ServiceCd=150&Type=search", "url2": "http://www.hikone-rehacl.com/" }, "geometry": { "type": "Point", "coordinates": [ 136.242015299999963, 35.2481051 ] } },
{ "type": "Feature", "properties": { "内容": "ツクイ彦根平田【通所介護】滋賀県彦根市平田町589-1", "url": "https://www.kaigokensaku.mhlw.go.jp/25/index.php?action_kouhyou_detail_004_kani=true&JigyosyoCd=2570201539-00&ServiceCd=150&Type=search", "url2": "https://www.tsukui.net/home-care/2429/" }, "geometry": { "type": "Point", "coordinates": [ 136.2379953, 35.2565761 ] } },
{ "type": "Feature", "properties": { "内容": "サニープレイス河瀬デイサービス【通所介護】滋賀県彦根市川瀬馬場町９７１番地１", "url": "https://www.kaigokensaku.mhlw.go.jp/25/index.php?action_kouhyou_detail_004_kani=true&JigyosyoCd=2570201398-00&ServiceCd=150&Type=search", "url2": "hinatakonon.jp" }, "geometry": { "type": "Point", "coordinates": [ 136.224332499999946, 35.2277203 ] } },
{ "type": "Feature", "properties": { "内容": "ORANGE【通所介護】滋賀県長浜市曽根町1248", "url": "https://www.kaigokensaku.mhlw.go.jp/25/index.php?action_kouhyou_detail_004_kani=true&JigyosyoCd=2570301776-00&ServiceCd=150&Type=search", "url2": "https://tanakacare.co.jp/" }, "geometry": { "type": "Point", "coordinates": [ 136.25123450000001, 35.4032397 ] } },
{ "type": "Feature", "properties": { "内容": "デイサービスいろはの湯【通所介護】滋賀県長浜市宮部町3445番地　長浜市役所虎姫支所　生きがいセンター内", "url": "https://www.kaigokensaku.mhlw.go.jp/25/index.php?action_kouhyou_detail_004_kani=true&JigyosyoCd=2570300950-00&ServiceCd=150&Type=search", "url2": "http://www.nagahama-shakyo.or.jp" }, "geometry": { "type": "Point", "coordinates": [ 136.266441500000042, 35.422085 ] } },
{ "type": "Feature", "properties": { "内容": "社会福祉法人長浜市社会福祉協議会神照リハビリデイサービス【通所介護】滋賀県長浜市神照町288-1長浜市北部福祉ステーション", "url": "https://www.kaigokensaku.mhlw.go.jp/25/index.php?action_kouhyou_detail_004_kani=true&JigyosyoCd=2570300489-00&ServiceCd=150&Type=search", "url2": "http://www.nagahama-shakyo.or.jp/" }, "geometry": { "type": "Point", "coordinates": [ 136.2757332, 35.3984763 ] } },
{ "type": "Feature", "properties": { "内容": "いきいきサロン『おたっしゃ倶楽部』【通所介護】滋賀県長浜市高月町柏原1055", "url": "https://www.kaigokensaku.mhlw.go.jp/25/index.php?action_kouhyou_detail_004_kani=true&JigyosyoCd=2570300919-00&ServiceCd=150&Type=search", "url2": "http://www.care-care.jp/hp/otassya/" }, "geometry": { "type": "Point", "coordinates": [ 136.2445318, 35.4787947 ] } },
{ "type": "Feature", "properties": { "内容": "リハビリデイサービス東部【通所介護】滋賀県長浜市東上坂町１０００長浜東部福祉ステーション", "url": "https://www.kaigokensaku.mhlw.go.jp/25/index.php?action_kouhyou_detail_004_kani=true&JigyosyoCd=2570300471-00&ServiceCd=150&Type=search", "url2": "http://www.nagahama-shakyo.or.jp/" }, "geometry": { "type": "Point", "coordinates": [ 136.319675099999984, 35.401406 ] } },
{ "type": "Feature", "properties": { "内容": "社会福祉法人芳醇会　ケアステーションかけはし通所介護事業所【通所介護】滋賀県長浜市湖北町山本4290", "url": "https://www.kaigokensaku.mhlw.go.jp/25/index.php?action_kouhyou_detail_004_kani=true&JigyosyoCd=2570300802-00&ServiceCd=150&Type=search", "url2": "http://www.care-station-kakehashi.com/" }, "geometry": { "type": "Point", "coordinates": [ 136.215439899999978, 35.4420083 ] } },
{ "type": "Feature", "properties": { "内容": "リハビリデイサービス　伊香の里アネックス【通所介護】滋賀県長浜市木之本町千田５３番地", "url": "https://www.kaigokensaku.mhlw.go.jp/25/index.php?action_kouhyou_detail_004_kani=true&JigyosyoCd=2570300984-00&ServiceCd=150&Type=search", "url2": "http://www.nagahama-shakyo.or.jp/" }, "geometry": { "type": "Point", "coordinates": [ 136.2276832, 35.4988202 ] } },
{ "type": "Feature", "properties": { "内容": "リハビリデイサービス西浅井【通所介護】滋賀県長浜市西浅井町塩津浜１７９５", "url": "https://www.kaigokensaku.mhlw.go.jp/25/index.php?action_kouhyou_detail_004_kani=true&JigyosyoCd=2570301008-00&ServiceCd=150&Type=search", "url2": "http://www.nagahama-shakyo.or.jp/" }, "geometry": { "type": "Point", "coordinates": [ 136.1595469, 35.5224765 ] } },
{ "type": "Feature", "properties": { "内容": "長浜市社会福祉協議会　しゃきょうデイサービス伊香の里【通所介護】滋賀県長浜市木之本町黒田1221", "url": "https://www.kaigokensaku.mhlw.go.jp/25/index.php?action_kouhyou_detail_004_kani=true&JigyosyoCd=2570301339-00&ServiceCd=150&Type=search", "url2": "http://www.nagahama-shakyo.or.jp/" }, "geometry": { "type": "Point", "coordinates": [ 136.212406500000043, 35.5046661 ] } },
{ "type": "Feature", "properties": { "内容": "デイサービスセンターアリビオ【通所介護】滋賀県長浜市加田町1402-6", "url": "https://www.kaigokensaku.mhlw.go.jp/25/index.php?action_kouhyou_detail_004_kani=true&JigyosyoCd=2570301503-00&ServiceCd=150&Type=search", "url2": "https://askacare.com" }, "geometry": { "type": "Point", "coordinates": [ 136.2986387, 35.3672666 ] } },
{ "type": "Feature", "properties": { "内容": "デイプラザゆるりはNEXT【通所介護】滋賀県長浜市小堀町１１８－１", "url": "https://www.kaigokensaku.mhlw.go.jp/25/index.php?action_kouhyou_detail_004_kani=true&JigyosyoCd=2570301529-00&ServiceCd=150&Type=search", "url2": "http://www.yururiha.com" }, "geometry": { "type": "Point", "coordinates": [ 136.2901908, 35.3872638 ] } },
{ "type": "Feature", "properties": { "内容": "田中ケアサービス株式会社　長浜支援センター　デイサービス『よっといで』【通所介護】滋賀県長浜市祇園町148-1", "url": "https://www.kaigokensaku.mhlw.go.jp/25/index.php?action_kouhyou_detail_004_kani=true&JigyosyoCd=2570300224-00&ServiceCd=150&Type=search", "url2": "http://www.tanakacare.co.jp/" }, "geometry": { "type": "Point", "coordinates": [ 136.259418, 35.3860078 ] } },
{ "type": "Feature", "properties": { "内容": "リハビリデイサービス湖北【通所介護】滋賀県長浜市湖北町速水１８６０番地", "url": "https://www.kaigokensaku.mhlw.go.jp/25/index.php?action_kouhyou_detail_004_kani=true&JigyosyoCd=2570300968-00&ServiceCd=150&Type=search", "url2": "http://www.nagahama-shakyo.or.jp" }, "geometry": { "type": "Point", "coordinates": [ 136.242628599999989, 35.4509889 ] } },
{ "type": "Feature", "properties": { "内容": "ニチイケアセンター六荘【通所介護】滋賀県長浜市勝町452", "url": "https://www.kaigokensaku.mhlw.go.jp/25/index.php?action_kouhyou_detail_004_kani=true&JigyosyoCd=2570300240-00&ServiceCd=150&Type=search", "url2": "http://www.nichiigakkan.co.jp" }, "geometry": { "type": "Point", "coordinates": [ 136.287023800000043, 35.3727408 ] } },
{ "type": "Feature", "properties": { "内容": "リハビリデイサービス浅井【通所介護】滋賀県長浜市今荘町859-1", "url": "https://www.kaigokensaku.mhlw.go.jp/25/index.php?action_kouhyou_detail_004_kani=true&JigyosyoCd=2570300505-00&ServiceCd=150&Type=search", "url2": "www.nagahama-shakyo.or.jp" }, "geometry": { "type": "Point", "coordinates": [ 136.339374899999939, 35.414073 ] } },
{ "type": "Feature", "properties": { "内容": "医療法人東川クリニック　通所介護施設　ぽっぽ【通所介護】滋賀県長浜市落合町２３９", "url": "https://www.kaigokensaku.mhlw.go.jp/25/index.php?action_kouhyou_detail_004_kani=true&JigyosyoCd=2570300711-00&ServiceCd=150&Type=search", "url2": null }, "geometry": { "type": "Point", "coordinates": [ 136.238606399999981, 35.4131178 ] } },
{ "type": "Feature", "properties": { "内容": "ニチイケアセンター木之本【通所介護】長浜市木之本町木之本1587-4", "url": "https://www.kaigokensaku.mhlw.go.jp/25/index.php?action_kouhyou_detail_004_kani=true&JigyosyoCd=2570300851-00&ServiceCd=150&Type=search", "url2": "http://www.nichiigakkan.co.jp" }, "geometry": { "type": "Point", "coordinates": [ 136.218814299999963, 35.5031722 ] } },
{ "type": "Feature", "properties": { "内容": "なごみ庵はる【通所介護】滋賀県長浜市富田町482-1", "url": "https://www.kaigokensaku.mhlw.go.jp/25/index.php?action_kouhyou_detail_004_kani=true&JigyosyoCd=2570301024-00&ServiceCd=150&Type=search", "url2": "https://konet.or.jp/" }, "geometry": { "type": "Point", "coordinates": [ 136.223108300000035, 35.4256881 ] } },
{ "type": "Feature", "properties": { "内容": "ポラリスデイサービスセンター長浜【通所介護】滋賀県長浜市宮司町８４９", "url": "https://www.kaigokensaku.mhlw.go.jp/25/index.php?action_kouhyou_detail_004_kani=true&JigyosyoCd=2570301545-00&ServiceCd=150&Type=search", "url2": "http://www.polaris.care/" }, "geometry": { "type": "Point", "coordinates": [ 136.28986350552259, 35.380472537841591 ] } },
{ "type": "Feature", "properties": { "内容": "デイサービス　すみれ珈琲【通所介護】滋賀県長浜市高月町東物部37-1", "url": "https://www.kaigokensaku.mhlw.go.jp/25/index.php?action_kouhyou_detail_004_kani=true&JigyosyoCd=2570301552-00&ServiceCd=150&Type=search", "url2": "http://www.rehaplus.co.jp/" }, "geometry": { "type": "Point", "coordinates": [ 136.229606077667228, 35.482152584006037 ] } },
{ "type": "Feature", "properties": { "内容": "リハビリデイサービススマイ【通所介護】滋賀県長浜市相撲町138番地", "url": "https://www.kaigokensaku.mhlw.go.jp/25/index.php?action_kouhyou_detail_004_kani=true&JigyosyoCd=2570301727-00&ServiceCd=150&Type=search", "url2": null }, "geometry": { "type": "Point", "coordinates": [ 136.25620939999996, 35.3919329 ] } },
{ "type": "Feature", "properties": { "内容": "長浜西部デイサービスセンター【通所介護】滋賀県長浜市朝日町１９－３", "url": "https://www.kaigokensaku.mhlw.go.jp/25/index.php?action_kouhyou_detail_004_kani=true&JigyosyoCd=2570300257-00&ServiceCd=150&Type=search", "url2": "http://www.seishokai.jp/seijoen" }, "geometry": { "type": "Point", "coordinates": [ 136.270814200000018, 35.3775286 ] } },
{ "type": "Feature", "properties": { "内容": "アンタレスデイサービスセンター【通所介護】滋賀県長浜市加田町3360", "url": "https://www.kaigokensaku.mhlw.go.jp/25/index.php?action_kouhyou_detail_004_kani=true&JigyosyoCd=2570300661-00&ServiceCd=150&Type=search", "url2": "https://www.seishokai.jp/antares" }, "geometry": { "type": "Point", "coordinates": [ 136.304977300000019, 35.3610679 ] } },
{ "type": "Feature", "properties": { "内容": "余呉はごろも村　やまなみデイサービス【通所介護】滋賀県長浜市余呉町中之郷2434番地", "url": "https://www.kaigokensaku.mhlw.go.jp/25/index.php?action_kouhyou_detail_004_kani=true&JigyosyoCd=2570300927-00&ServiceCd=150&Type=search", "url2": null }, "geometry": { "type": "Point", "coordinates": [ 136.2041372, 35.5423889 ] } },
{ "type": "Feature", "properties": { "内容": "デイサービスつどい【通所介護】常喜町671-1", "url": "https://www.kaigokensaku.mhlw.go.jp/25/index.php?action_kouhyou_detail_004_kani=true&JigyosyoCd=2570301495-00&ServiceCd=150&Type=search", "url2": "http://tsudoi.sakura.ne.jp" }, "geometry": { "type": "Point", "coordinates": [ 136.312422929727745, 35.369137539543146 ] } },
{ "type": "Feature", "properties": { "内容": "デイサービスセンターひととき【通所介護】滋賀県長浜市唐国町260-2", "url": "https://www.kaigokensaku.mhlw.go.jp/25/index.php?action_kouhyou_detail_004_kani=true&JigyosyoCd=2570301180-00&ServiceCd=150&Type=search", "url2": null }, "geometry": { "type": "Point", "coordinates": [ 136.24808859999996, 35.4158067 ] } },
{ "type": "Feature", "properties": { "内容": "デイサービスセンター青芳【通所介護】滋賀県長浜市川道町2572", "url": "https://www.kaigokensaku.mhlw.go.jp/25/index.php?action_kouhyou_detail_004_kani=true&JigyosyoCd=2570300372-00&ServiceCd=150&Type=search", "url2": "seiho@seishokai.jp/seiho" }, "geometry": { "type": "Point", "coordinates": [ 136.2353402, 35.4030773 ] } },
{ "type": "Feature", "properties": { "内容": "よりあい処いっぷく家【通所介護】滋賀県長浜市木之本町木之本2015", "url": "https://www.kaigokensaku.mhlw.go.jp/25/index.php?action_kouhyou_detail_004_kani=true&JigyosyoCd=2570300869-00&ServiceCd=150&Type=search", "url2": "a.matsui@care.tanaka-hd.jp" }, "geometry": { "type": "Point", "coordinates": [ 136.223011199999974, 35.5006588 ] } },
{ "type": "Feature", "properties": { "内容": "ふくら通所介護事業所【通所介護】長浜市内保町４８０番地", "url": "https://www.kaigokensaku.mhlw.go.jp/25/index.php?action_kouhyou_detail_004_kani=true&JigyosyoCd=2570301065-00&ServiceCd=150&Type=search", "url2": "ｈｔｔｐ://glow.or.jp" }, "geometry": { "type": "Point", "coordinates": [ 136.3014518, 35.4319508 ] } },
{ "type": "Feature", "properties": { "内容": "しゃきょうデイサービス高月【通所介護】滋賀県長浜市高月町西物部73-1", "url": "https://www.kaigokensaku.mhlw.go.jp/25/index.php?action_kouhyou_detail_004_kani=true&JigyosyoCd=2570300976-00&ServiceCd=150&Type=search", "url2": "www.nagahama-shakyo.or.jp/" }, "geometry": { "type": "Point", "coordinates": [ 136.224484100000041, 35.470656 ] } },
{ "type": "Feature", "properties": { "内容": "七条つどい【通所介護】滋賀県長浜市七条町320-4七条つどい", "url": "https://www.kaigokensaku.mhlw.go.jp/25/index.php?action_kouhyou_detail_004_kani=true&JigyosyoCd=2570301487-00&ServiceCd=150&Type=search", "url2": "sichijyoutudoi01@gmail.com" }, "geometry": { "type": "Point", "coordinates": [ 136.316455, 35.3897619 ] } },
{ "type": "Feature", "properties": { "内容": "ツクイ長浜神前【通所介護】滋賀県長浜市神前町11-25", "url": "https://www.kaigokensaku.mhlw.go.jp/25/index.php?action_kouhyou_detail_004_kani=true&JigyosyoCd=2570301628-00&ServiceCd=150&Type=search", "url2": null }, "geometry": { "type": "Point", "coordinates": [ 136.2749168, 35.385191 ] } },
{ "type": "Feature", "properties": { "内容": "デイサービスももあん【通所介護】滋賀県長浜市下坂浜町８０番地1", "url": "https://www.kaigokensaku.mhlw.go.jp/25/index.php?action_kouhyou_detail_004_kani=true&JigyosyoCd=2570301156-00&ServiceCd=150&Type=search", "url2": null }, "geometry": { "type": "Point", "coordinates": [ 136.274883199999977, 35.3683688 ] } },
{ "type": "Feature", "properties": { "内容": "デイサービス　庄助【通所介護】滋賀県高月町柏原８５", "url": "https://www.kaigokensaku.mhlw.go.jp/25/index.php?action_kouhyou_detail_004_kani=true&JigyosyoCd=2570301362-00&ServiceCd=150&Type=search", "url2": "https://www.facebook.com/Shosuke.inc/" }, "geometry": { "type": "Point", "coordinates": [ 136.240273706062567, 35.478691996289136 ] } },
{ "type": "Feature", "properties": { "内容": "レッツ倶楽部たかはし近江八幡【通所介護】滋賀県近江八幡市出町653六芳舎ビル１F", "url": "https://www.kaigokensaku.mhlw.go.jp/25/index.php?action_kouhyou_detail_004_kani=true&JigyosyoCd=2570400784-00&ServiceCd=150&Type=search", "url2": "http://www.lets-club.jp/shop/takahashi-omihachiman/" }, "geometry": { "type": "Point", "coordinates": [ 136.099623100000031, 35.1314299 ] } },
{ "type": "Feature", "properties": { "内容": "ツクイ近江八幡鷹飼【通所介護】近江八幡市鷹飼町北4丁目21番地2号", "url": "https://www.kaigokensaku.mhlw.go.jp/25/index.php?action_kouhyou_detail_004_kani=true&JigyosyoCd=2570400941-00&ServiceCd=150&Type=search", "url2": "https://www.tsukui.net/home-care/2585/" }, "geometry": { "type": "Point", "coordinates": [ 136.101774, 35.1276746 ] } },
{ "type": "Feature", "properties": { "内容": "ＪＡグリーン近江　デイサービスセンター　のどか【通所介護】滋賀県近江八幡市中小森町１１３８", "url": "https://www.kaigokensaku.mhlw.go.jp/25/index.php?action_kouhyou_detail_004_kani=true&JigyosyoCd=2570400024-00&ServiceCd=150&Type=search", "url2": null }, "geometry": { "type": "Point", "coordinates": [ 136.0831111, 35.1097994 ] } },
{ "type": "Feature", "properties": { "内容": "オアシスデイサービスセンター【通所介護】近江八幡市馬渕町６９０番地", "url": "https://www.kaigokensaku.mhlw.go.jp/25/index.php?action_kouhyou_detail_004_kani=true&JigyosyoCd=2570400065-00&ServiceCd=150&Type=search", "url2": "https://oasisdayservice.jp" }, "geometry": { "type": "Point", "coordinates": [ 136.117568399999982, 35.0963541 ] } },
{ "type": "Feature", "properties": { "内容": "デイサービスセンターむべの里【通所介護】滋賀県近江八幡市北之庄町1103", "url": "https://www.kaigokensaku.mhlw.go.jp/25/index.php?action_kouhyou_detail_004_kani=true&JigyosyoCd=2570400081-00&ServiceCd=150&Type=search", "url2": "http://www.kohitujikai/net/mube/" }, "geometry": { "type": "Point", "coordinates": [ 136.089246633729545, 35.14574564573369 ] } },
{ "type": "Feature", "properties": { "内容": "デイサービスセンターひまわり【通所介護】滋賀県近江八幡市土田町1313番地近江八幡市総合福祉センターひまわり館内", "url": "https://www.kaigokensaku.mhlw.go.jp/25/index.php?action_kouhyou_detail_004_kani=true&JigyosyoCd=2570400453-00&ServiceCd=150&Type=search", "url2": "http://www.shakyo.orjp/hp/1117/" }, "geometry": { "type": "Point", "coordinates": [ 136.0928073, 35.127272 ] } },
{ "type": "Feature", "properties": { "内容": "デイサービスセンター赤煉瓦の郷【通所介護】近江八幡市船木町59番地３", "url": "https://www.kaigokensaku.mhlw.go.jp/25/index.php?action_kouhyou_detail_004_kani=true&JigyosyoCd=2570400016-00&ServiceCd=150&Type=search", "url2": "https://ichizenkai.com/" }, "geometry": { "type": "Point", "coordinates": [ 136.080450199999973, 35.137826 ] } },
{ "type": "Feature", "properties": { "内容": "水茎の里デイサービスセンター【通所介護】滋賀県近江八幡市牧町1885番地", "url": "https://www.kaigokensaku.mhlw.go.jp/25/index.php?action_kouhyou_detail_004_kani=true&JigyosyoCd=2570400073-00&ServiceCd=150&Type=search", "url2": "http://www.ii.kaigo.or.jp" }, "geometry": { "type": "Point", "coordinates": [ 136.048592099999951, 35.1400755 ] } },
{ "type": "Feature", "properties": { "内容": "デイサービスセンターふれあい【通所介護】滋賀県近江八幡市上田町1315-1", "url": "https://www.kaigokensaku.mhlw.go.jp/25/index.php?action_kouhyou_detail_004_kani=true&JigyosyoCd=2570400818-00&ServiceCd=150&Type=search", "url2": "https://www.honobonokai.com" }, "geometry": { "type": "Point", "coordinates": [ 136.111632800000052, 35.116851600000011 ] } },
{ "type": "Feature", "properties": { "内容": "パナソニックエイジフリーケアセンター草津・デイサービス【通所介護】滋賀県草津市草津町1742番1", "url": "https://www.kaigokensaku.mhlw.go.jp/25/index.php?action_kouhyou_detail_004_kani=true&JigyosyoCd=2570601621-00&ServiceCd=150&Type=search", "url2": "https://panasonic.co.jp/ls/paf/" }, "geometry": { "type": "Point", "coordinates": [ 135.95423167805518, 35.014092982282136 ] } },
{ "type": "Feature", "properties": { "内容": "デイサービス暖団　草津【通所介護】滋賀県草津市野村7丁目17-11", "url": "https://www.kaigokensaku.mhlw.go.jp/25/index.php?action_kouhyou_detail_004_kani=true&JigyosyoCd=2570600920-00&ServiceCd=150&Type=search", "url2": "http://www.nippon-shooter.co.jp/prod/lifecare/dayservice/" }, "geometry": { "type": "Point", "coordinates": [ 135.956769099999974, 35.0295761 ] } },
{ "type": "Feature", "properties": { "内容": "草津市上笠デイサービスセンター湯楽里【通所介護】草津市上笠1丁目9番11号", "url": "https://www.kaigokensaku.mhlw.go.jp/25/index.php?action_kouhyou_detail_004_kani=true&JigyosyoCd=2570600094-00&ServiceCd=150&Type=search", "url2": "http://popura.or.jp" }, "geometry": { "type": "Point", "coordinates": [ 135.949903135581991, 35.033960292449635 ] } },
{ "type": "Feature", "properties": { "内容": "デイサービス　ティエールみなみ草津【通所介護】滋賀県草津市東矢倉二丁目2番33号", "url": "https://www.kaigokensaku.mhlw.go.jp/25/index.php?action_kouhyou_detail_004_kani=true&JigyosyoCd=2570601472-00&ServiceCd=150&Type=search", "url2": null }, "geometry": { "type": "Point", "coordinates": [ 135.956097600000021, 35.0071072 ] } },
{ "type": "Feature", "properties": { "内容": "誠光福祉会　デイサービスセンターなぎさ【通所介護】滋賀県草津市集町260-1", "url": "https://www.kaigokensaku.mhlw.go.jp/25/index.php?action_kouhyou_detail_004_kani=true&JigyosyoCd=2570601613-00&ServiceCd=150&Type=search", "url2": "http://kaigo-nagisa.com/" }, "geometry": { "type": "Point", "coordinates": [ 135.950300500000026, 35.041488100000016 ] } },
{ "type": "Feature", "properties": { "内容": "株式会社夕照【通所介護】滋賀県草津市矢橋町7-8", "url": "https://www.kaigokensaku.mhlw.go.jp/25/index.php?action_kouhyou_detail_004_kani=true&JigyosyoCd=2570601712-00&ServiceCd=150&Type=search", "url2": null }, "geometry": { "type": "Point", "coordinates": [ 135.9375599, 35.0073667 ] } },
{ "type": "Feature", "properties": { "内容": "デイサービス　風和里【通所介護】岡本町217番地", "url": "https://www.kaigokensaku.mhlw.go.jp/25/index.php?action_kouhyou_detail_004_kani=true&JigyosyoCd=2570600995-00&ServiceCd=150&Type=search", "url2": "http://www.yotsuba-lcn.or.jp/" }, "geometry": { "type": "Point", "coordinates": [ 135.9826342, 35.0016913 ] } },
{ "type": "Feature", "properties": { "内容": "第二デイサービスかえで【通所介護】滋賀県草津市追分南1-8-34", "url": "https://www.kaigokensaku.mhlw.go.jp/25/index.php?action_kouhyou_detail_004_kani=true&JigyosyoCd=2570601647-00&ServiceCd=150&Type=search", "url2": "info@maple-kofu.com" }, "geometry": { "type": "Point", "coordinates": [ 135.961247802243093, 34.999660385683313 ] } },
{ "type": "Feature", "properties": { "内容": "マザーレイクデイサービスセンター【通所介護】滋賀県草津市笠山５丁目3-66", "url": "https://www.kaigokensaku.mhlw.go.jp/25/index.php?action_kouhyou_detail_004_kani=true&JigyosyoCd=2570600292-00&ServiceCd=150&Type=search", "url2": "http://www.grouphome.jp" }, "geometry": { "type": "Point", "coordinates": [ 135.95072319999997, 34.9799049 ] } },
{ "type": "Feature", "properties": { "内容": "あかねはうす草津　デイサービス【通所介護】草津市西渋川1丁目21-14エルミナMCビル３階", "url": "https://www.kaigokensaku.mhlw.go.jp/25/index.php?action_kouhyou_detail_004_kani=true&JigyosyoCd=2570600961-00&ServiceCd=150&Type=search", "url2": "http://www.akanehouse.com" }, "geometry": { "type": "Point", "coordinates": [ 135.958717799999988, 35.0274104 ] } },
{ "type": "Feature", "properties": { "内容": "菖蒲の郷デイサービスセンター【通所介護】滋賀県草津市山寺町837番地", "url": "https://www.kaigokensaku.mhlw.go.jp/25/index.php?action_kouhyou_detail_004_kani=true&JigyosyoCd=2570600029-00&ServiceCd=150&Type=search", "url2": "http://shoubunosato.jp" }, "geometry": { "type": "Point", "coordinates": [ 135.9922391, 34.9919287 ] } },
{ "type": "Feature", "properties": { "内容": "草津市南笠通所介護事業所あさひ【通所介護】草津市笠山１－１－４６", "url": "https://www.kaigokensaku.mhlw.go.jp/25/index.php?action_kouhyou_detail_004_kani=true&JigyosyoCd=2570600060-00&ServiceCd=150&Type=search", "url2": null }, "geometry": { "type": "Point", "coordinates": [ 135.945726400000012, 34.991745 ] } },
{ "type": "Feature", "properties": { "内容": "社会福祉法人　寿会　草津市北部デイサービスセンター　常輝の里【通所介護】草津市志那中町２５番地", "url": "https://www.kaigokensaku.mhlw.go.jp/25/index.php?action_kouhyou_detail_004_kani=true&JigyosyoCd=2570600128-00&ServiceCd=150&Type=search", "url2": "http://tokinosato-k.com/" }, "geometry": { "type": "Point", "coordinates": [ 135.945222599999965, 35.0505844 ] } },
{ "type": "Feature", "properties": { "内容": "デイサービス愛【通所介護】滋賀県草津市上笠２丁目5-6", "url": "https://www.kaigokensaku.mhlw.go.jp/25/index.php?action_kouhyou_detail_004_kani=true&JigyosyoCd=2570600318-00&ServiceCd=150&Type=search", "url2": "https://chowa888.com/" }, "geometry": { "type": "Point", "coordinates": [ 135.94816979999996, 35.029937 ] } },
{ "type": "Feature", "properties": { "内容": "アスケア　デイサービスセンターかがやき【通所介護】滋賀県草津市追分南5丁目12-2", "url": "https://www.kaigokensaku.mhlw.go.jp/25/index.php?action_kouhyou_detail_004_kani=true&JigyosyoCd=2570600326-00&ServiceCd=150&Type=search", "url2": "https://www.as-care.co.jp/" }, "geometry": { "type": "Point", "coordinates": [ 135.964576800000032, 35.0032376 ] } },
{ "type": "Feature", "properties": { "内容": "デイサービス和花【通所介護】滋賀県草津市上笠２－５－８", "url": "https://www.kaigokensaku.mhlw.go.jp/25/index.php?action_kouhyou_detail_004_kani=true&JigyosyoCd=2570600649-00&ServiceCd=150&Type=search", "url2": null }, "geometry": { "type": "Point", "coordinates": [ 135.9479837, 35.0300787 ] } },
{ "type": "Feature", "properties": { "内容": "ニチイケアセンター草津【通所介護】滋賀県草津市矢倉１丁目2-19-15ニチイケアセンター草津", "url": "https://www.kaigokensaku.mhlw.go.jp/25/index.php?action_kouhyou_detail_004_kani=true&JigyosyoCd=2570600508-00&ServiceCd=150&Type=search", "url2": "http://www.nichiigakkan.co.jp" }, "geometry": { "type": "Point", "coordinates": [ 135.954761400000052, 35.010956 ] } },
{ "type": "Feature", "properties": { "内容": "花まるデイサービス【通所介護】滋賀県草津市若竹町2-24", "url": "https://www.kaigokensaku.mhlw.go.jp/25/index.php?action_kouhyou_detail_004_kani=true&JigyosyoCd=2570602058-00&ServiceCd=150&Type=search", "url2": null }, "geometry": { "type": "Point", "coordinates": [ 135.967354300000011, 35.0228533 ] } },
{ "type": "Feature", "properties": { "内容": "第二菖蒲の郷デイサービスセンター【通所介護】滋賀県草津市追分南5丁目18番8号", "url": "https://www.kaigokensaku.mhlw.go.jp/25/index.php?action_kouhyou_detail_004_kani=true&JigyosyoCd=2570600748-00&ServiceCd=150&Type=search", "url2": "http://shoubunosato.jp" }, "geometry": { "type": "Point", "coordinates": [ 135.967649599999959, 34.9925091 ] } },
{ "type": "Feature", "properties": { "内容": "株式会社ツクイ　ツクイ南草津【通所介護】滋賀県草津市二丁目6番3号", "url": "https://www.kaigokensaku.mhlw.go.jp/25/index.php?action_kouhyou_detail_004_kani=true&JigyosyoCd=2570601753-00&ServiceCd=150&Type=search", "url2": null }, "geometry": { "type": "Point", "coordinates": [ 135.943502, 35.003186700000022 ] } },
{ "type": "Feature", "properties": { "内容": "社会福祉法人慈惠会ゆいの里守山デイサービスセンター【通所介護】守山市洲本町１番地", "url": "https://www.kaigokensaku.mhlw.go.jp/25/index.php?action_kouhyou_detail_004_kani=true&JigyosyoCd=2570700043-00&ServiceCd=150&Type=search", "url2": "http://www.yuinosato.or.jp" }, "geometry": { "type": "Point", "coordinates": [ 135.98672369999997, 35.0951578 ] } },
{ "type": "Feature", "properties": { "内容": "デイサービスセンターしがそせい苑【通所介護】守山市水保町２６５０－１", "url": "https://www.kaigokensaku.mhlw.go.jp/25/index.php?action_kouhyou_detail_004_kani=true&JigyosyoCd=2570700282-00&ServiceCd=150&Type=search", "url2": "http://soseien.jp/shiga/index.html" }, "geometry": { "type": "Point", "coordinates": [ 135.961909200000036, 35.0979095 ] } },
{ "type": "Feature", "properties": { "内容": "レッツ倶楽部たかはし守山【通所介護】滋賀県守山市守山6丁目17-10", "url": "https://www.kaigokensaku.mhlw.go.jp/25/index.php?action_kouhyou_detail_004_kani=true&JigyosyoCd=2570700779-00&ServiceCd=150&Type=search", "url2": "http://www.lets-club.jp/shop/takahashi-moriyamadaimon/" }, "geometry": { "type": "Point", "coordinates": [ 135.991281330180072, 35.063094107414102 ] } },
{ "type": "Feature", "properties": { "内容": "社会福祉法人慈惠会ゆいの里幸津川デイサービスセンター【通所介護】滋賀県守山市幸津川町1549の3", "url": "https://www.kaigokensaku.mhlw.go.jp/25/index.php?action_kouhyou_detail_004_kani=true&JigyosyoCd=2570700050-00&ServiceCd=150&Type=search", "url2": "http://www.yuinosato.or.jp" }, "geometry": { "type": "Point", "coordinates": [ 135.983579299999974, 35.1098504 ] } },
{ "type": "Feature", "properties": { "内容": "リハビリサポートゆうらいふ【通所介護】守山市立田町1231-4", "url": "https://www.kaigokensaku.mhlw.go.jp/25/index.php?action_kouhyou_detail_004_kani=true&JigyosyoCd=2570700019-00&ServiceCd=150&Type=search", "url2": "http://www.youlife.ne.jp" }, "geometry": { "type": "Point", "coordinates": [ 135.979921399999967, 35.1015624 ] } },
{ "type": "Feature", "properties": { "内容": "デイサービスモリ【通所介護】滋賀県守山市今浜町2620-132", "url": "https://www.kaigokensaku.mhlw.go.jp/25/index.php?action_kouhyou_detail_004_kani=true&JigyosyoCd=2570701082-00&ServiceCd=150&Type=search", "url2": "http://tkk-kaigoservice.com" }, "geometry": { "type": "Point", "coordinates": [ 135.94686, 35.124712 ] } },
{ "type": "Feature", "properties": { "内容": "石田デイサービスセンター【通所介護】滋賀県守山市石田町４２２番地社協石田ケアセンター", "url": "https://www.kaigokensaku.mhlw.go.jp/25/index.php?action_kouhyou_detail_004_kani=true&JigyosyoCd=2570700241-00&ServiceCd=150&Type=search", "url2": null }, "geometry": { "type": "Point", "coordinates": [ 135.979058500000065, 35.069394 ] } },
{ "type": "Feature", "properties": { "内容": "リハビリサポートすいれん【通所介護】滋賀県守山市川田町1541-4", "url": "https://www.kaigokensaku.mhlw.go.jp/25/index.php?action_kouhyou_detail_004_kani=true&JigyosyoCd=2570700340-00&ServiceCd=150&Type=search", "url2": "http://www.youlife.ne.jp" }, "geometry": { "type": "Point", "coordinates": [ 135.99458475285644, 35.081862506230735 ] } },
{ "type": "Feature", "properties": { "内容": "デイホームまたあした伊勢【通所介護】守山市伊勢町１６７－１", "url": "https://www.kaigokensaku.mhlw.go.jp/25/index.php?action_kouhyou_detail_004_kani=true&JigyosyoCd=2570700449-00&ServiceCd=150&Type=search", "url2": "https://mataashita-shiga.com/" }, "geometry": { "type": "Point", "coordinates": [ 135.985738500000025, 35.0406893 ] } },
{ "type": "Feature", "properties": { "内容": "デイサービスあいむ勝部【通所介護】滋賀県守山市勝部二丁目4-12BH勝部ビル", "url": "https://www.kaigokensaku.mhlw.go.jp/25/index.php?action_kouhyou_detail_004_kani=true&JigyosyoCd=2570701025-00&ServiceCd=150&Type=search", "url2": "http://k-aimu.co.jp" }, "geometry": { "type": "Point", "coordinates": [ 135.989160399999946, 35.0476413 ] } },
{ "type": "Feature", "properties": { "内容": "社会福祉法人友愛三宅デイサービスセンター【通所介護】滋賀県守山市三宅町833-4", "url": "https://www.kaigokensaku.mhlw.go.jp/25/index.php?action_kouhyou_detail_004_kani=true&JigyosyoCd=2570700076-00&ServiceCd=150&Type=search", "url2": "http://www.kanariya.or.jp" }, "geometry": { "type": "Point", "coordinates": [ 135.968281700000034, 35.0594976 ] } },
{ "type": "Feature", "properties": { "内容": "ツクイ守山今宿【通所介護】滋賀県守山市今宿2-8-18", "url": "https://www.kaigokensaku.mhlw.go.jp/25/index.php?action_kouhyou_detail_004_kani=true&JigyosyoCd=2570701116-00&ServiceCd=150&Type=search", "url2": "https://www.tsukui.net/home-care/2309/" }, "geometry": { "type": "Point", "coordinates": [ 135.9854785, 35.0526068 ] } },
{ "type": "Feature", "properties": { "内容": "社会福祉法人栗東市社会福祉協議会通所介護事業所「なごやか」【通所介護】滋賀県栗東市安養寺１９０栗東市総合福祉保健センター　なごやかセンター", "url": "https://www.kaigokensaku.mhlw.go.jp/25/index.php?action_kouhyou_detail_004_kani=true&JigyosyoCd=2571200019-00&ServiceCd=150&Type=search", "url2": "https://www.ritto-shakyo.jp/" }, "geometry": { "type": "Point", "coordinates": [ 136.004035920237669, 35.017660379895418 ] } },
{ "type": "Feature", "properties": { "内容": "デイサービスらっく安養寺【通所介護】滋賀県栗東市安養寺1丁目4-15", "url": "https://www.kaigokensaku.mhlw.go.jp/25/index.php?action_kouhyou_detail_004_kani=true&JigyosyoCd=2571200340-00&ServiceCd=150&Type=search", "url2": "http://www.rac-kaigo.jp" }, "geometry": { "type": "Point", "coordinates": [ 136.00037610000004, 35.0224862 ] } },
{ "type": "Feature", "properties": { "内容": "笑【通所介護】滋賀県栗東市綣6丁目8-14", "url": "https://www.kaigokensaku.mhlw.go.jp/25/index.php?action_kouhyou_detail_004_kani=true&JigyosyoCd=2571200365-00&ServiceCd=150&Type=search", "url2": "http://sksupport.net" }, "geometry": { "type": "Point", "coordinates": [ 135.976744899999971, 35.0355896 ] } },
{ "type": "Feature", "properties": { "内容": "こんぜデイサービスセンター【通所介護】滋賀県栗東市御園2025番地2", "url": "https://www.kaigokensaku.mhlw.go.jp/25/index.php?action_kouhyou_detail_004_kani=true&JigyosyoCd=2571200431-00&ServiceCd=150&Type=search", "url2": null }, "geometry": { "type": "Point", "coordinates": [ 136.023921200000018, 34.9956763 ] } },
{ "type": "Feature", "properties": { "内容": "デイサービスセンターリヤンド栗東【通所介護】滋賀県栗東市野尻121-2", "url": "https://www.kaigokensaku.mhlw.go.jp/25/index.php?action_kouhyou_detail_004_kani=true&JigyosyoCd=2571200993-00&ServiceCd=150&Type=search", "url2": "liende-kizuna.jp" }, "geometry": { "type": "Point", "coordinates": [ 135.991151, 35.0377707 ] } },
{ "type": "Feature", "properties": { "内容": "社会福祉法人　栗東市社会福祉協議会　通所介護事業所「やすらぎ」【通所介護】滋賀県栗東市出庭７００－１", "url": "https://www.kaigokensaku.mhlw.go.jp/25/index.php?action_kouhyou_detail_004_kani=true&JigyosyoCd=2571200068-00&ServiceCd=150&Type=search", "url2": "http://ritto-shakyo.jp/" }, "geometry": { "type": "Point", "coordinates": [ 136.004261400000019, 35.0365871 ] } },
{ "type": "Feature", "properties": { "内容": "デイサービス　すずらんの郷【通所介護】滋賀県栗東市下戸山1493-1", "url": "https://www.kaigokensaku.mhlw.go.jp/25/index.php?action_kouhyou_detail_004_kani=true&JigyosyoCd=2571200134-00&ServiceCd=150&Type=search", "url2": "http://suzurannosato.jp/" }, "geometry": { "type": "Point", "coordinates": [ 135.988688429161101, 35.010555517095817 ] } },
{ "type": "Feature", "properties": { "内容": "またあした栗東【通所介護】滋賀県栗東市安養寺6丁目9番60号イセムラビル1F", "url": "https://www.kaigokensaku.mhlw.go.jp/25/index.php?action_kouhyou_detail_004_kani=true&JigyosyoCd=2571200845-00&ServiceCd=150&Type=search", "url2": "http://mataashita.jp/" }, "geometry": { "type": "Point", "coordinates": [ 135.996423899999968, 35.020653 ] } },
{ "type": "Feature", "properties": { "内容": "栗東デイサービスセンター【通所介護】滋賀県栗東市出庭697-1", "url": "https://www.kaigokensaku.mhlw.go.jp/25/index.php?action_kouhyou_detail_004_kani=true&JigyosyoCd=2571200027-00&ServiceCd=150&Type=search", "url2": "http://www.saiseikai-shiga.jp/tankaiso/" }, "geometry": { "type": "Point", "coordinates": [ 136.0034726, 35.0362732 ] } },
{ "type": "Feature", "properties": { "内容": "デイサービスセンター　いきいき【通所介護】滋賀県栗東市綣5丁目15番38号", "url": "https://www.kaigokensaku.mhlw.go.jp/25/index.php?action_kouhyou_detail_004_kani=true&JigyosyoCd=2571200449-00&ServiceCd=150&Type=search", "url2": "http://www.mashimo.or.jp/" }, "geometry": { "type": "Point", "coordinates": [ 135.974900599999955, 35.0386253 ] } },
{ "type": "Feature", "properties": { "内容": "デイサービスらっく小柿【通所介護】滋賀県栗東市小柿6丁目2-2", "url": "https://www.kaigokensaku.mhlw.go.jp/25/index.php?action_kouhyou_detail_004_kani=true&JigyosyoCd=2571200803-00&ServiceCd=150&Type=search", "url2": "http://www.rac-kaigo.jp/" }, "geometry": { "type": "Point", "coordinates": [ 135.971409600000015, 35.0222663 ] } },
{ "type": "Feature", "properties": { "内容": "デイサービスセンター悠々【通所介護】滋賀県栗東市霊仙寺1丁目1番52号", "url": "https://www.kaigokensaku.mhlw.go.jp/25/index.php?action_kouhyou_detail_004_kani=true&JigyosyoCd=2511200616-00&ServiceCd=150&Type=search", "url2": "http://www.mashimo.or.jp/" }, "geometry": { "type": "Point", "coordinates": [ 135.9749339, 35.0387781 ] } },
{ "type": "Feature", "properties": { "内容": "デイサービス　栗東すみれ園【通所介護】滋賀県栗東市小野363番地", "url": "https://www.kaigokensaku.mhlw.go.jp/25/index.php?action_kouhyou_detail_004_kani=true&JigyosyoCd=2571200795-00&ServiceCd=150&Type=search", "url2": "http://www.ritto-sumire-en.jp/" }, "geometry": { "type": "Point", "coordinates": [ 136.010931849073813, 35.020210474942331 ] } },
{ "type": "Feature", "properties": { "内容": "社会福祉法人栗東市社会福祉協議会通所介護事業所「ゆうあい」【通所介護】滋賀県栗東市小柿一丁目１０－１０", "url": "https://www.kaigokensaku.mhlw.go.jp/25/index.php?action_kouhyou_detail_004_kani=true&JigyosyoCd=2571200050-00&ServiceCd=150&Type=search", "url2": "http://www.ritto-shakyo.jp/index.html" }, "geometry": { "type": "Point", "coordinates": [ 135.977364500000022, 35.0271935 ] } },
{ "type": "Feature", "properties": { "内容": "あうんデイサービス栗東【通所介護】滋賀県栗東市出庭862-2", "url": "https://www.kaigokensaku.mhlw.go.jp/25/index.php?action_kouhyou_detail_004_kani=true&JigyosyoCd=2571200423-00&ServiceCd=150&Type=search", "url2": "https://aun-shiga.co.jp/" }, "geometry": { "type": "Point", "coordinates": [ 136.0018672, 35.0383369 ] } },
{ "type": "Feature", "properties": { "内容": "株式会社ツクイ　ツクイ栗東小柿【通所介護】滋賀県栗東市小柿1丁目4-14", "url": "https://www.kaigokensaku.mhlw.go.jp/25/index.php?action_kouhyou_detail_004_kani=true&JigyosyoCd=2571200928-00&ServiceCd=150&Type=search", "url2": null }, "geometry": { "type": "Point", "coordinates": [ 135.9757847, 35.0252215 ] } },
{ "type": "Feature", "properties": { "内容": "デイサービス憩々【通所介護】滋賀県甲賀市水口町北泉2丁目84", "url": "https://www.kaigokensaku.mhlw.go.jp/25/index.php?action_kouhyou_detail_004_kani=true&JigyosyoCd=2571400775-00&ServiceCd=150&Type=search", "url2": null }, "geometry": { "type": "Point", "coordinates": [ 136.139493899999934, 34.9851533 ] } },
{ "type": "Feature", "properties": { "内容": "デイサービス楽々【通所介護】滋賀県甲賀市信楽町勅旨349", "url": "https://www.kaigokensaku.mhlw.go.jp/25/index.php?action_kouhyou_detail_004_kani=true&JigyosyoCd=2571401294-00&ServiceCd=150&Type=search", "url2": null }, "geometry": { "type": "Point", "coordinates": [ 136.0747935, 34.8930626 ] } },
{ "type": "Feature", "properties": { "内容": "JAゆうハート甲南デイサービスセンター【通所介護】滋賀県甲賀市甲南町杉谷106番地", "url": "https://www.kaigokensaku.mhlw.go.jp/25/index.php?action_kouhyou_detail_004_kani=true&JigyosyoCd=2571400668-00&ServiceCd=150&Type=search", "url2": "www.ja-youheart.co.jp" }, "geometry": { "type": "Point", "coordinates": [ 136.156146700000022, 34.92458550000002 ] } },
{ "type": "Feature", "properties": { "内容": "懐かし処いろり家【通所介護】滋賀県甲賀市甲南町野尻434", "url": "https://www.kaigokensaku.mhlw.go.jp/25/index.php?action_kouhyou_detail_004_kani=true&JigyosyoCd=2571400957-00&ServiceCd=150&Type=search", "url2": "https://www.ikoi-iroriya.jp/" }, "geometry": { "type": "Point", "coordinates": [ 136.181289600000014, 34.9161756 ] } },
{ "type": "Feature", "properties": { "内容": "レッツ倶楽部たかはし水口【通所介護】滋賀県甲賀市水口町伴中山3814-2", "url": "https://www.kaigokensaku.mhlw.go.jp/25/index.php?action_kouhyou_detail_004_kani=true&JigyosyoCd=2571400981-00&ServiceCd=150&Type=search", "url2": "http://www.lets-club.jp/shop/takahashi-minakuchi" }, "geometry": { "type": "Point", "coordinates": [ 136.152095, 34.9950802 ] } },
{ "type": "Feature", "properties": { "内容": "せせらぎ苑デイサービスセンター【通所介護】滋賀県甲賀市甲南町葛木855番地", "url": "https://www.kaigokensaku.mhlw.go.jp/25/index.php?action_kouhyou_detail_004_kani=true&JigyosyoCd=2571400015-00&ServiceCd=150&Type=search", "url2": "http://kohnankai.jp" }, "geometry": { "type": "Point", "coordinates": [ 136.179133399999955, 34.9321544 ] } },
{ "type": "Feature", "properties": { "内容": "甲賀市デイサービスセンター【通所介護】滋賀県甲賀市水口町宇川２５番地", "url": "https://www.kaigokensaku.mhlw.go.jp/25/index.php?action_kouhyou_detail_004_kani=true&JigyosyoCd=2571400262-00&ServiceCd=150&Type=search", "url2": "//kotoukai.or.jp/" }, "geometry": { "type": "Point", "coordinates": [ 136.148865800000067, 34.9650975 ] } },
{ "type": "Feature", "properties": { "内容": "通所介護センター甲賀シルバーケア豊壽園【通所介護】滋賀県甲賀市土山町北土山479", "url": "https://www.kaigokensaku.mhlw.go.jp/25/index.php?action_kouhyou_detail_004_kani=true&JigyosyoCd=2571401070-00&ServiceCd=150&Type=search", "url2": "http://www.sensin.or.jp" }, "geometry": { "type": "Point", "coordinates": [ 136.289623200000051, 34.9363587 ] } },
{ "type": "Feature", "properties": { "内容": "はとがひらデイサービスセンター【通所介護】滋賀県甲賀市水口町水口6837-5特別養護老人ホームレーベンはとがひら", "url": "https://www.kaigokensaku.mhlw.go.jp/25/index.php?action_kouhyou_detail_004_kani=true&JigyosyoCd=2571401013-00&ServiceCd=150&Type=search", "url2": "http://www.ohmiwajunkai.or.jp" }, "geometry": { "type": "Point", "coordinates": [ 136.183980979762282, 34.96175547062218 ] } },
{ "type": "Feature", "properties": { "内容": "デイサービスセンターエーデル土山【通所介護】甲賀市土山町北土山2057", "url": "https://www.kaigokensaku.mhlw.go.jp/25/index.php?action_kouhyou_detail_004_kani=true&JigyosyoCd=2571400148-00&ServiceCd=150&Type=search", "url2": "http://www.edeltutiyama.com" }, "geometry": { "type": "Point", "coordinates": [ 136.281638, 34.9389609 ] } },
{ "type": "Feature", "properties": { "内容": "信楽荘デイサービスセンター【通所介護】滋賀県甲賀市信楽町牧1159番地", "url": "https://www.kaigokensaku.mhlw.go.jp/25/index.php?action_kouhyou_detail_004_kani=true&JigyosyoCd=2571400031-00&ServiceCd=150&Type=search", "url2": "http://www.shigaraki-itsuki.com" }, "geometry": { "type": "Point", "coordinates": [ 136.075395500000013, 34.9151572 ] } },
{ "type": "Feature", "properties": { "内容": "デイサービスセンターすこやか荘【通所介護】甲賀市甲賀町大原中355番地", "url": "https://www.kaigokensaku.mhlw.go.jp/25/index.php?action_kouhyou_detail_004_kani=true&JigyosyoCd=2571400288-00&ServiceCd=150&Type=search", "url2": "http://www.kokashakyo.sakura.ne.jp" }, "geometry": { "type": "Point", "coordinates": [ 136.2316428, 34.911117100000034 ] } },
{ "type": "Feature", "properties": { "内容": "ＮＰＯみなくちデイサービスセンター【通所介護】滋賀県甲賀市水口町京町7番5号", "url": "https://www.kaigokensaku.mhlw.go.jp/25/index.php?action_kouhyou_detail_004_kani=true&JigyosyoCd=2571400569-00&ServiceCd=150&Type=search", "url2": "https://npominakuchi.jp/" }, "geometry": { "type": "Point", "coordinates": [ 136.179169, 34.966728 ] } },
{ "type": "Feature", "properties": { "内容": "デイサービスセンターたるみ【通所介護】滋賀県甲賀市土山町頓宮807-1", "url": "https://www.kaigokensaku.mhlw.go.jp/25/index.php?action_kouhyou_detail_004_kani=true&JigyosyoCd=2571400973-00&ServiceCd=150&Type=search", "url2": null }, "geometry": { "type": "Point", "coordinates": [ 136.25776246071311, 34.94087687414568 ] } },
{ "type": "Feature", "properties": { "内容": "デイサービスあいむ水口【通所介護】水口町北泉1丁目138", "url": "https://www.kaigokensaku.mhlw.go.jp/25/index.php?action_kouhyou_detail_004_kani=true&JigyosyoCd=2571400866-00&ServiceCd=150&Type=search", "url2": "http://k-aimu.co.jp" }, "geometry": { "type": "Point", "coordinates": [ 136.142507499999965, 34.9836174 ] } },
{ "type": "Feature", "properties": { "内容": "（有）デイサービスひまわりの家事業所【通所介護】甲賀市信楽町長野１４３７－７０", "url": "https://www.kaigokensaku.mhlw.go.jp/25/index.php?action_kouhyou_detail_004_kani=true&JigyosyoCd=2571400460-00&ServiceCd=150&Type=search", "url2": "http//care-net.biz/25/himawarinoie/" }, "geometry": { "type": "Point", "coordinates": [ 136.048287100000039, 34.8871312 ] } },
{ "type": "Feature", "properties": { "内容": "デイサービスまごころ【通所介護】滋賀県甲賀市水口町山3938番地41", "url": "https://www.kaigokensaku.mhlw.go.jp/25/index.php?action_kouhyou_detail_004_kani=true&JigyosyoCd=2571401096-00&ServiceCd=150&Type=search", "url2": "http//www.dayservice-magokoro.com/" }, "geometry": { "type": "Point", "coordinates": [ 136.174184299999979, 35.0068038 ] } },
{ "type": "Feature", "properties": { "内容": "JAゆうハート　ほそはらデイサービスセンター【通所介護】滋賀県甲賀市信楽町柞原793", "url": "https://www.kaigokensaku.mhlw.go.jp/25/index.php?action_kouhyou_detail_004_kani=true&JigyosyoCd=2571400841-00&ServiceCd=150&Type=search", "url2": "http://www.ja-youheart.co.jp/" }, "geometry": { "type": "Point", "coordinates": [ 136.026115756413986, 34.86140335534968 ] } },
{ "type": "Feature", "properties": { "内容": "デイサービスセンターぎおうの里【通所介護】滋賀県野洲市冨波甲1340番地1", "url": "https://www.kaigokensaku.mhlw.go.jp/25/index.php?action_kouhyou_detail_004_kani=true&JigyosyoCd=2571300199-00&ServiceCd=150&Type=search", "url2": "https://yasujikeikai.jp/" }, "geometry": { "type": "Point", "coordinates": [ 136.027775199999951, 35.0896762 ] } },
{ "type": "Feature", "properties": { "内容": "デイセンターさくら【通所介護】野洲市南桜2292番地56", "url": "https://www.kaigokensaku.mhlw.go.jp/25/index.php?action_kouhyou_detail_004_kani=true&JigyosyoCd=2571300108-00&ServiceCd=150&Type=search", "url2": "https://yasujikeikai.jp/" }, "geometry": { "type": "Point", "coordinates": [ 136.041747699999974, 35.0336355 ] } },
{ "type": "Feature", "properties": { "内容": "デイサービスふじ【通所介護】滋賀県野洲市三上241-8", "url": "https://www.kaigokensaku.mhlw.go.jp/25/index.php?action_kouhyou_detail_004_kani=true&JigyosyoCd=2571300652-00&ServiceCd=150&Type=search", "url2": "http://day-fuji.jp/" }, "geometry": { "type": "Point", "coordinates": [ 136.031851709786963, 35.044737441513035 ] } },
{ "type": "Feature", "properties": { "内容": "ラ・ステイト野洲デイサービス【通所介護】滋賀県野洲市野洲2053-1", "url": "https://www.kaigokensaku.mhlw.go.jp/25/index.php?action_kouhyou_detail_004_kani=true&JigyosyoCd=2571300777-00&ServiceCd=150&Type=search", "url2": "lastate.jp" }, "geometry": { "type": "Point", "coordinates": [ 136.015131117786524, 35.065237822332598 ] } },
{ "type": "Feature", "properties": { "内容": "またあした　みそら【通所介護】滋賀県野洲市比江４６１－１", "url": "https://www.kaigokensaku.mhlw.go.jp/25/index.php?action_kouhyou_detail_004_kani=true&JigyosyoCd=2571300694-00&ServiceCd=150&Type=search", "url2": "https://mataashita-shiga.com/" }, "geometry": { "type": "Point", "coordinates": [ 136.012707399999954, 35.087104 ] } },
{ "type": "Feature", "properties": { "内容": "デイサービスあいむ祗王【通所介護】滋賀県野洲市冨波乙177-4", "url": "https://www.kaigokensaku.mhlw.go.jp/25/index.php?action_kouhyou_detail_004_kani=true&JigyosyoCd=2571300355-00&ServiceCd=150&Type=search", "url2": "http://k-aimu.co.jp" }, "geometry": { "type": "Point", "coordinates": [ 136.031497, 35.0750613 ] } },
{ "type": "Feature", "properties": { "内容": "デイサービスセンターあやめの里【通所介護】滋賀県野洲市吉川3854番地1", "url": "https://www.kaigokensaku.mhlw.go.jp/25/index.php?action_kouhyou_detail_004_kani=true&JigyosyoCd=2571300090-00&ServiceCd=150&Type=search", "url2": "http://yasujikeikai.jp/" }, "geometry": { "type": "Point", "coordinates": [ 135.9929452, 35.1282789 ] } },
{ "type": "Feature", "properties": { "内容": "デイサービス　スイッチオン銀河【通所介護】湖南市石部東6丁目6番6号デンダーハウス　1F", "url": "https://www.kaigokensaku.mhlw.go.jp/25/index.php?action_kouhyou_detail_004_kani=true&JigyosyoCd=2572300263-00&ServiceCd=150&Type=search", "url2": "http://switchon-s.xsrv.jp/" }, "geometry": { "type": "Point", "coordinates": [ 136.062844525131254, 35.0069917841139 ] } },
{ "type": "Feature", "properties": { "内容": "石部デイサービスセンター【通所介護】滋賀県湖南市丸山四丁目5番1号", "url": "https://www.kaigokensaku.mhlw.go.jp/25/index.php?action_kouhyou_detail_004_kani=true&JigyosyoCd=2552380012-00&ServiceCd=150&Type=search", "url2": "http://www.hachikikai.com" }, "geometry": { "type": "Point", "coordinates": [ 136.04611639999996, 34.9987899 ] } },
{ "type": "Feature", "properties": { "内容": "ぼだいじデイサービスセンター虹【通所介護】滋賀県湖南市菩提寺327番地4ケアハウス　ピスガ甲西", "url": "https://www.kaigokensaku.mhlw.go.jp/25/index.php?action_kouhyou_detail_004_kani=true&JigyosyoCd=2572300024-00&ServiceCd=150&Type=search", "url2": "http://chiiroba.jp/" }, "geometry": { "type": "Point", "coordinates": [ 136.070379699999989, 35.0404571 ] } },
{ "type": "Feature", "properties": { "内容": "美松苑デイサービスセンター【通所介護】湖南市１３２５番地", "url": "https://www.kaigokensaku.mhlw.go.jp/25/index.php?action_kouhyou_detail_004_kani=true&JigyosyoCd=2572300016-00&ServiceCd=150&Type=search", "url2": "http://www.ohmiwajunkai.or.jp/mimatsuen_hariko/" }, "geometry": { "type": "Point", "coordinates": [ 113.4941493, 27.6518754 ] } },
{ "type": "Feature", "properties": { "内容": "十二坊デイサービスセンター【通所介護】滋賀県湖南市岩根690番地の4", "url": "https://www.kaigokensaku.mhlw.go.jp/25/index.php?action_kouhyou_detail_004_kani=true&JigyosyoCd=2572300180-00&ServiceCd=150&Type=search", "url2": "ohmiwajunkai.or.jp" }, "geometry": { "type": "Point", "coordinates": [ 136.116410690213002, 35.009846206770135 ] } },
{ "type": "Feature", "properties": { "内容": "高島市社会福祉協議会きらり安曇川【通所介護】滋賀県高島市安曇川町田中555番地", "url": "https://www.kaigokensaku.mhlw.go.jp/25/index.php?action_kouhyou_detail_004_kani=true&JigyosyoCd=2572200034-00&ServiceCd=150&Type=search", "url2": null }, "geometry": { "type": "Point", "coordinates": [ 136.017248500000051, 35.3319007 ] } },
{ "type": "Feature", "properties": { "内容": "高島市社会福祉協議会きらり今津北【通所介護】滋賀県高島市今津町桂８３０番地１デイサービスセンター　しふくの杜", "url": "https://www.kaigokensaku.mhlw.go.jp/25/index.php?action_kouhyou_detail_004_kani=true&JigyosyoCd=2572200430-00&ServiceCd=150&Type=search", "url2": null }, "geometry": { "type": "Point", "coordinates": [ 136.025464300000067, 35.4302742 ] } },
{ "type": "Feature", "properties": { "内容": "デイサービスひより【通所介護】滋賀県高島市新旭町旭892-1", "url": "https://www.kaigokensaku.mhlw.go.jp/25/index.php?action_kouhyou_detail_004_kani=true&JigyosyoCd=2572200646-00&ServiceCd=150&Type=search", "url2": null }, "geometry": { "type": "Point", "coordinates": [ 136.036041131322008, 35.35416386788868 ] } },
{ "type": "Feature", "properties": { "内容": "ふじの里デイサービスセンター【通所介護】滋賀県高島市安曇川町下小川３２２０番地１", "url": "https://www.kaigokensaku.mhlw.go.jp/25/index.php?action_kouhyou_detail_004_kani=true&JigyosyoCd=2572200042-00&ServiceCd=150&Type=search", "url2": "www.kouyoukai-fujinosato.jp" }, "geometry": { "type": "Point", "coordinates": [ 136.033122300000059, 35.3200494 ] } },
{ "type": "Feature", "properties": { "内容": "高島市社会福祉協議会きらり高島【通所介護】高島市勝野680番地", "url": "https://www.kaigokensaku.mhlw.go.jp/25/index.php?action_kouhyou_detail_004_kani=true&JigyosyoCd=2572200091-00&ServiceCd=150&Type=search", "url2": null }, "geometry": { "type": "Point", "coordinates": [ 136.010577, 35.2998787 ] } },
{ "type": "Feature", "properties": { "内容": "デイサービスてのひらいっぱい【通所介護】滋賀県高島市安曇川町西万木213番地", "url": "https://www.kaigokensaku.mhlw.go.jp/25/index.php?action_kouhyou_detail_004_kani=true&JigyosyoCd=2572200778-00&ServiceCd=150&Type=search", "url2": "tenohira1＠ohyama-inc.co.jp" }, "geometry": { "type": "Point", "coordinates": [ 136.0243304, 35.3263432 ] } },
{ "type": "Feature", "properties": { "内容": "レインボー【通所介護】滋賀県高島市新旭町藁園2603番地", "url": "https://www.kaigokensaku.mhlw.go.jp/25/index.php?action_kouhyou_detail_004_kani=true&JigyosyoCd=2572200166-00&ServiceCd=150&Type=search", "url2": "http://shinasahi-minorikai.or.jp" }, "geometry": { "type": "Point", "coordinates": [ 136.046242799999959, 35.3497412 ] } },
{ "type": "Feature", "properties": { "内容": "高島市社会福祉協議会きらり今津【通所介護】滋賀県高島市今津町上弘部４３８番地２", "url": "https://www.kaigokensaku.mhlw.go.jp/25/index.php?action_kouhyou_detail_004_kani=true&JigyosyoCd=2572200067-00&ServiceCd=150&Type=search", "url2": null }, "geometry": { "type": "Point", "coordinates": [ 136.004950799999961, 35.407087400000016 ] } },
{ "type": "Feature", "properties": { "内容": "あずみの郷通所介護事業所【通所介護】滋賀県高島市安曇川町田中3741-1", "url": "https://www.kaigokensaku.mhlw.go.jp/25/index.php?action_kouhyou_detail_004_kani=true&JigyosyoCd=2572200554-00&ServiceCd=150&Type=search", "url2": "https://tenohira-azumi.com/content-b/" }, "geometry": { "type": "Point", "coordinates": [ 135.996692100000018, 35.3290982 ] } },
{ "type": "Feature", "properties": { "内容": "高島市社会福祉協議会きらりマキノ【通所介護】高島市マキノ町新保1095番地", "url": "https://www.kaigokensaku.mhlw.go.jp/25/index.php?action_kouhyou_detail_004_kani=true&JigyosyoCd=2572200018-00&ServiceCd=150&Type=search", "url2": null }, "geometry": { "type": "Point", "coordinates": [ 136.031449299999963, 35.4459642 ] } },
{ "type": "Feature", "properties": { "内容": "ブルーミングケア新旭【通所介護】滋賀県高島市新旭町旭１０８２", "url": "https://www.kaigokensaku.mhlw.go.jp/25/index.php?action_kouhyou_detail_004_kani=true&JigyosyoCd=2572200752-00&ServiceCd=150&Type=search", "url2": null }, "geometry": { "type": "Point", "coordinates": [ 136.039452223556538, 35.360253749304505 ] } },
{ "type": "Feature", "properties": { "内容": "デイサービス結里庵【通所介護】滋賀県東近江市小田苅町1834番地2", "url": "https://www.kaigokensaku.mhlw.go.jp/25/index.php?action_kouhyou_detail_004_kani=true&JigyosyoCd=2570500856-00&ServiceCd=150&Type=search", "url2": null }, "geometry": { "type": "Point", "coordinates": [ 136.214944599999967, 35.1298295 ] } },
{ "type": "Feature", "properties": { "内容": "ツクイ東近江おきの【通所介護】滋賀県東近江市東沖野２丁目２−３４", "url": "https://www.kaigokensaku.mhlw.go.jp/25/index.php?action_kouhyou_detail_004_kani=true&JigyosyoCd=2570501383-00&ServiceCd=150&Type=search", "url2": "hpps://twww.tsukui.net" }, "geometry": { "type": "Point", "coordinates": [ 136.2064614, 35.1047872 ] } },
{ "type": "Feature", "properties": { "内容": "デイサービス　スイッチオン能登川【通所介護】滋賀県東近江市猪子町108-1", "url": "https://www.kaigokensaku.mhlw.go.jp/25/index.php?action_kouhyou_detail_004_kani=true&JigyosyoCd=2570501243-00&ServiceCd=150&Type=search", "url2": null }, "geometry": { "type": "Point", "coordinates": [ 136.166528200000016, 35.1770254 ] } },
{ "type": "Feature", "properties": { "内容": "リハビリデイサービスセンター桜川店【通所介護】滋賀県東近江市桜川西町130", "url": "https://www.kaigokensaku.mhlw.go.jp/25/index.php?action_kouhyou_detail_004_kani=true&JigyosyoCd=2570501490-00&ServiceCd=150&Type=search", "url2": null }, "geometry": { "type": "Point", "coordinates": [ 136.188119, 35.0634083 ] } },
{ "type": "Feature", "properties": { "内容": "デイサービススイッチオン五個荘【通所介護】滋賀県ン東近江市五個荘五位田町592番地", "url": "https://www.kaigokensaku.mhlw.go.jp/25/index.php?action_kouhyou_detail_004_kani=true&JigyosyoCd=2570501052-00&ServiceCd=150&Type=search", "url2": "http://switchon-service.co.jp/" }, "geometry": { "type": "Point", "coordinates": [ 136.191944400000011, 35.1613003 ] } },
{ "type": "Feature", "properties": { "内容": "デイサービスセンターはればれ【通所介護】滋賀県東近江市五個荘五位田町517番地2", "url": "https://www.kaigokensaku.mhlw.go.jp/25/index.php?action_kouhyou_detail_004_kani=true&JigyosyoCd=2570501375-00&ServiceCd=150&Type=search", "url2": null }, "geometry": { "type": "Point", "coordinates": [ 136.192183, 35.1593577 ] } },
{ "type": "Feature", "properties": { "内容": "医療法人社団幸信会　青葉メディカル夕暮れデイセンター【通所介護】滋賀県東近江市青葉町1-46", "url": "https://www.kaigokensaku.mhlw.go.jp/25/index.php?action_kouhyou_detail_004_kani=true&JigyosyoCd=2510500693-00&ServiceCd=150&Type=search", "url2": "https://aoba-med.com" }, "geometry": { "type": "Point", "coordinates": [ 136.197524, 35.1060311 ] } },
{ "type": "Feature", "properties": { "内容": "清水苑デイサービスセンター【通所介護】滋賀県東近江市五個荘川並町268番地", "url": "https://www.kaigokensaku.mhlw.go.jp/25/index.php?action_kouhyou_detail_004_kani=true&JigyosyoCd=2570500211-00&ServiceCd=150&Type=search", "url2": "https://rokushinkai.com" }, "geometry": { "type": "Point", "coordinates": [ 136.175720899999988, 35.1468626 ] } },
{ "type": "Feature", "properties": { "内容": "デイサービスセンター　なごみ【通所介護】東近江市妙法寺町８０２番地", "url": "https://www.kaigokensaku.mhlw.go.jp/25/index.php?action_kouhyou_detail_004_kani=true&JigyosyoCd=2570500518-00&ServiceCd=150&Type=search", "url2": "olengnagomi@festa.ocn.ne.jp" }, "geometry": { "type": "Point", "coordinates": [ 136.2248806, 35.0976438 ] } },
{ "type": "Feature", "properties": { "内容": "もみじデイサービスセンター【通所介護】滋賀県東近江市永源寺高野町431‐2", "url": "https://www.kaigokensaku.mhlw.go.jp/25/index.php?action_kouhyou_detail_004_kani=true&JigyosyoCd=2570500237-00&ServiceCd=150&Type=search", "url2": "http://www.hachikikai.com" }, "geometry": { "type": "Point", "coordinates": [ 136.309898500000031, 35.0777865 ] } },
{ "type": "Feature", "properties": { "内容": "デイサービスいよもん【通所介護】滋賀県東近江市石塔町６７６", "url": "https://www.kaigokensaku.mhlw.go.jp/25/index.php?action_kouhyou_detail_004_kani=true&JigyosyoCd=2570501201-00&ServiceCd=150&Type=search", "url2": null }, "geometry": { "type": "Point", "coordinates": [ 136.206564447885171, 35.065816803852165 ] } },
{ "type": "Feature", "properties": { "内容": "近江デイサービスセンター【通所介護】東近江市北坂町966", "url": "https://www.kaigokensaku.mhlw.go.jp/25/index.php?action_kouhyou_detail_004_kani=true&JigyosyoCd=2570501367-00&ServiceCd=150&Type=search", "url2": "https://www.oumi-hp.or.jp" }, "geometry": { "type": "Point", "coordinates": [ 136.275234899999987, 35.1321583 ] } },
{ "type": "Feature", "properties": { "内容": "通所介護サンフラワー建部【通所介護】滋賀県東近江市建部日吉町376番地", "url": "https://www.kaigokensaku.mhlw.go.jp/25/index.php?action_kouhyou_detail_004_kani=true&JigyosyoCd=2570501409-00&ServiceCd=150&Type=search", "url2": null }, "geometry": { "type": "Point", "coordinates": [ 136.1981279, 35.1182372 ] } },
{ "type": "Feature", "properties": { "内容": "つうしょかいごさんふらわーたてべにごうかん【通所介護】滋賀県東近江市建部日吉町348-7", "url": "https://www.kaigokensaku.mhlw.go.jp/25/index.php?action_kouhyou_detail_004_kani=true&JigyosyoCd=2570501508-00&ServiceCd=150&Type=search", "url2": null }, "geometry": { "type": "Point", "coordinates": [ 136.1981279, 35.1182372 ] } },
{ "type": "Feature", "properties": { "内容": "東近江市社会福祉協議会デイサービスセンターあさひの【通所介護】滋賀県東近江市鋳物師町７０８－１", "url": "https://www.kaigokensaku.mhlw.go.jp/25/index.php?action_kouhyou_detail_004_kani=true&JigyosyoCd=2570500443-00&ServiceCd=150&Type=search", "url2": "http://www.higashiomi-shakyo.or.jp/" }, "geometry": { "type": "Point", "coordinates": [ 136.198228500000027, 35.0361003 ] } },
{ "type": "Feature", "properties": { "内容": "愛近江ゆとろぎデイサービス【通所介護】滋賀県東近江市勝堂町1702", "url": "https://www.kaigokensaku.mhlw.go.jp/25/index.php?action_kouhyou_detail_004_kani=true&JigyosyoCd=2570500542-00&ServiceCd=150&Type=search", "url2": "https://www.big-advance.site/s/135/1882" }, "geometry": { "type": "Point", "coordinates": [ 136.230459900000028, 35.1540418 ] } },
{ "type": "Feature", "properties": { "内容": "デイサービスみどり五個荘【通所介護】五個荘竜田町357番地2", "url": "https://www.kaigokensaku.mhlw.go.jp/25/index.php?action_kouhyou_detail_004_kani=true&JigyosyoCd=2570501540-00&ServiceCd=150&Type=search", "url2": null }, "geometry": { "type": "Point", "coordinates": [ 136.1864381, 35.1534132 ] } },
{ "type": "Feature", "properties": { "内容": "こぼしデイサービスセンター【通所介護】滋賀県東近江市市辺町3477", "url": "https://www.kaigokensaku.mhlw.go.jp/25/index.php?action_kouhyou_detail_004_kani=true&JigyosyoCd=2570500179-00&ServiceCd=150&Type=search", "url2": "https://koboshi.p-kit.com/" }, "geometry": { "type": "Point", "coordinates": [ 136.172781699999973, 35.0991871 ] } },
{ "type": "Feature", "properties": { "内容": "沖野原デイサービス【通所介護】滋賀県東近江市沖野3丁目10番18", "url": "https://www.kaigokensaku.mhlw.go.jp/25/index.php?action_kouhyou_detail_004_kani=true&JigyosyoCd=2570500500-00&ServiceCd=150&Type=search", "url2": "http://www.ex.biwa.ex.ne.jp/~okinohara/" }, "geometry": { "type": "Point", "coordinates": [ 136.21014839999998, 35.0946937 ] } },
{ "type": "Feature", "properties": { "内容": "デイサービスセンターぱーるラシック【通所介護】東近江市乙女浜町12-1", "url": "https://www.kaigokensaku.mhlw.go.jp/25/index.php?action_kouhyou_detail_004_kani=true&JigyosyoCd=2570501557-00&ServiceCd=150&Type=search", "url2": "https://shiga-shinjyukai.or.jp/" }, "geometry": { "type": "Point", "coordinates": [ 136.147779639286796, 35.198183470832845 ] } },
{ "type": "Feature", "properties": { "内容": "デイサービスセンターカルナハウス【通所介護】東近江市建部下野町７９７番地", "url": "https://www.kaigokensaku.mhlw.go.jp/25/index.php?action_kouhyou_detail_004_kani=true&JigyosyoCd=2570500054-00&ServiceCd=150&Type=search", "url2": "http://www.jishoukai.or.jp" }, "geometry": { "type": "Point", "coordinates": [ 136.197176600000034, 35.1391892 ] } },
{ "type": "Feature", "properties": { "内容": "いずみ介護サービスおがわ　デイサービス【通所介護】滋賀県東近江市小川町３３１７番", "url": "https://www.kaigokensaku.mhlw.go.jp/25/index.php?action_kouhyou_detail_004_kani=true&JigyosyoCd=2570500724-00&ServiceCd=150&Type=search", "url2": "http://care-net.biz/25/izumikaigo/" }, "geometry": { "type": "Point", "coordinates": [ 136.164754200555393, 35.192060100730536 ] } },
{ "type": "Feature", "properties": { "内容": "デイサービスセンター　あい【通所介護】東近江市市子殿町1308番地", "url": "https://www.kaigokensaku.mhlw.go.jp/25/index.php?action_kouhyou_detail_004_kani=true&JigyosyoCd=2570500682-00&ServiceCd=150&Type=search", "url2": "http://www.eonet.ne.jp/~kkshi-forusa" }, "geometry": { "type": "Point", "coordinates": [ 136.178627199999937, 35.0614472 ] } },
{ "type": "Feature", "properties": { "内容": "社会福祉法人米原市社会福祉協議会デイサービスセンターゆめホール【通所介護】滋賀県米原市三吉５７０番地", "url": "https://www.kaigokensaku.mhlw.go.jp/25/index.php?action_kouhyou_detail_004_kani=true&JigyosyoCd=2572400170-00&ServiceCd=150&Type=search", "url2": "http://maibara-shakyo.or.jp/" }, "geometry": { "type": "Point", "coordinates": [ 136.321881299999944, 35.3200287 ] } },
{ "type": "Feature", "properties": { "内容": "デイホームゆりの木米原【通所介護】滋賀県米原市世継1028-9", "url": "https://www.kaigokensaku.mhlw.go.jp/25/index.php?action_kouhyou_detail_004_kani=true&JigyosyoCd=2572400550-00&ServiceCd=150&Type=search", "url2": null }, "geometry": { "type": "Point", "coordinates": [ 136.272709, 35.3342867 ] } },
{ "type": "Feature", "properties": { "内容": "デイサービスお庫裡さん【通所介護】滋賀県米原市大清水1107", "url": "https://www.kaigokensaku.mhlw.go.jp/25/index.php?action_kouhyou_detail_004_kani=true&JigyosyoCd=2572400642-00&ServiceCd=150&Type=search", "url2": null }, "geometry": { "type": "Point", "coordinates": [ 136.4007594, 35.3779542 ] } },
{ "type": "Feature", "properties": { "内容": "リハデイいそ【通所介護】滋賀県米原市磯1703", "url": "https://www.kaigokensaku.mhlw.go.jp/25/index.php?action_kouhyou_detail_004_kani=true&JigyosyoCd=2572400527-00&ServiceCd=150&Type=search", "url2": null }, "geometry": { "type": "Point", "coordinates": [ 136.261074300000018, 35.3066454 ] } },
{ "type": "Feature", "properties": { "内容": "デイサービスセンターやすらぎハウス【通所介護】滋賀県米原市顔戸21番地2米原市近江地域福祉センターやすらぎハウス", "url": "https://www.kaigokensaku.mhlw.go.jp/25/index.php?action_kouhyou_detail_004_kani=true&JigyosyoCd=2572400360-00&ServiceCd=150&Type=search", "url2": "http://www.taijyukai.net/" }, "geometry": { "type": "Point", "coordinates": [ 136.310657099999958, 35.3369267 ] } },
{ "type": "Feature", "properties": { "内容": "山東デイサービスセンター【通所介護】滋賀県米原市長岡１０５０－１", "url": "https://www.kaigokensaku.mhlw.go.jp/25/index.php?action_kouhyou_detail_004_kani=true&JigyosyoCd=2572400030-00&ServiceCd=150&Type=search", "url2": "http:/www.seishokai.jp/sakata" }, "geometry": { "type": "Point", "coordinates": [ 136.367539399999941, 35.3647178 ] } },
{ "type": "Feature", "properties": { "内容": "デイサービスみしま池【通所介護】米原市池下５６３－１", "url": "https://www.kaigokensaku.mhlw.go.jp/25/index.php?action_kouhyou_detail_004_kani=true&JigyosyoCd=2572400287-00&ServiceCd=150&Type=search", "url2": "https://www.cs-mishimaike.com/" }, "geometry": { "type": "Point", "coordinates": [ 136.3557406, 35.371667 ] } },
{ "type": "Feature", "properties": { "内容": "社会福祉法人米原市社会福祉協議会デイサービスセンター愛らんど【通所介護】滋賀県米原市春照56米原市伊吹地域福祉センター愛らんど内", "url": "https://www.kaigokensaku.mhlw.go.jp/25/index.php?action_kouhyou_detail_004_kani=true&JigyosyoCd=2572400154-00&ServiceCd=150&Type=search", "url2": "http://maibara-shakyo.or.jp/" }, "geometry": { "type": "Point", "coordinates": [ 136.383537083914234, 35.383053003381157 ] } },
{ "type": "Feature", "properties": { "内容": "ポラリスデイサービスセンター米原【通所介護】岩脇482-1", "url": "https://www.kaigokensaku.mhlw.go.jp/25/index.php?action_kouhyou_detail_004_kani=true&JigyosyoCd=2572400451-00&ServiceCd=150&Type=search", "url2": "http://www.polaris.care/" }, "geometry": { "type": "Point", "coordinates": [ 136.291724733451787, 35.324960834760155 ] } },
{ "type": "Feature", "properties": { "内容": "きらめきデイサービスセンター【通所介護】滋賀県米原市朝妻筑摩2483番地", "url": "https://www.kaigokensaku.mhlw.go.jp/25/index.php?action_kouhyou_detail_004_kani=true&JigyosyoCd=2572400592-00&ServiceCd=150&Type=search", "url2": "https://www.taijyukai.net" }, "geometry": { "type": "Point", "coordinates": [ 136.270968900000014, 35.3210292 ] } },
{ "type": "Feature", "properties": { "内容": "デイサービス祭々【通所介護】滋賀県蒲生郡日野町河原２丁目７１", "url": "https://www.kaigokensaku.mhlw.go.jp/25/index.php?action_kouhyou_detail_004_kani=true&JigyosyoCd=2571500509-00&ServiceCd=150&Type=search", "url2": null }, "geometry": { "type": "Point", "coordinates": [ 136.2504117, 35.0165234 ] } },
{ "type": "Feature", "properties": { "内容": "R&B暘々【通所介護】滋賀県蒲生郡日野町大窪680", "url": "https://www.kaigokensaku.mhlw.go.jp/25/index.php?action_kouhyou_detail_004_kani=true&JigyosyoCd=2571500558-00&ServiceCd=150&Type=search", "url2": null }, "geometry": { "type": "Point", "coordinates": [ 136.2515711, 35.012028300000011 ] } },
{ "type": "Feature", "properties": { "内容": "デイサービスおおきに【通所介護】滋賀県蒲生郡日野町いせの４６", "url": "https://www.kaigokensaku.mhlw.go.jp/25/index.php?action_kouhyou_detail_004_kani=true&JigyosyoCd=2571500384-00&ServiceCd=150&Type=search", "url2": "https://hinoookini.com/" }, "geometry": { "type": "Point", "coordinates": [ 136.230200500000024, 35.0130476 ] } },
{ "type": "Feature", "properties": { "内容": "デイサービスセンター誉の松【通所介護】滋賀県蒲生郡日野町大字深山口524番地", "url": "https://www.kaigokensaku.mhlw.go.jp/25/index.php?action_kouhyou_detail_004_kani=true&JigyosyoCd=2571500012-00&ServiceCd=150&Type=search", "url2": "http://www.homare.or.jp" }, "geometry": { "type": "Point", "coordinates": [ 136.22947929999998, 34.9891759 ] } },
{ "type": "Feature", "properties": { "内容": "株式会社ドリエジョ　ゆめさとデイサービス【通所介護】滋賀県蒲生郡日野町西大路井上４３４－２", "url": "https://www.kaigokensaku.mhlw.go.jp/25/index.php?action_kouhyou_detail_004_kani=true&JigyosyoCd=2571500194-00&ServiceCd=150&Type=search", "url2": "https://www.dreyejo.com" }, "geometry": { "type": "Point", "coordinates": [ 136.2610502, 35.0121618 ] } },
{ "type": "Feature", "properties": { "内容": "デイサービススイッチオン竜王【通所介護】滋賀県蒲生郡竜王町大字小口廣谷1303-24", "url": "https://www.kaigokensaku.mhlw.go.jp/25/index.php?action_kouhyou_detail_004_kani=true&JigyosyoCd=2571500483-00&ServiceCd=150&Type=search", "url2": null }, "geometry": { "type": "Point", "coordinates": [ 136.102462, 35.058858 ] } },
{ "type": "Feature", "properties": { "内容": "デイサービス花水木【通所介護】滋賀県蒲生郡竜王町大字弓削字車瀬２３-１", "url": "https://www.kaigokensaku.mhlw.go.jp/25/index.php?action_kouhyou_detail_004_kani=true&JigyosyoCd=2571500418-00&ServiceCd=150&Type=search", "url2": null }, "geometry": { "type": "Point", "coordinates": [ 136.121259900000041, 35.0889071 ] } },
{ "type": "Feature", "properties": { "内容": "デイサービスりゅうおう【通所介護】蒲生郡竜王町大字西川字中筋1457番5", "url": "https://www.kaigokensaku.mhlw.go.jp/25/index.php?action_kouhyou_detail_004_kani=true&JigyosyoCd=2571500368-00&ServiceCd=150&Type=search", "url2": "http://hp.kaipoke.biz/wh9/" }, "geometry": { "type": "Point", "coordinates": [ 136.099955839446153, 35.087702524890069 ] } },
{ "type": "Feature", "properties": { "内容": "デイサービス桃の郷【通所介護】滋賀県蒲生郡竜王町山之上5152-5", "url": "https://www.kaigokensaku.mhlw.go.jp/25/index.php?action_kouhyou_detail_004_kani=true&JigyosyoCd=2571500319-00&ServiceCd=150&Type=search", "url2": null }, "geometry": { "type": "Point", "coordinates": [ 136.138290416671765, 35.038366239923775 ] } },
{ "type": "Feature", "properties": { "内容": "第2デイサービス万葉の里【通所介護】滋賀県蒲生郡竜王町大字山之上６０６８", "url": "https://www.kaigokensaku.mhlw.go.jp/25/index.php?action_kouhyou_detail_004_kani=true&JigyosyoCd=2571500152-00&ServiceCd=150&Type=search", "url2": "https://yukinokai.com/" }, "geometry": { "type": "Point", "coordinates": [ 136.1458189, 35.0535787 ] } },
{ "type": "Feature", "properties": { "内容": "デイサービスセンター長野の里【通所介護】滋賀県愛知郡愛荘町長野1499番地", "url": "https://www.kaigokensaku.mhlw.go.jp/25/index.php?action_kouhyou_detail_004_kani=true&JigyosyoCd=2571700372-00&ServiceCd=150&Type=search", "url2": "http://www.nagano⁻sato.com/" }, "geometry": { "type": "Point", "coordinates": [ 136.2100785, 35.1928092 ] } },
{ "type": "Feature", "properties": { "内容": "社会福祉法人青祥会　デイサービスセンターやまびこ【通所介護】滋賀県愛知郡愛荘町安孫子1235番地", "url": "https://www.kaigokensaku.mhlw.go.jp/25/index.php?action_kouhyou_detail_004_kani=true&JigyosyoCd=2571700083-00&ServiceCd=150&Type=search", "url2": "http://www.seishokai.jp/" }, "geometry": { "type": "Point", "coordinates": [ 136.250286499999987, 35.1722192 ] } },
{ "type": "Feature", "properties": { "内容": "社会福祉法人　豊郷町社会福祉協議会　通所介護事業所【通所介護】滋賀県犬上郡豊郷町四十九院１２５２", "url": "https://www.kaigokensaku.mhlw.go.jp/25/index.php?action_kouhyou_detail_004_kani=true&JigyosyoCd=2571800016-00&ServiceCd=150&Type=search", "url2": null }, "geometry": { "type": "Point", "coordinates": [ 136.239331600000014, 35.2049207 ] } },
{ "type": "Feature", "properties": { "内容": "デイサービスセンター　元気村【通所介護】滋賀県犬上郡豊郷町安食南２７７－１", "url": "https://www.kaigokensaku.mhlw.go.jp/25/index.php?action_kouhyou_detail_004_kani=true&JigyosyoCd=2571800065-00&ServiceCd=150&Type=search", "url2": "http://genkimuragenki.wordpress.com" }, "geometry": { "type": "Point", "coordinates": [ 136.228812799999986, 35.200268 ] } },
{ "type": "Feature", "properties": { "内容": "特別養護老人ホーム　いやしのさと　デイサービスセンター【通所介護】滋賀県犬上郡豊郷町沢517-4", "url": "https://www.kaigokensaku.mhlw.go.jp/25/index.php?action_kouhyou_detail_004_kani=true&JigyosyoCd=2571800347-00&ServiceCd=150&Type=search", "url2": "https://asunaroiyashinosat.wixsite.com/asunaro/blank-8" }, "geometry": { "type": "Point", "coordinates": [ 136.217003, 35.192018 ] } },
{ "type": "Feature", "properties": { "内容": "DSゆめのしっぽ【通所介護】滋賀県犬上郡豊郷町吉田1480-7", "url": "https://www.kaigokensaku.mhlw.go.jp/25/index.php?action_kouhyou_detail_004_kani=true&JigyosyoCd=2571800388-00&ServiceCd=150&Type=search", "url2": "https://marukusu.com/" }, "geometry": { "type": "Point", "coordinates": [ 136.2267885, 35.1902281 ] } },
{ "type": "Feature", "properties": { "内容": "甲良町デイサービスセンターけやき【通所介護】滋賀県犬上郡甲良町在士625", "url": "https://www.kaigokensaku.mhlw.go.jp/25/index.php?action_kouhyou_detail_004_kani=true&JigyosyoCd=2571800115-00&ServiceCd=150&Type=search", "url2": "http://www.toyosato.or.jp" }, "geometry": { "type": "Point", "coordinates": [ 136.255200907934523, 35.210337043244969 ] } },
{ "type": "Feature", "properties": { "内容": "通所介護施設　多賀清流の里【通所介護】滋賀県犬上郡多賀町大字佐目６７５", "url": "https://www.kaigokensaku.mhlw.go.jp/25/index.php?action_kouhyou_detail_004_kani=true&JigyosyoCd=2571800107-00&ServiceCd=150&Type=search", "url2": "https://tashinkai.jp" }, "geometry": { "type": "Point", "coordinates": [ 136.3357552, 35.20792 ] } },
{ "type": "Feature", "properties": { "内容": "ハートフルデイサービスセンター【通所介護】滋賀県犬上郡多賀町中川原605-2", "url": "https://www.kaigokensaku.mhlw.go.jp/25/index.php?action_kouhyou_detail_004_kani=true&JigyosyoCd=2571800024-00&ServiceCd=150&Type=search", "url2": "http://kotoukai.or.jp/" }, "geometry": { "type": "Point", "coordinates": [ 136.27928339999994, 35.2355997 ] } },
{ "type": "Feature", "properties": { "内容": "デイホームゆりの木多賀【通所介護】滋賀県犬上郡多賀町多賀1600－48", "url": "https://www.kaigokensaku.mhlw.go.jp/25/index.php?action_kouhyou_detail_004_kani=true&JigyosyoCd=2571800339-00&ServiceCd=150&Type=search", "url2": null }, "geometry": { "type": "Point", "coordinates": [ 136.291740800000071, 35.220969 ] } }
]
}
