{
"type": "FeatureCollection",
"name": "geo_25_訪問入浴介護",
"crs": { "type": "name", "properties": { "name": "urn:ogc:def:crs:OGC:1.3:CRS84" } },
"features": [
{ "type": "Feature", "properties": { "内容": "アスケア訪問入浴　大津【訪問入浴介護】滋賀県大津市丸の内町1-23", "url": "https://www.kaigokensaku.mhlw.go.jp/25/index.php?action_kouhyou_detail_004_kani=true&JigyosyoCd=2570100269-00&ServiceCd=120&Type=search", "url2": "https://www.as-care.co.jp/" }, "geometry": { "type": "Point", "coordinates": [ 135.891852484669499, 34.996268118085659 ] } },
{ "type": "Feature", "properties": { "内容": "田中ケアサービス株式会社　大津支援センター【訪問入浴介護】滋賀県大津市鏡が浜15-41", "url": "https://www.kaigokensaku.mhlw.go.jp/25/index.php?action_kouhyou_detail_004_kani=true&JigyosyoCd=2570100194-00&ServiceCd=120&Type=search", "url2": "http://www.tanakacare.co.jp/" }, "geometry": { "type": "Point", "coordinates": [ 135.8684442, 35.0467508 ] } },
{ "type": "Feature", "properties": { "内容": "アースサポート大津【訪問入浴介護】滋賀県大津市中央1丁目6番15号", "url": "https://www.kaigokensaku.mhlw.go.jp/25/index.php?action_kouhyou_detail_004_kani=true&JigyosyoCd=2570102471-00&ServiceCd=120&Type=search", "url2": "http://www.earthsupport.co.jp" }, "geometry": { "type": "Point", "coordinates": [ 135.862909700000046, 35.0102439 ] } },
{ "type": "Feature", "properties": { "内容": "ラ・ケアながら【訪問入浴介護】大津市長等二丁目７－４", "url": "https://www.kaigokensaku.mhlw.go.jp/25/index.php?action_kouhyou_detail_004_kani=true&JigyosyoCd=2570100095-00&ServiceCd=120&Type=search", "url2": "http://www.la-care.jp" }, "geometry": { "type": "Point", "coordinates": [ 135.85901, 35.0094384 ] } },
{ "type": "Feature", "properties": { "内容": "訪問入浴サービス湯ず【訪問入浴介護】滋賀県大津市稲津二丁目3－30", "url": "https://www.kaigokensaku.mhlw.go.jp/25/index.php?action_kouhyou_detail_004_kani=true&JigyosyoCd=2570106456-00&ServiceCd=120&Type=search", "url2": "https//npo-yudu.jp" }, "geometry": { "type": "Point", "coordinates": [ 135.9148332, 34.9494853 ] } },
{ "type": "Feature", "properties": { "内容": "アスケア訪問入浴　彦根【訪問入浴介護】滋賀県彦根市高宮町1362-2センチュリーマンション110号", "url": "https://www.kaigokensaku.mhlw.go.jp/25/index.php?action_kouhyou_detail_004_kani=true&JigyosyoCd=2570201042-00&ServiceCd=120&Type=search", "url2": "https://www.as-care.co.jp/" }, "geometry": { "type": "Point", "coordinates": [ 136.249880699999949, 35.2413258 ] } },
{ "type": "Feature", "properties": { "内容": "田中ケアサービス株式会社彦根支援センター【訪問入浴介護】彦根市外町浄土１２９－２", "url": "https://www.kaigokensaku.mhlw.go.jp/25/index.php?action_kouhyou_detail_004_kani=true&JigyosyoCd=2570200010-00&ServiceCd=120&Type=search", "url2": "http;/www.tanakacare.co.jp/" }, "geometry": { "type": "Point", "coordinates": [ 136.2642836, 35.2670538 ] } },
{ "type": "Feature", "properties": { "内容": "田中ケアサービス株式会社長浜支援センター【訪問入浴介護】滋賀県長浜市祇園町278-5", "url": "https://www.kaigokensaku.mhlw.go.jp/25/index.php?action_kouhyou_detail_004_kani=true&JigyosyoCd=2570300224-00&ServiceCd=120&Type=search", "url2": "http://www.tanakacare.co.jp/" }, "geometry": { "type": "Point", "coordinates": [ 136.258763541000349, 35.385859102733058 ] } },
{ "type": "Feature", "properties": { "内容": "田中ケアサービス株式会社　高月支援センター【訪問入浴介護】滋賀県長浜市高月町柏原418－1", "url": "https://www.kaigokensaku.mhlw.go.jp/25/index.php?action_kouhyou_detail_004_kani=true&JigyosyoCd=2570300836-00&ServiceCd=120&Type=search", "url2": "http://www.tanakacare.co.jp/" }, "geometry": { "type": "Point", "coordinates": [ 136.231447099999968, 35.4775834 ] } },
{ "type": "Feature", "properties": { "内容": "アスケア訪問入浴　長浜【訪問入浴介護】滋賀県長浜市八幡東町193ワイエフビル26テナント7号室", "url": "https://www.kaigokensaku.mhlw.go.jp/25/index.php?action_kouhyou_detail_004_kani=true&JigyosyoCd=2570300687-00&ServiceCd=120&Type=search", "url2": "https://www.as-care.co.jp/" }, "geometry": { "type": "Point", "coordinates": [ 136.281386056266797, 35.384677633735983 ] } },
{ "type": "Feature", "properties": { "内容": "アスケア訪問入浴　近江八幡【訪問入浴介護】滋賀県近江八幡市八木町119Y'sビルディング八木町102号室", "url": "https://www.kaigokensaku.mhlw.go.jp/25/index.php?action_kouhyou_detail_004_kani=true&JigyosyoCd=2570400172-00&ServiceCd=120&Type=search", "url2": "https://www.as-care.co.jp/" }, "geometry": { "type": "Point", "coordinates": [ 136.0828722, 35.1210033 ] } },
{ "type": "Feature", "properties": { "内容": "あかりケアサービス【訪問入浴介護】草津市下物町64-8", "url": "https://www.kaigokensaku.mhlw.go.jp/25/index.php?action_kouhyou_detail_004_kani=true&JigyosyoCd=2570600433-00&ServiceCd=120&Type=search", "url2": "http://www.geocities.jp/akarikeasa_bisu" }, "geometry": { "type": "Point", "coordinates": [ 135.950055499999962, 35.059225 ] } },
{ "type": "Feature", "properties": { "内容": "アスケア訪問入浴　草津【訪問入浴介護】滋賀県草津市野村七丁目16-15Uコート202号室", "url": "https://www.kaigokensaku.mhlw.go.jp/25/index.php?action_kouhyou_detail_004_kani=true&JigyosyoCd=2570600052-00&ServiceCd=120&Type=search", "url2": "https://www.as-care.co.jp/" }, "geometry": { "type": "Point", "coordinates": [ 135.9565857, 35.0303093 ] } },
{ "type": "Feature", "properties": { "内容": "甲賀市社協　湯ステーション【訪問入浴介護】滋賀県甲賀市甲南町寺庄960番地", "url": "https://www.kaigokensaku.mhlw.go.jp/25/index.php?action_kouhyou_detail_004_kani=true&JigyosyoCd=2571401187-00&ServiceCd=120&Type=search", "url2": "http://kokashakyo.jp/" }, "geometry": { "type": "Point", "coordinates": [ 136.179842893254119, 34.920836574891794 ] } },
{ "type": "Feature", "properties": { "内容": "アスケア訪問入浴　甲賀【訪問入浴介護】滋賀県甲賀市水口町名坂13番地1アルテ名坂事務所兼用住宅1階", "url": "https://www.kaigokensaku.mhlw.go.jp/25/index.php?action_kouhyou_detail_004_kani=true&JigyosyoCd=2571400445-00&ServiceCd=120&Type=search", "url2": "https://www.as-care.co.jp/" }, "geometry": { "type": "Point", "coordinates": [ 136.171181165340414, 34.981100524267099 ] } },
{ "type": "Feature", "properties": { "内容": "アスケア訪問入浴　野洲【訪問入浴介護】滋賀県野洲市小篠原1991番地2ゆめのはうす105号", "url": "https://www.kaigokensaku.mhlw.go.jp/25/index.php?action_kouhyou_detail_004_kani=true&JigyosyoCd=2571300322-00&ServiceCd=120&Type=search", "url2": "https://www.as-care.co.jp/" }, "geometry": { "type": "Point", "coordinates": [ 136.026303200000029, 35.068564800000011 ] } },
{ "type": "Feature", "properties": { "内容": "アスケア訪問入浴　高島【訪問入浴介護】滋賀県高島市今津町今津2447-9コーポラス今津1階", "url": "https://www.kaigokensaku.mhlw.go.jp/25/index.php?action_kouhyou_detail_004_kani=true&JigyosyoCd=2572200281-00&ServiceCd=120&Type=search", "url2": "https://www.as-care.co.jp/" }, "geometry": { "type": "Point", "coordinates": [ 136.032333600839678, 35.392440237705614 ] } },
{ "type": "Feature", "properties": { "内容": "田中ケアサービス株式会社八日市支援センター【訪問入浴介護】滋賀県東近江市八日市金屋２丁目２－７", "url": "https://www.kaigokensaku.mhlw.go.jp/25/index.php?action_kouhyou_detail_004_kani=true&JigyosyoCd=2570500070-00&ServiceCd=120&Type=search", "url2": "http://www.tanakacare.co.jp/" }, "geometry": { "type": "Point", "coordinates": [ 136.1997566, 35.1112309 ] } }
]
}
