{
"type": "FeatureCollection",
"name": "geo_25_4",
"crs": { "type": "name", "properties": { "name": "urn:ogc:def:crs:OGC:1.3:CRS84" } },
"features": [
{ "type": "Feature", "properties": { "ID": 2546250000070, "正式名称": "中西母乳育児相談室", "機関区分": 4, "都道府県コード": 25, "市区町村コード": 201, "所在地": "滋賀県大津市一里山一丁目８－２　一里山マンション１号室", "緯度": 34.984481, "経度": 135.927239, "url": "https://www.iryou.teikyouseido.mhlw.go.jp/znk-web/juminkanja/S2430/initialize?prefCd=25&kikanCd=6250000070&kikanKbn=4", "url2": null, "内容": "中西母乳育児相談室【4:助産院】滋賀県大津市一里山一丁目８－２　一里山マンション１号室" }, "geometry": { "type": "Point", "coordinates": [ 135.927239, 34.984481 ] } },
{ "type": "Feature", "properties": { "ID": 2546250000090, "正式名称": "ふちもと助産院（出張）", "機関区分": 4, "都道府県コード": 25, "市区町村コード": 201, "所在地": "滋賀県大津市", "緯度": 35.003635, "経度": 135.86775, "url": "https://www.iryou.teikyouseido.mhlw.go.jp/znk-web/juminkanja/S2430/initialize?prefCd=25&kikanCd=6250000090&kikanKbn=4", "url2": null, "内容": "ふちもと助産院（出張）【4:助産院】滋賀県大津市" }, "geometry": { "type": "Point", "coordinates": [ 135.86775, 35.003635 ] } },
{ "type": "Feature", "properties": { "ID": 2546250000240, "正式名称": "三宅助産院", "機関区分": 4, "都道府県コード": 25, "市区町村コード": 210, "所在地": "滋賀県野洲市", "緯度": 35.09333, "経度": 136.01576, "url": "https://www.iryou.teikyouseido.mhlw.go.jp/znk-web/juminkanja/S2430/initialize?prefCd=25&kikanCd=6250000240&kikanKbn=4", "url2": null, "内容": "三宅助産院【4:助産院】滋賀県野洲市" }, "geometry": { "type": "Point", "coordinates": [ 136.01576, 35.09333 ] } },
{ "type": "Feature", "properties": { "ID": 2546250000250, "正式名称": "中井助産所", "機関区分": 4, "都道府県コード": 25, "市区町村コード": 207, "所在地": "滋賀県守山市", "緯度": 35.084965, "経度": 135.96783, "url": "https://www.iryou.teikyouseido.mhlw.go.jp/znk-web/juminkanja/S2430/initialize?prefCd=25&kikanCd=6250000250&kikanKbn=4", "url2": null, "内容": "中井助産所【4:助産院】滋賀県守山市" }, "geometry": { "type": "Point", "coordinates": [ 135.96783, 35.084965 ] } },
{ "type": "Feature", "properties": { "ID": 2546250000290, "正式名称": "北村助産院", "機関区分": 4, "都道府県コード": 25, "市区町村コード": 207, "所在地": "滋賀県守山市", "緯度": 35.084965, "経度": 135.96783, "url": "https://www.iryou.teikyouseido.mhlw.go.jp/znk-web/juminkanja/S2430/initialize?prefCd=25&kikanCd=6250000290&kikanKbn=4", "url2": null, "内容": "北村助産院【4:助産院】滋賀県守山市" }, "geometry": { "type": "Point", "coordinates": [ 135.96783, 35.084965 ] } },
{ "type": "Feature", "properties": { "ID": 2546250000310, "正式名称": "ゆうこ助産院", "機関区分": 4, "都道府県コード": 25, "市区町村コード": 209, "所在地": "滋賀県甲賀市甲賀町油日２２６９－２４９", "緯度": 34.868156, "経度": 136.255619, "url": "https://www.iryou.teikyouseido.mhlw.go.jp/znk-web/juminkanja/S2430/initialize?prefCd=25&kikanCd=6250000310&kikanKbn=4", "url2": "www.yu-ko903.jp", "内容": "ゆうこ助産院【4:助産院】滋賀県甲賀市甲賀町油日２２６９－２４９" }, "geometry": { "type": "Point", "coordinates": [ 136.255619, 34.868156 ] } },
{ "type": "Feature", "properties": { "ID": 2546250000330, "正式名称": "あずま助産院", "機関区分": 4, "都道府県コード": 25, "市区町村コード": 209, "所在地": "滋賀県甲賀市", "緯度": 34.970734, "経度": 136.16861, "url": "https://www.iryou.teikyouseido.mhlw.go.jp/znk-web/juminkanja/S2430/initialize?prefCd=25&kikanCd=6250000330&kikanKbn=4", "url2": null, "内容": "あずま助産院【4:助産院】滋賀県甲賀市" }, "geometry": { "type": "Point", "coordinates": [ 136.16861, 34.970734 ] } },
{ "type": "Feature", "properties": { "ID": 2546250000390, "正式名称": "うたな助産所", "機関区分": 4, "都道府県コード": 25, "市区町村コード": 204, "所在地": "滋賀県近江八幡市牧町８０８", "緯度": 35.134572, "経度": 136.056425, "url": "https://www.iryou.teikyouseido.mhlw.go.jp/znk-web/juminkanja/S2430/initialize?prefCd=25&kikanCd=6250000390&kikanKbn=4", "url2": "https://www.midwifemap.com", "内容": "うたな助産所【4:助産院】滋賀県近江八幡市牧町８０８" }, "geometry": { "type": "Point", "coordinates": [ 136.056425, 35.134572 ] } },
{ "type": "Feature", "properties": { "ID": 2546250000400, "正式名称": "磯部助産院", "機関区分": 4, "都道府県コード": 25, "市区町村コード": 384, "所在地": "滋賀県蒲生郡竜王町山之上５２８７", "緯度": 35.045974, "経度": 136.142519, "url": "https://www.iryou.teikyouseido.mhlw.go.jp/znk-web/juminkanja/S2430/initialize?prefCd=25&kikanCd=6250000400&kikanKbn=4", "url2": null, "内容": "磯部助産院【4:助産院】滋賀県蒲生郡竜王町山之上５２８７" }, "geometry": { "type": "Point", "coordinates": [ 136.142519, 35.045974 ] } },
{ "type": "Feature", "properties": { "ID": 2546250000410, "正式名称": "あらかわ助産院", "機関区分": 4, "都道府県コード": 25, "市区町村コード": 204, "所在地": "滋賀県近江八幡市安土町常楽寺７７５－４", "緯度": 35.143683, "経度": 136.129481, "url": "https://www.iryou.teikyouseido.mhlw.go.jp/znk-web/juminkanja/S2430/initialize?prefCd=25&kikanCd=6250000410&kikanKbn=4", "url2": null, "内容": "あらかわ助産院【4:助産院】滋賀県近江八幡市安土町常楽寺７７５－４" }, "geometry": { "type": "Point", "coordinates": [ 136.129481, 35.143683 ] } },
{ "type": "Feature", "properties": { "ID": 2546250000430, "正式名称": "助産院ＮＯＲＩＫＯ", "機関区分": 4, "都道府県コード": 25, "市区町村コード": 202, "所在地": "滋賀県彦根市宇尾町１－３９", "緯度": 35.243544, "経度": 136.238314, "url": "https://www.iryou.teikyouseido.mhlw.go.jp/znk-web/juminkanja/S2430/initialize?prefCd=25&kikanCd=6250000430&kikanKbn=4", "url2": "josanin-noriko.net", "内容": "助産院ＮＯＲＩＫＯ【4:助産院】滋賀県彦根市宇尾町１－３９" }, "geometry": { "type": "Point", "coordinates": [ 136.238314, 35.243544 ] } },
{ "type": "Feature", "properties": { "ID": 2546250000510, "正式名称": "槙田助産院", "機関区分": 4, "都道府県コード": 25, "市区町村コード": 201, "所在地": "滋賀県大津市あかね町１２－２５", "緯度": 35.043211, "経度": 135.863397, "url": "https://www.iryou.teikyouseido.mhlw.go.jp/znk-web/juminkanja/S2430/initialize?prefCd=25&kikanCd=6250000510&kikanKbn=4", "url2": "http://www.makita-j.com", "内容": "槙田助産院【4:助産院】滋賀県大津市あかね町１２－２５" }, "geometry": { "type": "Point", "coordinates": [ 135.863397, 35.043211 ] } },
{ "type": "Feature", "properties": { "ID": 2546250000530, "正式名称": "すこやか母子整体かわぐち", "機関区分": 4, "都道府県コード": 25, "市区町村コード": 201, "所在地": "滋賀県大津市一里山３丁目２－４９", "緯度": 34.986322, "経度": 135.933703, "url": "https://www.iryou.teikyouseido.mhlw.go.jp/znk-web/juminkanja/S2430/initialize?prefCd=25&kikanCd=6250000530&kikanKbn=4", "url2": "http://www.eonet.ne.jp/~suko-kawa/", "内容": "すこやか母子整体かわぐち【4:助産院】滋賀県大津市一里山３丁目２－４９" }, "geometry": { "type": "Point", "coordinates": [ 135.933703, 34.986322 ] } },
{ "type": "Feature", "properties": { "ID": 2546250000580, "正式名称": "ママ＆ベビー相談室グラシアス", "機関区分": 4, "都道府県コード": 25, "市区町村コード": 207, "所在地": "滋賀県守山市", "緯度": 35.084965, "経度": 135.96783, "url": "https://www.iryou.teikyouseido.mhlw.go.jp/znk-web/juminkanja/S2430/initialize?prefCd=25&kikanCd=6250000580&kikanKbn=4", "url2": null, "内容": "ママ＆ベビー相談室グラシアス【4:助産院】滋賀県守山市" }, "geometry": { "type": "Point", "coordinates": [ 135.96783, 35.084965 ] } },
{ "type": "Feature", "properties": { "ID": 2546250000600, "正式名称": "プラーナ助産所", "機関区分": 4, "都道府県コード": 25, "市区町村コード": 203, "所在地": "滋賀県長浜市今町", "緯度": 35.410007, "経度": 136.29384, "url": "https://www.iryou.teikyouseido.mhlw.go.jp/znk-web/juminkanja/S2430/initialize?prefCd=25&kikanCd=6250000600&kikanKbn=4", "url2": null, "内容": "プラーナ助産所【4:助産院】滋賀県長浜市今町" }, "geometry": { "type": "Point", "coordinates": [ 136.29384, 35.410007 ] } },
{ "type": "Feature", "properties": { "ID": 2546250000630, "正式名称": "川島助産院", "機関区分": 4, "都道府県コード": 25, "市区町村コード": 202, "所在地": "滋賀県彦根市日夏町２８２８－７７", "緯度": 35.232489, "経度": 136.220111, "url": "https://www.iryou.teikyouseido.mhlw.go.jp/znk-web/juminkanja/S2430/initialize?prefCd=25&kikanCd=6250000630&kikanKbn=4", "url2": null, "内容": "川島助産院【4:助産院】滋賀県彦根市日夏町２８２８－７７" }, "geometry": { "type": "Point", "coordinates": [ 136.220111, 35.232489 ] } },
{ "type": "Feature", "properties": { "ID": 2546250000640, "正式名称": "あさ助産院", "機関区分": 4, "都道府県コード": 25, "市区町村コード": 211, "所在地": "滋賀県湖南市", "緯度": 35.00907, "経度": 136.07272, "url": "https://www.iryou.teikyouseido.mhlw.go.jp/znk-web/juminkanja/S2430/initialize?prefCd=25&kikanCd=6250000640&kikanKbn=4", "url2": null, "内容": "あさ助産院【4:助産院】滋賀県湖南市" }, "geometry": { "type": "Point", "coordinates": [ 136.07272, 35.00907 ] } },
{ "type": "Feature", "properties": { "ID": 2546250000740, "正式名称": "中西助産院", "機関区分": 4, "都道府県コード": 25, "市区町村コード": 209, "所在地": "滋賀県甲賀市甲南町森尻４５１－１", "緯度": 34.938539, "経度": 136.158656, "url": "https://www.iryou.teikyouseido.mhlw.go.jp/znk-web/juminkanja/S2430/initialize?prefCd=25&kikanCd=6250000740&kikanKbn=4", "url2": null, "内容": "中西助産院【4:助産院】滋賀県甲賀市甲南町森尻４５１－１" }, "geometry": { "type": "Point", "coordinates": [ 136.158656, 34.938539 ] } },
{ "type": "Feature", "properties": { "ID": 2546250000760, "正式名称": "よご産後助産院", "機関区分": 4, "都道府県コード": 25, "市区町村コード": 211, "所在地": "滋賀県湖南市", "緯度": 35.00907, "経度": 136.07272, "url": "https://www.iryou.teikyouseido.mhlw.go.jp/znk-web/juminkanja/S2430/initialize?prefCd=25&kikanCd=6250000760&kikanKbn=4", "url2": null, "内容": "よご産後助産院【4:助産院】滋賀県湖南市" }, "geometry": { "type": "Point", "coordinates": [ 136.07272, 35.00907 ] } },
{ "type": "Feature", "properties": { "ID": 2546250000770, "正式名称": "あさの助産院", "機関区分": 4, "都道府県コード": 25, "市区町村コード": 201, "所在地": "滋賀県大津市", "緯度": 35.003635, "経度": 135.86775, "url": "https://www.iryou.teikyouseido.mhlw.go.jp/znk-web/juminkanja/S2430/initialize?prefCd=25&kikanCd=6250000770&kikanKbn=4", "url2": null, "内容": "あさの助産院【4:助産院】滋賀県大津市" }, "geometry": { "type": "Point", "coordinates": [ 135.86775, 35.003635 ] } },
{ "type": "Feature", "properties": { "ID": 2546250000800, "正式名称": "吉井助産院", "機関区分": 4, "都道府県コード": 25, "市区町村コード": 201, "所在地": "滋賀県大津市", "緯度": 35.003635, "経度": 135.86775, "url": "https://www.iryou.teikyouseido.mhlw.go.jp/znk-web/juminkanja/S2430/initialize?prefCd=25&kikanCd=6250000800&kikanKbn=4", "url2": null, "内容": "吉井助産院【4:助産院】滋賀県大津市" }, "geometry": { "type": "Point", "coordinates": [ 135.86775, 35.003635 ] } },
{ "type": "Feature", "properties": { "ID": 2546250000830, "正式名称": "助産院　花花", "機関区分": 4, "都道府県コード": 25, "市区町村コード": 209, "所在地": "滋賀県甲賀市", "緯度": 34.970734, "経度": 136.16861, "url": "https://www.iryou.teikyouseido.mhlw.go.jp/znk-web/juminkanja/S2430/initialize?prefCd=25&kikanCd=6250000830&kikanKbn=4", "url2": null, "内容": "助産院　花花【4:助産院】滋賀県甲賀市" }, "geometry": { "type": "Point", "coordinates": [ 136.16861, 34.970734 ] } },
{ "type": "Feature", "properties": { "ID": 2546250000840, "正式名称": "さつき助産院。", "機関区分": 4, "都道府県コード": 25, "市区町村コード": 201, "所在地": "滋賀県大津市仰木の里東２丁目９－２", "緯度": 35.104419, "経度": 135.896259, "url": "https://www.iryou.teikyouseido.mhlw.go.jp/znk-web/juminkanja/S2430/initialize?prefCd=25&kikanCd=6250000840&kikanKbn=4", "url2": "https://satsuki-j.amebaownd.com/", "内容": "さつき助産院。【4:助産院】滋賀県大津市仰木の里東２丁目９－２" }, "geometry": { "type": "Point", "coordinates": [ 135.896259, 35.104419 ] } },
{ "type": "Feature", "properties": { "ID": 2546250000850, "正式名称": "ふりぃ助産院", "機関区分": 4, "都道府県コード": 25, "市区町村コード": 201, "所在地": "滋賀県大津市", "緯度": 35.003635, "経度": 135.86775, "url": "https://www.iryou.teikyouseido.mhlw.go.jp/znk-web/juminkanja/S2430/initialize?prefCd=25&kikanCd=6250000850&kikanKbn=4", "url2": "https://free-of-midwife.jimdofree.com/", "内容": "ふりぃ助産院【4:助産院】滋賀県大津市" }, "geometry": { "type": "Point", "coordinates": [ 135.86775, 35.003635 ] } },
{ "type": "Feature", "properties": { "ID": 2546250000860, "正式名称": "よしむら助産所", "機関区分": 4, "都道府県コード": 25, "市区町村コード": 202, "所在地": "滋賀県彦根市彦富町６０３－２８", "緯度": 35.202158, "経度": 136.191136, "url": "https://www.iryou.teikyouseido.mhlw.go.jp/znk-web/juminkanja/S2430/initialize?prefCd=25&kikanCd=6250000860&kikanKbn=4", "url2": "https://yoshimura-mh.com", "内容": "よしむら助産所【4:助産院】滋賀県彦根市彦富町６０３－２８" }, "geometry": { "type": "Point", "coordinates": [ 136.191136, 35.202158 ] } },
{ "type": "Feature", "properties": { "ID": 2546250000900, "正式名称": "助産院　ひまわり", "機関区分": 4, "都道府県コード": 25, "市区町村コード": 202, "所在地": "滋賀県彦根市", "緯度": 35.25458, "経度": 136.21758, "url": "https://www.iryou.teikyouseido.mhlw.go.jp/znk-web/juminkanja/S2430/initialize?prefCd=25&kikanCd=6250000900&kikanKbn=4", "url2": null, "内容": "助産院　ひまわり【4:助産院】滋賀県彦根市" }, "geometry": { "type": "Point", "coordinates": [ 136.21758, 35.25458 ] } },
{ "type": "Feature", "properties": { "ID": 2546250000920, "正式名称": "いっ歩助産所", "機関区分": 4, "都道府県コード": 25, "市区町村コード": 203, "所在地": "滋賀県長浜市湖北町速水９８０", "緯度": 35.448867, "経度": 136.238143, "url": "https://www.iryou.teikyouseido.mhlw.go.jp/znk-web/juminkanja/S2430/initialize?prefCd=25&kikanCd=6250000920&kikanKbn=4", "url2": "http://9wad2.crayonsita.net", "内容": "いっ歩助産所【4:助産院】滋賀県長浜市湖北町速水９８０" }, "geometry": { "type": "Point", "coordinates": [ 136.238143, 35.448867 ] } },
{ "type": "Feature", "properties": { "ID": 2546250000960, "正式名称": "助産院「ままの手」なごみ", "機関区分": 4, "都道府県コード": 25, "市区町村コード": 203, "所在地": "滋賀県長浜市新庄中町１７０", "緯度": 35.400412, "経度": 136.267767, "url": "https://www.iryou.teikyouseido.mhlw.go.jp/znk-web/juminkanja/S2430/initialize?prefCd=25&kikanCd=6250000960&kikanKbn=4", "url2": "himeandhime0512.wixsite.com", "内容": "助産院「ままの手」なごみ【4:助産院】滋賀県長浜市新庄中町１７０" }, "geometry": { "type": "Point", "coordinates": [ 136.267767, 35.400412 ] } },
{ "type": "Feature", "properties": { "ID": 2546250000980, "正式名称": "みのり助産院", "機関区分": 4, "都道府県コード": 25, "市区町村コード": 211, "所在地": "滋賀県湖南市菩提寺１６９９番地", "緯度": 35.028295, "経度": 136.059648, "url": "https://www.iryou.teikyouseido.mhlw.go.jp/znk-web/juminkanja/S2430/initialize?prefCd=25&kikanCd=6250000980&kikanKbn=4", "url2": "https://minori-shiga.com", "内容": "みのり助産院【4:助産院】滋賀県湖南市菩提寺１６９９番地" }, "geometry": { "type": "Point", "coordinates": [ 136.059648, 35.028295 ] } },
{ "type": "Feature", "properties": { "ID": 2546250000990, "正式名称": "いまえだ助産院", "機関区分": 4, "都道府県コード": 25, "市区町村コード": 201, "所在地": "滋賀県大津市", "緯度": 35.003635, "経度": 135.86775, "url": "https://www.iryou.teikyouseido.mhlw.go.jp/znk-web/juminkanja/S2430/initialize?prefCd=25&kikanCd=6250000990&kikanKbn=4", "url2": "https://imaeda-josanin.com/", "内容": "いまえだ助産院【4:助産院】滋賀県大津市" }, "geometry": { "type": "Point", "coordinates": [ 135.86775, 35.003635 ] } },
{ "type": "Feature", "properties": { "ID": 2546250001000, "正式名称": "出張専門　あつみ助産院", "機関区分": 4, "都道府県コード": 25, "市区町村コード": 201, "所在地": "滋賀県大津市", "緯度": 35.003635, "経度": 135.86775, "url": "https://www.iryou.teikyouseido.mhlw.go.jp/znk-web/juminkanja/S2430/initialize?prefCd=25&kikanCd=6250001000&kikanKbn=4", "url2": null, "内容": "出張専門　あつみ助産院【4:助産院】滋賀県大津市" }, "geometry": { "type": "Point", "coordinates": [ 135.86775, 35.003635 ] } },
{ "type": "Feature", "properties": { "ID": 2546250001010, "正式名称": "出張専門助産院　まんま", "機関区分": 4, "都道府県コード": 25, "市区町村コード": 212, "所在地": "滋賀県高島市", "緯度": 35.352905, "経度": 136.04175, "url": "https://www.iryou.teikyouseido.mhlw.go.jp/znk-web/juminkanja/S2430/initialize?prefCd=25&kikanCd=6250001010&kikanKbn=4", "url2": null, "内容": "出張専門助産院　まんま【4:助産院】滋賀県高島市" }, "geometry": { "type": "Point", "coordinates": [ 136.04175, 35.352905 ] } },
{ "type": "Feature", "properties": { "ID": 2546250001020, "正式名称": "薬師川母乳育児相談室", "機関区分": 4, "都道府県コード": 25, "市区町村コード": 212, "所在地": "滋賀県高島市今津町松陽台１丁目６－２", "緯度": 35.004531, "経度": 135.86859, "url": "https://www.iryou.teikyouseido.mhlw.go.jp/znk-web/juminkanja/S2430/initialize?prefCd=25&kikanCd=6250001020&kikanKbn=4", "url2": "http://yakushigawa-oketani.jimdo.com", "内容": "薬師川母乳育児相談室【4:助産院】滋賀県高島市今津町松陽台１丁目６－２" }, "geometry": { "type": "Point", "coordinates": [ 135.86859, 35.004531 ] } },
{ "type": "Feature", "properties": { "ID": 2546250001050, "正式名称": "助産院　そらいろ", "機関区分": 4, "都道府県コード": 25, "市区町村コード": 207, "所在地": "滋賀県守山市", "緯度": 35.084965, "経度": 135.96783, "url": "https://www.iryou.teikyouseido.mhlw.go.jp/znk-web/juminkanja/S2430/initialize?prefCd=25&kikanCd=6250001050&kikanKbn=4", "url2": "https://www.sorajyosan.net/", "内容": "助産院　そらいろ【4:助産院】滋賀県守山市" }, "geometry": { "type": "Point", "coordinates": [ 135.96783, 35.084965 ] } },
{ "type": "Feature", "properties": { "ID": 2546250001070, "正式名称": "伊丹助産院", "機関区分": 4, "都道府県コード": 25, "市区町村コード": 212, "所在地": "滋賀県高島市", "緯度": 35.352905, "経度": 136.04175, "url": "https://www.iryou.teikyouseido.mhlw.go.jp/znk-web/juminkanja/S2430/initialize?prefCd=25&kikanCd=6250001070&kikanKbn=4", "url2": null, "内容": "伊丹助産院【4:助産院】滋賀県高島市" }, "geometry": { "type": "Point", "coordinates": [ 136.04175, 35.352905 ] } },
{ "type": "Feature", "properties": { "ID": 2546250001090, "正式名称": "彩香助産院", "機関区分": 4, "都道府県コード": 25, "市区町村コード": 203, "所在地": "滋賀県長浜市高月町渡岸寺２１２－１２", "緯度": 35.474599, "経度": 136.238463, "url": "https://www.iryou.teikyouseido.mhlw.go.jp/znk-web/juminkanja/S2430/initialize?prefCd=25&kikanCd=6250001090&kikanKbn=4", "url2": "http://ameblo.jp/ayaka-jyosanin/", "内容": "彩香助産院【4:助産院】滋賀県長浜市高月町渡岸寺２１２－１２" }, "geometry": { "type": "Point", "coordinates": [ 136.238463, 35.474599 ] } },
{ "type": "Feature", "properties": { "ID": 2546250001100, "正式名称": "てらもと助産院", "機関区分": 4, "都道府県コード": 25, "市区町村コード": 201, "所在地": "滋賀県大津市", "緯度": 35.003635, "経度": 135.86775, "url": "https://www.iryou.teikyouseido.mhlw.go.jp/znk-web/juminkanja/S2430/initialize?prefCd=25&kikanCd=6250001100&kikanKbn=4", "url2": "https://mwseiko.com/", "内容": "てらもと助産院【4:助産院】滋賀県大津市" }, "geometry": { "type": "Point", "coordinates": [ 135.86775, 35.003635 ] } },
{ "type": "Feature", "properties": { "ID": 2546250001110, "正式名称": "ゆらら助産所", "機関区分": 4, "都道府県コード": 25, "市区町村コード": 214, "所在地": "滋賀県米原市村居田６２８", "緯度": 35.40081, "経度": 136.336505, "url": "https://www.iryou.teikyouseido.mhlw.go.jp/znk-web/juminkanja/S2430/initialize?prefCd=25&kikanCd=6250001110&kikanKbn=4", "url2": "https://yulalamw.wixsite.com/yulalamw", "内容": "ゆらら助産所【4:助産院】滋賀県米原市村居田６２８" }, "geometry": { "type": "Point", "coordinates": [ 136.336505, 35.40081 ] } },
{ "type": "Feature", "properties": { "ID": 2546250001130, "正式名称": "びわ子助産院", "機関区分": 4, "都道府県コード": 25, "市区町村コード": 201, "所在地": "滋賀県大津市松原町１９−１１", "緯度": 34.984879, "経度": 135.892736, "url": "https://www.iryou.teikyouseido.mhlw.go.jp/znk-web/juminkanja/S2430/initialize?prefCd=25&kikanCd=6250001130&kikanKbn=4", "url2": "https://select-type.com/s/biwakojosanin", "内容": "びわ子助産院【4:助産院】滋賀県大津市松原町１９−１１" }, "geometry": { "type": "Point", "coordinates": [ 135.892736, 34.984879 ] } },
{ "type": "Feature", "properties": { "ID": 2546250001180, "正式名称": "かおり助産院", "機関区分": 4, "都道府県コード": 25, "市区町村コード": 202, "所在地": "滋賀県彦根市", "緯度": 35.25458, "経度": 136.21758, "url": "https://www.iryou.teikyouseido.mhlw.go.jp/znk-web/juminkanja/S2430/initialize?prefCd=25&kikanCd=6250001180&kikanKbn=4", "url2": null, "内容": "かおり助産院【4:助産院】滋賀県彦根市" }, "geometry": { "type": "Point", "coordinates": [ 136.21758, 35.25458 ] } },
{ "type": "Feature", "properties": { "ID": 2546250001200, "正式名称": "共同助産所　お産子の家", "機関区分": 4, "都道府県コード": 25, "市区町村コード": 213, "所在地": "滋賀県東近江市八日市緑町１７－５", "緯度": 35.004531, "経度": 135.86859, "url": "https://www.iryou.teikyouseido.mhlw.go.jp/znk-web/juminkanja/S2430/initialize?prefCd=25&kikanCd=6250001200&kikanKbn=4", "url2": "https://www.osanko.com", "内容": "共同助産所　お産子の家【4:助産院】滋賀県東近江市八日市緑町１７－５" }, "geometry": { "type": "Point", "coordinates": [ 135.86859, 35.004531 ] } },
{ "type": "Feature", "properties": { "ID": 2546250001210, "正式名称": "和心助産院", "機関区分": 4, "都道府県コード": 25, "市区町村コード": 204, "所在地": "滋賀県近江八幡市", "緯度": 35.15608, "経度": 136.06674, "url": "https://www.iryou.teikyouseido.mhlw.go.jp/znk-web/juminkanja/S2430/initialize?prefCd=25&kikanCd=6250001210&kikanKbn=4", "url2": "https://wako-josanin.jimdofree.com/", "内容": "和心助産院【4:助産院】滋賀県近江八幡市" }, "geometry": { "type": "Point", "coordinates": [ 136.06674, 35.15608 ] } },
{ "type": "Feature", "properties": { "ID": 2546250001220, "正式名称": "うみのこ助産院", "機関区分": 4, "都道府県コード": 25, "市区町村コード": 202, "所在地": "滋賀県彦根市稲部町２９０－２", "緯度": 35.20588, "経度": 136.194489, "url": "https://www.iryou.teikyouseido.mhlw.go.jp/znk-web/juminkanja/S2430/initialize?prefCd=25&kikanCd=6250001220&kikanKbn=4", "url2": null, "内容": "うみのこ助産院【4:助産院】滋賀県彦根市稲部町２９０－２" }, "geometry": { "type": "Point", "coordinates": [ 136.194489, 35.20588 ] } },
{ "type": "Feature", "properties": { "ID": 2546250001240, "正式名称": "ｈａｎａｍｏｍｏ助産院", "機関区分": 4, "都道府県コード": 25, "市区町村コード": 206, "所在地": "滋賀県草津市", "緯度": 35.034344, "経度": 135.95146, "url": "https://www.iryou.teikyouseido.mhlw.go.jp/znk-web/juminkanja/S2430/initialize?prefCd=25&kikanCd=6250001240&kikanKbn=4", "url2": null, "内容": "ｈａｎａｍｏｍｏ助産院【4:助産院】滋賀県草津市" }, "geometry": { "type": "Point", "coordinates": [ 135.95146, 35.034344 ] } },
{ "type": "Feature", "properties": { "ID": 2546250001250, "正式名称": "はやし助産院", "機関区分": 4, "都道府県コード": 25, "市区町村コード": 206, "所在地": "滋賀県草津市新浜町４９５－４", "緯度": 34.99767, "経度": 135.923108, "url": "https://www.iryou.teikyouseido.mhlw.go.jp/znk-web/juminkanja/S2430/initialize?prefCd=25&kikanCd=6250001250&kikanKbn=4", "url2": "mamacare-mw.com", "内容": "はやし助産院【4:助産院】滋賀県草津市新浜町４９５－４" }, "geometry": { "type": "Point", "coordinates": [ 135.923108, 34.99767 ] } },
{ "type": "Feature", "properties": { "ID": 2546250001260, "正式名称": "はる助産院", "機関区分": 4, "都道府県コード": 25, "市区町村コード": 208, "所在地": "滋賀県栗東市坊袋１１４－１", "緯度": 35.020646, "経度": 135.983061, "url": "https://www.iryou.teikyouseido.mhlw.go.jp/znk-web/juminkanja/S2430/initialize?prefCd=25&kikanCd=6250001260&kikanKbn=4", "url2": "https://lit.link/harujyosansi/", "内容": "はる助産院【4:助産院】滋賀県栗東市坊袋１１４－１" }, "geometry": { "type": "Point", "coordinates": [ 135.983061, 35.020646 ] } },
{ "type": "Feature", "properties": { "ID": 2546250001290, "正式名称": "コトノハ助産院", "機関区分": 4, "都道府県コード": 25, "市区町村コード": 206, "所在地": "滋賀県草津市", "緯度": 35.034344, "経度": 135.95146, "url": "https://www.iryou.teikyouseido.mhlw.go.jp/znk-web/juminkanja/S2430/initialize?prefCd=25&kikanCd=6250001290&kikanKbn=4", "url2": "https://kotonoha-jyosanin.jimdofree.com", "内容": "コトノハ助産院【4:助産院】滋賀県草津市" }, "geometry": { "type": "Point", "coordinates": [ 135.95146, 35.034344 ] } },
{ "type": "Feature", "properties": { "ID": 2546250001300, "正式名称": "助産院　月の小屋", "機関区分": 4, "都道府県コード": 25, "市区町村コード": 204, "所在地": "滋賀県近江八幡市池田町１－２１", "緯度": 35.138802, "経度": 136.08476, "url": "https://www.iryou.teikyouseido.mhlw.go.jp/znk-web/juminkanja/S2430/initialize?prefCd=25&kikanCd=6250001300&kikanKbn=4", "url2": null, "内容": "助産院　月の小屋【4:助産院】滋賀県近江八幡市池田町１－２１" }, "geometry": { "type": "Point", "coordinates": [ 136.08476, 35.138802 ] } },
{ "type": "Feature", "properties": { "ID": 2546250001310, "正式名称": "ｍｉｄｗｉｆｅ　ｓａｌｏｎ　ｍｏｍｏｉｒｏ", "機関区分": 4, "都道府県コード": 25, "市区町村コード": 201, "所在地": "滋賀県大津市", "緯度": 35.003635, "経度": 135.86775, "url": "https://www.iryou.teikyouseido.mhlw.go.jp/znk-web/juminkanja/S2430/initialize?prefCd=25&kikanCd=6250001310&kikanKbn=4", "url2": null, "内容": "ｍｉｄｗｉｆｅ　ｓａｌｏｎ　ｍｏｍｏｉｒｏ【4:助産院】滋賀県大津市" }, "geometry": { "type": "Point", "coordinates": [ 135.86775, 35.003635 ] } },
{ "type": "Feature", "properties": { "ID": 2546250001330, "正式名称": "ひだまり助産院", "機関区分": 4, "都道府県コード": 25, "市区町村コード": 201, "所在地": "滋賀県大津市浜大津", "緯度": 35.011635, "経度": 135.86346, "url": "https://www.iryou.teikyouseido.mhlw.go.jp/znk-web/juminkanja/S2430/initialize?prefCd=25&kikanCd=6250001330&kikanKbn=4", "url2": null, "内容": "ひだまり助産院【4:助産院】滋賀県大津市浜大津" }, "geometry": { "type": "Point", "coordinates": [ 135.86346, 35.011635 ] } },
{ "type": "Feature", "properties": { "ID": 2546250001360, "正式名称": "もえぎ助産院", "機関区分": 4, "都道府県コード": 25, "市区町村コード": 201, "所在地": "滋賀県大津市", "緯度": 35.003635, "経度": 135.86775, "url": "https://www.iryou.teikyouseido.mhlw.go.jp/znk-web/juminkanja/S2430/initialize?prefCd=25&kikanCd=6250001360&kikanKbn=4", "url2": null, "内容": "もえぎ助産院【4:助産院】滋賀県大津市" }, "geometry": { "type": "Point", "coordinates": [ 135.86775, 35.003635 ] } },
{ "type": "Feature", "properties": { "ID": 2546250001390, "正式名称": "小林母乳育児相談処", "機関区分": 4, "都道府県コード": 25, "市区町村コード": 207, "所在地": "滋賀県守山市杉江町６７０", "緯度": 35.072671, "経度": 135.956652, "url": "https://www.iryou.teikyouseido.mhlw.go.jp/znk-web/juminkanja/S2430/initialize?prefCd=25&kikanCd=6250001390&kikanKbn=4", "url2": "https://koba-boni.com/", "内容": "小林母乳育児相談処【4:助産院】滋賀県守山市杉江町６７０" }, "geometry": { "type": "Point", "coordinates": [ 135.956652, 35.072671 ] } },
{ "type": "Feature", "properties": { "ID": 2546250001410, "正式名称": "医療法人せせらぎ会　ＵＫＩＴＡ　Ｍｏｍ＇ｓ　Ｇａｒｄｅｎ", "機関区分": 4, "都道府県コード": 25, "市区町村コード": 201, "所在地": "滋賀県大津市本堅田６丁目３５番２７号", "緯度": 35.120773, "経度": 135.912436, "url": "https://www.iryou.teikyouseido.mhlw.go.jp/znk-web/juminkanja/S2430/initialize?prefCd=25&kikanCd=6250001410&kikanKbn=4", "url2": "www.ukita.gr.jp", "内容": "医療法人せせらぎ会　ＵＫＩＴＡ　Ｍｏｍ＇ｓ　Ｇａｒｄｅｎ【4:助産院】滋賀県大津市本堅田６丁目３５番２７号" }, "geometry": { "type": "Point", "coordinates": [ 135.912436, 35.120773 ] } }
]
}
